"Provider Number","Hospital Name","Address1","Address2","Address3","City","State","ZIP Code","County Name","Phone Number","Hospital Type","Hospital Ownership","Emergency Service","GeoProviderId","Lat","Lon"
"360087","LUTHERAN HOSPITAL","1730 WEST 25TH STREET","","","CLEVELAND","OH","44113","CUYAHOGA","2166964300","Acute Care Hospitals","Voluntary non-profit - Private","Yes","360087","41.4873888","-81.7059546"
"360089","MERCY TIFFIN HOSPITAL","45 ST LAWRENCE DRIVE","","","TIFFIN","OH","44883","SENECA","4194557000","Acute Care Hospitals","Voluntary non-profit - Private","Yes","360089","41.1144992","-83.1779746"
"36008F","CHILLICOTHE VA MEDICAL CENTER","17273 STATE ROUTE 104","","","CHILLICOTHE","OH","45601","ROSS","7407731141","ACUTE CARE - VETERANS ADMINISTRATION","Government Federal","NO","36008F","39.3891064","-83.0140595"
"360090","ST LUKE'S HOSPITAL","5901 MONCLOVA ROAD","","","MAUMEE","OH","43537","LUCAS","4198935900","Acute Care Hospitals","Voluntary non-profit - Other","Yes","360090","41.557253","-83.681413"
"360091","MEDINA HOSPITAL","1000 EAST WASHINGTON STREET","","","MEDINA","OH","44256","MEDINA","3307255600","Acute Care Hospitals","Voluntary non-profit - Private","Yes","360091","41.136989","-81.838725"
"360092","MEMORIAL HOSPITAL OF UNION COUNTY","500 LONDON AVENUE","","","MARYSVILLE","OH","43040","UNION","9375782289","Acute Care Hospitals","Government - Local","Yes","360092","40.229531","-83.36773"
"360096","EAST LIVERPOOL CITY HOSPITAL","425 WEST 5TH STREET","","","EAST LIVERPOOL","OH","43920","COLUMBIANA","3303857200","Acute Care Hospitals","Voluntary non-profit - Private","Yes","360096","40.6214888","-80.5865113"
"360098","LAKE HEALTH","7590 AUBURN ROAD","","","CONCORD","OH","44077","LAKE","4409539600","Acute Care Hospitals","Voluntary non-profit - Private","Yes","360098","41.66317","-81.246959"
"360101","HURON HOSPITAL","13951 TERRACE ROAD","","","CLEVELAND","OH","44112","CUYAHOGA","2167613300","Acute Care Hospitals","Voluntary non-profit - Private","Yes","360101","41.525222","-81.58267"
"360107","BELLEVUE HOSPITAL","1400 WEST MAIN STREET","","","BELLEVUE","OH","44811","SANDUSKY","4194834040","Acute Care Hospitals","Voluntary non-profit - Other","Yes","360107","41.2855269","-82.8839971"
"360109","COSHOCTON COUNTY MEMORIAL HOSPITAL","1460 ORANGE STREET","","","COSHOCTON","OH","43812","COSHOCTON","7406226411","Acute Care Hospitals","Voluntary non-profit - Private","No","360109","40.271019","-81.847994"
"360112","MERCY ST VINCENT MEDICAL CENTER","2213 CHERRY STREET","","","TOLEDO","OH","43608","LUCAS","4192513232","Acute Care Hospitals","Voluntary non-profit - Church","Yes","360112","41.6690788","-83.5423652"
"360113","MERCY FRANCISCAN HOSPITAL WESTERN HILLS","3131 QUEEN CITY AVENUE","","","CINCINNATI","OH","45238","HAMILTON","5133895915","Acute Care Hospitals","Voluntary non-profit - Private","Yes","360113","39.135491","-84.604832"
"360115","UHHS BEDFORD MEDICAL CENTER","44 BLAINE AVENUE","","","BEDFORD","OH","44146","CUYAHOGA","4407353628","Acute Care Hospitals","Voluntary non-profit - Private","Yes","360115","41.394958","-81.534836"
"360116","BROWN COUNTY HOSPITAL","425 HOME STREET","","","GEORGETOWN","OH","45121","BROWN","5133787500","Acute Care Hospitals","Government - Local","Yes","360116","38.8588211","-83.8979173"
"360118","MEDCENTRAL HEALTH SYSTEM","335 GLESSNER AVENUE","","","MANSFIELD","OH","44903","RICHLAND","4195268000","Acute Care Hospitals","Voluntary non-profit - Private","Yes","360118","40.752637","-82.528032"
"360121","COMMUNITY HOSPITALS AND WELLNESS CENTERS","433 WEST HIGH STREET","","","BRYAN","OH","43506","WILLIAMS","4196361131","Acute Care Hospitals","Voluntary non-profit - Other","Yes","360121","41.4745193","-84.5570237"
"360123","ST JOHN MEDICAL CENTER","29000 CENTER RIDGE ROAD","","","WESTLAKE","OH","44145","CUYAHOGA","4408358000","Acute Care Hospitals","Voluntary non-profit - Private","Yes","360123","41.436532","-81.944514"
"360125","ASHTABULA COUNTY MEDICAL CENTER","2420 LAKE AVENUE","","","ASHTABULA","OH","44004","ASHTABULA","4409972262","Acute Care Hospitals","Voluntary non-profit - Other","Yes","360125","41.880342","-80.795533"
"360130","AMHERST HOSPITAL","254 CLEVELAND AVENUE","","","AMHERST","OH","44001","LORAIN","4409886000","Acute Care Hospitals","Voluntary non-profit - Private","Yes","360130","41.399398","-82.224113"
"360131","ALLIANCE COMMUNITY HOSPITAL","200 EAST STATE STREET","","","ALLIANCE","OH","44601","STARK","3305967201","Acute Care Hospitals","Voluntary non-profit - Other","Yes","360131","40.9022094","-81.1026943"
"360132","FORT HAMILTON HUGHES MEMORIAL HOSPITAL","630 EATON AVENUE","","","HAMILTON","OH","45013","BUTLER","5138672124","Acute Care Hospitals","Voluntary non-profit - Private","Yes","360132","39.415506","-84.57263"
"360133","GRANDVIEW HOSPITAL & MEDICAL CENTER","405 GRAND AVENUE","","","DAYTON","OH","45405","MONTGOMERY","9377234988","Acute Care Hospitals","Voluntary non-profit - Other","Yes","360133","39.7690913","-84.2032737"
"360134","GOOD SAMARITAN HOSPITAL","375 DIXMYTH AVENUE","","","CINCINNATI","OH","45220","HAMILTON","5138622601","Acute Care Hospitals","Voluntary non-profit - Church","Yes","360134","39.1400094","-84.5207292"
"360137","UNIVERSITY HOSPITALS OF CLEVELAND","11100 EUCLID AVENUE","","","CLEVELAND","OH","44106","CUYAHOGA","2168441000","Acute Care Hospitals","Voluntary non-profit - Private","Yes","360137","41.5059114","-81.6071514"
"360141","NORTHSIDE MEDICAL CENTER","500 GYPSY LANE","","","YOUNGSTOWN","OH","44501","MAHONING","3308841000","Acute Care Hospitals","Voluntary non-profit - Private","Yes","360141","41.134745","-80.657779"
"360143","MARYMOUNT HOSPITAL","12300 MCCRACKEN ROAD","","","GARFIELD HEIGHTS","OH","44125","CUYAHOGA","2165810500","Acute Care Hospitals","Voluntary non-profit - Church","Yes","360143","41.421116","-81.598084"
"360144","SOUTH POINTE HOSPITAL","20000 HARVARD ROAD","","","WARRENSVILLE HEIGHTS","OH","44122","CUYAHOGA","2164916000","Acute Care Hospitals","Voluntary non-profit - Other","Yes","360144","41.4498434","-81.5379462"
"360145","EMH REGIONAL MEDICAL CENTER","630 EAST RIVER STREET","","","ELYRIA","OH","44035","LORAIN","4403297500","Acute Care Hospitals","Voluntary non-profit - Private","Yes","360145","41.366491","-82.09708"
"360147","MARIETTA MEMORIAL HOSPITAL","401 MATTHEW STREET","","","MARIETTA","OH","45750","WASHINGTON","7403741400","Acute Care Hospitals","Voluntary non-profit - Other","Yes","360147","39.4316064","-81.4647481"
"360148","JOEL POMERENE MEMORIAL HOSPITAL","981 WOOSTER ROAD","","","MILLERSBURG","OH","44654","HOLMES","3306741015","Acute Care Hospitals","Government - Local","Yes","360148","40.5652747","-81.9209919"
"360150","SUMMA WESTERN RESERVE HOSPITAL","1900 23RD STREET","","","CUYAHOGA FALLS","OH","44223","SUMMIT","3309717000","Acute Care Hospitals","Voluntary non-profit - Other","Yes","360150","41.132008","-81.510701"
"360151","AFFINITY MEDICAL CENTER","875 EIGHTH STREET NE","","","MASSILLON","OH","44646","STARK","3308376863","Acute Care Hospitals","Proprietary","Yes","360151","40.806255","-81.5159375"
"360152","DOCTORS HOSPITAL","5100 WEST  BROAD STREET","","","COLUMBUS","OH","43228","FRANKLIN","6145441000","Acute Care Hospitals","Voluntary non-profit - Private","Yes","360152","39.953109","-83.13803"
"360153","BELMONT COMMUNITY HOSPITAL","4697 HARRISON STREET","","","BELLAIRE","OH","43906","BELMONT","7406711200","Acute Care Hospitals","Voluntary non-profit - Other","Yes","360153","40.0289564","-80.7411233"
"360155","SOUTHWEST GENERAL HEALTH CENTER","18697 BAGLEY ROAD","","","MIDDLEBURG HEIGHTS","OH","44130","CUYAHOGA","4408168000","Acute Care Hospitals","Voluntary non-profit - Private","Yes","360155","41.370722","-81.832867"
"360156","MEMORIAL HOSPITAL","715 SOUTH TAFT AVENUE","","","FREMONT","OH","43420","SANDUSKY","4193346617","Acute Care Hospitals","Voluntary non-profit - Other","Yes","360156","41.339127","-83.134406"
"360159","ADENA REGIONAL MEDICAL CENTER","272 HOSPITAL ROAD","","","CHILLICOTHE","OH","45601","ROSS","7407797778","Acute Care Hospitals","Voluntary non-profit - Private","Yes","360159","39.394634","-82.9697877"
"360161","ST JOSEPH HEALTH CENTER","667 EASTLAND AVE SE","","","WARREN","OH","44481","TRUMBULL","3308414000","Acute Care Hospitals","Voluntary non-profit - Other","Yes","360161","41.230463","-80.777492"
"360163","CHRIST HOSPITAL","2139 AUBURN AVENUE","","","CINCINNATI","OH","45219","HAMILTON","5135852771","Acute Care Hospitals","Voluntary non-profit - Private","Yes","360163","39.121082","-84.5086463"
"360170","BERGER HOSPITAL","600 NORTH PICKAWAY STREET","","","CIRCLEVILLE","OH","43113","PICKAWAY","7404208585","Acute Care Hospitals","Government - Local","Yes","360170","39.6091512","-82.9383972"
"360172","COMMUNITY REGIONAL MEDICAL CENTER","3700 KOLBE ROAD","","","LORAIN","OH","44053","LORAIN","4409603295","Acute Care Hospitals","Voluntary non-profit - Church","Yes","360172","41.4368849","-82.237613"
"360174","UPPER VALLEY MEDICAL CENTER","3130 NORTH COUNTY ROAD 25A","","","TROY","OH","45373","MIAMI","9374407853","Acute Care Hospitals","Voluntary non-profit - Private","Yes","360174","40.0891484","-84.2240378"
"360175","CMH REGIONAL HEALTH SYSTEM","610 WEST MAIN STREET","","","WILMINGTON","OH","45177","CLINTON","9373826611","Acute Care Hospitals","Government - Local","Yes","360175","39.4454859","-83.8383133"
"360179","BETHESDA NORTH HOSPITAL","10500 MONTGOMERY ROAD","","","CINCINNATI","OH","45242","HAMILTON","5135696141","Acute Care Hospitals","Voluntary non-profit - Church","Yes","360179","39.249446","-84.3413"
"360180","CLEVELAND CLINIC","9500 EUCLID AVENUE","","","CLEVELAND","OH","44195","CUYAHOGA","2164442200","Acute Care Hospitals","Voluntary non-profit - Private","Yes","360180","41.502254","-81.622325"
"360185","SALEM COMMUNITY HOSPITAL","1995 EAST STATE STREET","","","SALEM","OH","44460","COLUMBIANA","3303321551","Acute Care Hospitals","Voluntary non-profit - Private","Yes","360185","40.9009257","-80.8318133"
"360189","MADISON COUNTY HOSPITAL INC","210 NORTH MAIN STREET","","","LONDON","OH","43140","MADISON","7408457010","Acute Care Hospitals","Voluntary non-profit - Other","Yes","360189","39.894989","-83.4545179"
"360192","UH GEAUGA MEDICAL CENTER","13207 RAVENNA RD","","","CHARDON","OH","44024","GEAUGA","4402696000","Acute Care Hospitals","Voluntary non-profit - Private","Yes","360192","41.50885","-81.190188"
"360195","SUMMA WADSWORTH-RITTMAN HOSPITAL","195 WADSWORTH ROAD","","","WADSWORTH","OH","44281","MEDINA","3303341504","Acute Care Hospitals","Voluntary non-profit - Private","Yes","360195","41.028187","-81.752964"
"360197","MARY RUTAN HOSPITAL","205 PALMER AVENUE","","","BELLEFONTAINE","OH","43311","LOGAN","9375924015","Acute Care Hospitals","Voluntary non-profit - Private","Yes","360197","40.3684144","-83.7570624"
"360203","SOUTHEASTERN OHIO REGIONAL MEDICAL CENTER","1341 NORTH CLARK STREET","","","CAMBRIDGE","OH","43725","GUERNSEY","7404398111","Acute Care Hospitals","Voluntary non-profit - Private","Yes","360203","40.041146","-81.577894"
"360210","GRADY MEMORIAL HOSPITAL","561 WEST CENTRAL AVENUE","","","DELAWARE","OH","43015","DELAWARE","7403685145","Acute Care Hospitals","Voluntary non-profit - Private","Yes","360210","40.305623","-83.089148"
"360211","TRINITY MEDICAL CTR EAST&TRINITY MEDICAL CTR WEST","380 SUMMIT AVENUE","","","STEUBENVILLE","OH","43952","JEFFERSON","7402647212","Acute Care Hospitals","Voluntary non-profit - Other","Yes","360211","40.3560741","-80.6250369"
"360212","LAKEWOOD HOSPITAL","14519 DETROIT AVENUE","","","LAKEWOOD","OH","44107","CUYAHOGA","2165294200","Acute Care Hospitals","Voluntary non-profit - Private","Yes","360212","41.4847899","-81.7964889"
"360218","LICKING MEMORIAL HOSPITAL","1320 WEST MAIN STREET","","","NEWARK","OH","43055","LICKING","7403484000","Acute Care Hospitals","Voluntary non-profit - Private","Yes","360218","40.048764","-82.450288"
"360230","HILLCREST HOSPITAL","6780 MAYFIELD ROAD","","","MAYFIELD HEIGHTS","OH","44124","CUYAHOGA","4403124500","Acute Care Hospitals","Voluntary non-profit - Private","Yes","360230","41.5201464","-81.4322121"
"360234","MERCY FRANCISCAN HOSPITAL - MT AIRY","2446 KIPLING AVENUE","","","CINCINNATI","OH","45239","HAMILTON","5138535000","Acute Care Hospitals","Voluntary non-profit - Private","No","360234","39.204626","-84.570925"
"360236","MERCY HOSPITAL CLERMONT","3000 HOSPITAL DRIVE","","","BATAVIA","OH","45103","CLERMONT","5137328278","Acute Care Hospitals","Voluntary non-profit - Church","Yes","360236","39.080232","-84.144589"
"360239","KETTERING MEDICAL CENTER - SYCAMORE","4000 MIAMISBURG-CENTERVILLE ROAD","","","MIAMISBURG","OH","45342","MONTGOMERY","9373848776","Acute Care Hospitals","Voluntary non-profit - Church","Yes","360239","39.6377752","-84.248638"
"360241","EDWIN SHAW REHABILITATION INSTITUTE","330 BROADWAY EAST","","","CUYAHOGA FALLS","OH","44221","SUMMIT","3304360910","Acute Care Hospitals","Government - Local","No","360241","41.131882","-81.477442"
"360245","GLENBEIGH","2863 STATE ROUTE 45","","","ROCK CREEK","OH","44084","ASHTABULA","4405633400","Acute Care Hospitals","Voluntary non-profit - Private","No","360245","41.67236","-80.8567809"
"360247","WOODS AT PARKSIDETHE","349 OLDE RIDENOUR ROAD","","","COLUMBUS","OH","43230","FRANKLIN","6144712552","Acute Care Hospitals","Proprietary","No","360247","40.02711","-82.881818"
"360259","BAY PARK COMMUNITY HOSPITAL","2801 BAY PARK DRIVE","","","OREGON","OH","43616","LUCAS","4196907700","Acute Care Hospitals","Voluntary non-profit - Other","Yes","360259","41.6202414","-83.48327"
"360261","THREE GABLES SURGERY CENTER LLC","5897 SR 7","","","PROCTORVILLE","OH","45669","LAWRENCE","7408869911","Acute Care Hospitals","Proprietary","No","360261","38.4392232","-82.3879569"
"360262","MERCY ST ANNE HOSPITAL","3404 SYLVANIA AVENUE","","","TOLEDO","OH","43623","LUCAS","4194072663","Acute Care Hospitals","Voluntary non-profit - Church","Yes","360262","41.69195","-83.624546"
"360263","INSTITUTE FOR ORTHOPEDIC SURGERY","801 MEDICAL DRIVE SUITE B","","","LIMA","OH","45804","ALLEN","4192247586","Acute Care Hospitals","Proprietary","No","360263","40.6967135","-84.0897883"
"360266","MOUNT CARMEL NEW ALBANY SURGICAL HOSPITAL","7333 SMITH'S MILL ROAD","","","NEW ALBANY","OH","43054","FRANKLIN","6145464533","Acute Care Hospitals","Proprietary","No","360266","40.087098","-82.792343"
"360269","BUTLER COUNTY MEDICAL CENTER","3125 HAMILTON MASON ROAD","","","HAMILTON","OH","45011","BUTLER","5138948888","Acute Care Hospitals","Proprietary","No","360269","39.3781869","-84.515013"
"360270","MERCY HOSPITAL OF DEFIANCE","1404 EAST SECOND STREET","","","DEFIANCE","OH","43512","DEFIANCE","4197828444","Acute Care Hospitals","Proprietary","Yes","360270","41.2843919","-84.33944"
"360271","UNIVERSITY POINTE SURGICAL HOSPITAL","7750 UNIVERSITY COURT","","","WEST CHESTER","OH","45069","BUTLER","5134758300","Acute Care Hospitals","Voluntary non-profit - Other","No","360271","39.36169","-84.365564"
"360274","MEDICAL CENTER AT ELIZABETH PLACE","ONE ELIZABETH PLACE","","","DAYTON","OH","45408","MONTGOMERY","9378531053","Acute Care Hospitals","Government - Federal","Yes","360274","39.7460471","-84.1996625"
"360276","ST ELIZABETH BOARDMAN HEALTH CENTER","8401 MARKET STREET","","","YOUNGSTOWN","OH","44512","MAHONING","3307292929","Acute Care Hospitals","Voluntary non-profit - Church","Yes","360276","40.994981","-80.661916"
"360347","MEDICAL CENTER OF NEWARK LLC","2000 TAMARACK ROAD","","","NEWARK","OH","43055","LICKING","7405227800","Acute Care Hospitals","Voluntary non-profit - Private","No","360347","40.0425406","-82.4647839"
"360348","DUBLIN METHODIST HOSPITAL","7500 HOSPITAL AVENUE","","","DUBLIN","OH","43016","FRANKLIN","6145448000","Acute Care Hospitals","Voluntary non-profit - Church","Yes","360348","40.0997026","-83.1655228"
"360350","EVENDALE MEDICAL CENTER","3155 GLENDALE-MILFORD ROAD","","","CINCINNATI","OH","45241","HAMILTON","5134542222","Acute Care Hospitals","Proprietary","No","360350","39.251577","-84.420804"
"360351","CRYSTAL CLINIC ORTHOPAEDIC CENTER","444 NORTH MAIN STREET","","","AKRON","OH","44310","SUMMIT","3306684040","Acute Care Hospitals","Proprietary","No","360351","41.096976","-81.513553"
"360352","SURGICAL HOSPITAL AT SOUTHWOODS","7630 SOUTHERN BLVD","","","YOUNGSTOWN","OH","44512","MAHONING","3307581954","Acute Care Hospitals","Voluntary non-profit - Private","No","360352","41.015333","-80.655502"
"360354","WEST CHESTER MEDICAL CENTER","7700 UNIVERSITY DRIVE","","","WEST CHESTER","OH","45069","BUTLER","5132987700","Acute Care Hospitals","Voluntary non-profit - Private","No","360354","39.358299","-84.367845"
"360355","OHIO VALLEY MEDICAL CENTER LLC","100 WEST MAIN STREET","","","SPRINGFIELD","OH","45502","CLARK","9375213900","Acute Care Hospitals","Voluntary non-profit - Private","No","360355","39.9247522","-83.8123081"
"360356","PHYSICIAN'S CHOICE HOSPITAL - FREMONT LLC","2390 ENTERPRISE DRIVE","","","FREMONT","OH","43420","SANDUSKY","4194611057","Acute Care Hospitals","Voluntary non-profit - Private","Yes","360356","41.3792683","-83.114763"
"360357","LIFE LINE HOSPITAL","200 SCHOOL STREET","","","WINTERSVILLE","OH","43953","JEFFERSON","7403462600","Acute Care Hospitals","Voluntary non-profit - Private","No","360357","40.3730112","-80.6997014"
"360358","DILEY RIDGE MEDICAL CENTER","7911 DILEY ROAD","","","CANAL WINCHESTER","OH","43110","FAIRFIELD","6148387910","Acute Care Hospitals","Voluntary non-profit - Private","Yes","360358","39.8497451","-82.7811436"
"361300","PAULDING COUNTY HOSPITAL","1035 WEST WAYNE ST.","","","PAULDING","OH","45879","PAULDING","4193994080","Critical Access Hospitals","Government - Local","Yes","361300","41.135159","-84.602251"
"361302","TWIN CITY HOSPITAL","819 NORTH FIRST STREET","","","DENNISON","OH","44621","TUSCARAWAS","7409222800","Critical Access Hospitals","Voluntary non-profit - Other","Yes","361302","40.401292","-81.335524"
"361303","LODI COMMUNITY HOSPITAL","225 ELYRIA STREET","","","LODI","OH","44254","MEDINA","3309481222","Critical Access Hospitals","Voluntary non-profit - Private","Yes","361303","41.035241","-82.014676"
"361304","GREENFIELD AREA MEDICAL CENTER","550 MIRABEAU STREET","","","GREENFIELD ","OH","45123","HIGHLAND","9379819400","Critical Access Hospitals","Voluntary non-profit - Private","Yes","361304","39.3494255","-83.3875113"
"361305","DOCTORS HOSPITAL OF NELSONVILLE","1950 MOUNT ST MARYS DRIVE","","","NELSONVILLE","OH","45764","ATHENS","7407537302","Critical Access Hospitals","Voluntary non-profit - Private","Yes","361305","39.4632721","-82.2431245"
"361306","ALLEN COMMUNITY HOSPITAL","200 WEST LORAIN STREET","","","OBERLIN","OH","44074","LORAIN","4407751211","Critical Access Hospitals","Voluntary non-profit - Private","Yes","361306","41.2942449","-82.2247812"
"361307","UHHS MEMORIAL HOSPITAL OF GENEVA","870 WEST MAIN STREET","","","GENEVA","OH","44041","ASHTABULA","4404661141","Critical Access Hospitals","Voluntary non-profit - Private","Yes","361307","41.798904","-80.9621109"
"361308","UNIVERSITY HOSPITALS CONNEAUT MEDICAL CENTER","158 WEST MAIN ROAD","","","CONNEAUT","OH","44030","ASHTABULA","4405931131","Critical Access Hospitals","Voluntary non-profit - Other","Yes","361308","41.937683","-80.5865199"
"361309","HENRY COUNTY HOSPITAL INC","1600 EAST RIVERVIEW AVENUE","","","NAPOLEON","OH","43545","HENRY","4195924015","Critical Access Hospitals","Voluntary non-profit - Private","Yes","361309","41.4099053","-84.0959242"
"361310","MERCY HOSPITAL OF WILLARD","110 E HOWARD ST","","","WILLARD","OH","44890","HURON","4199645000","Critical Access Hospitals","Voluntary non-profit - Other","Yes","361310","41.048385","-82.724304"
"361311","HARRISON COMMUNITY HOSPITAL","951 EAST MARKET STREET","","","CADIZ","OH","43907","HARRISON","7409424631","Critical Access Hospitals","Voluntary non-profit - Private","Yes","361311","40.258213","-80.9792345"
"361312","MERCY MEMORIAL HOSPITAL","904 SCIOTO AVENUE","","","URBANA","OH","43078","CHAMPAIGN","9374846147","Critical Access Hospitals","Voluntary non-profit - Church","Yes","361312","40.106751","-83.729026"
"361313","MORROW COUNTY HOSPITAL","651 WEST MARION ROAD","","","MOUNT GILEAD","OH","43338","MORROW","4199493180","Critical Access Hospitals","Government - Local","Yes","361313","40.549133","-82.8491839"
"361314","H B MAGRUDER MEMORIAL HOSPITAL","615 FULTON ST","","","PORT CLINTON","OH","43452","OTTAWA","4197343131","Critical Access Hospitals","Voluntary non-profit - Private","Yes","361314","41.505821","-82.931965"
"361315","HARDIN MEMORIAL HOSPITAL","921 EAST FRANKLIN STREET","","","KENTON","OH","43326","HENRY","4196730761","Critical Access Hospitals","Voluntary non-profit - Other","Yes","361315","40.64571","-83.595654"
"361316","BUCYRUS COMMUNITY HOSPITAL","629 NORTH SANDUSKY AVENUE","","","BUCYRUS","OH","44820","CRAWFORD","4195624677","Critical Access Hospitals","Voluntary non-profit - Other","Yes","361316","40.815849","-82.977675"
"361318","FOSTORIA COMMUNITY HOSPITAL","501 VAN BUREN STREET","","","FOSTORIA","OH","44830","SENECA","4194357734","Critical Access Hospitals","Voluntary non-profit - Private","Yes","361318","41.1631209","-83.4232619"
"361319","SELBY GENERAL HOSPITAL","1106 COLEGATE DRIVE","","","MARIETTA","OH","45750","WASHINGTON","7405682000","Critical Access Hospitals","Voluntary non-profit - Private","Yes","361319","39.439806","-81.443771"
"361320","HOLZER MEDICAL CENTER JACKSON","500 BURLINGTON ROAD","","","JACKSON","OH","45640","JACKSON","7403958500","Critical Access Hospitals","Voluntary non-profit - Private","Yes","361320","39.0302417","-82.6380792"
"361321","BARNESVILLE HOSPITAL ASSOCIATION INC","639 WEST MAIN STREET","","","BARNESVILLE","OH","43713","BELMONT","7404255101","Critical Access Hospitals","Voluntary non-profit - Private","Yes","361321","39.990345","-81.185113"
"361322","BLUFFTON HOSPITAL","139 GARAU STREET","","","BLUFFTON","OH","45817","ALLEN","4193589010","Critical Access Hospitals","Voluntary non-profit - Private","Yes","361322","40.8875249","-83.897457"
"361323","DUNLAP MEMORIAL HOSPITAL","832 SOUTH MAIN STREET","","","ORRVILLE","OH","44667","WAYNE","3306823010","Critical Access Hospitals","Voluntary non-profit - Private","Yes","361323","40.8325122","-81.7645569"
"361324","MEDCENTRAL HEALTH SYSTEM SHELBY HOSPITAL","199 WEST MAIN STREET","","","SHELBY","OH","44875","RICHLAND","4193425015","Critical Access Hospitals","Voluntary non-profit - Private","Yes","361324","40.8812235","-82.6733709"
"361325","GALION COMMUNITY HOSPITAL","269 PORTLAND WAY SOUTH","","","GALION","OH","44833","CRAWFORD","4194684841","Critical Access Hospitals","Voluntary non-profit - Church","Yes","361325","40.731983","-82.802364"
"361326","ADAMS COUNTY REGIONAL MEDICAL CENTER","230 MEDICAL CENTER DRIVE","","","SEAMAN","OH","45679","ADAMS","9373863400","Critical Access Hospitals","Government - Local","Yes","361326","38.9341208","-83.5858434"
"361328","DEFIANCE REGIONAL MEDICAL CENTER","1200 RALSTON AVENUE","","","DEFIANCE","OH","43512","DEFIANCE","4197836955","Critical Access Hospitals","Voluntary non-profit - Private","Yes","361328","41.298516","-84.376954"
"361329","WYANDOT MEMORIAL HOSPITAL","885 NORTH SANDUSKY AVENUE","","","UPPER SANDUSKY","OH","43351","WYANDOT","4192944991","Critical Access Hospitals","Government - Hospital District or Authority","Yes","361329","40.8398372","-83.2809031"
"361330","HOCKING VALLEY COMMUNITY HOSPITAL","STATE ROUTE 664N","","","LOGAN","OH","43138","HOCKING","7403808000","Critical Access Hospitals","Voluntary non-profit - Other","Yes","361330","39.5260957","-82.4613382"
"361331","FAYETTE COUNTY MEMORIAL HOSPITAL","1430 COLUMBUS AVENUE","","","WASHINGTON CH","OH","43160","FAYETTE","7403331210","Critical Access Hospitals","Government - Local","Yes","361331","39.7036552","-83.2799027"
"361332","HIGHLAND DISTRICT HOSPITAL","1275 NORTH HIGH STREET","","","HILLSBORO","OH","45133","HIGHLAND","9373936100","Critical Access Hospitals","Government - Hospital District or Authority","Yes","361332","39.2249636","-83.6096946"
"361333","FULTON COUNTY HEALTH CENTER","725 SOUTH SHOOP AVENUE","","","WAUSEON","OH","43567","FULTON","4193352015","Critical Access Hospitals","Voluntary non-profit - Private","Yes","361333","41.538388","-84.13269"
"361334","PIKE COMMUNITY HOSPITAL","100 DAWN LANE","","","WAVERLY","OH","45690","PIKE","7409472186","Critical Access Hospitals","Voluntary non-profit - Private","Yes","361334","39.1176715","-83.0063966"
"370001","HILLCREST MEDICAL CENTER","1120 SOUTH UTICA AVENUE","","","TULSA","OK","74104","TULSA","9185791000","Acute Care Hospitals","Voluntary non-profit - Other","Yes","370001","36.146872","-95.96841"
"370002","WOODWARD REGIONAL HOSPITAL","900 17TH STREET","","","WOODWARD","OK","73801","WOODWARD","5802565511","Acute Care Hospitals","Proprietary","Yes","370002","36.438328","-99.4009148"
"370004","INTEGRIS BAPTIST REG HEALTH CENTER","200 SECOND AVENUE SOUTHWEST BOX 1207","","","MIAMI","OK","74355","OTTAWA","9185426611","Acute Care Hospitals","Voluntary non-profit - Other","Yes","370004","36.87","-94.88"
"370006","PONCA CITY MEDICAL CENTER","1900 NORTH 14TH STREET","","","PONCA CITY","OK","74601","KAY","5807653321","Acute Care Hospitals","Proprietary","Yes","370006","36.725639","-97.068586"
"370007","NEWMAN MEMORIAL HOSPITAL","905 SOUTH MAIN STREET","","","SHATTUCK","OK","73858","ELLIS","5809382551","Acute Care Hospitals","Government - Hospital District or Authority","Yes","370007","36.2686394","-99.8815339"
"370008","NORMAN REGIONAL HEALTH SYSTEM","901 NORTH PORTER","","","NORMAN","OK","73070","CLEVELAND","4053211700","Acute Care Hospitals","Government - Local","Yes","370008","35.230279","-97.440108"
"370011","MERCY HOSPITAL EL RENO","2115 PARK VIEW DRIVE","","","EL RENO","OK","73036","CANADIAN","4052622640","Acute Care Hospitals","Government - Local","Yes","370011","35.5306461","-97.9770035"
"370013","MERCY HEALTH CENTER INC","4300 WEST MEMORIAL ROAD","","","OKLAHOMA CITY","OK","73120","OKLAHOMA","4057551515","Acute Care Hospitals","Voluntary non-profit - Church","Yes","370013","35.607345","-97.59693"
"370014","MEDICAL CENTER OF SOUTHEASTERN OKLAHOMA","1800 UNIVERSITY BOULEVARD","","","DURANT","OK","74702","BRYAN","4059243080","Acute Care Hospitals","Proprietary","Yes","370014","34.006549","-96.393983"
"370015","INTEGRIS MAYES COUNTY MEDICAL CENTER","111 NORTH BAILEY STREET","","","PRYOR","OK","74361","MAYES","9188251600","Acute Care Hospitals","Voluntary non-profit - Other","Yes","370015","36.3074848","-95.3053338"
"370016","INTEGRIS BASS BAPTIST HEALTH CENTER","600 SOUTH MONROE","","","ENID","OK","73701","GARFIELD","4052332300","Acute Care Hospitals","Voluntary non-profit - Private","Yes","370016","36.3907559","-97.8866263"
"370018","JANE PHILLIPS MEDICAL CENTER","3500 EAST FRANK PHILLIPS BOULEVARD","","","BARTLESVILLE","OK","74006","WASHINGTON","9183337200","Acute Care Hospitals","Voluntary non-profit - Church","Yes","370018","36.7519872","-95.9408948"
"370019","GREAT PLAINS REGIONAL MEDICAL CENTER","1801 WEST 3RD STREET","","","ELK CITY","OK","73644","BECKHAM","5802252511","Acute Care Hospitals","Voluntary non-profit - Private","Yes","370019","35.4117385","-99.4251056"
"370020","VALLEY VIEW REGIONAL HOSPITAL","430 NORTH MONTA VISTA","","","ADA","OK","74820","PONTOTOC","5804216074","Acute Care Hospitals","Voluntary non-profit - Private","Yes","370020","34.7744159","-96.6347705"
"370022","JACKSON COUNTY MEMORIAL HOSPITAL","1200 EAST PECAN","","","ALTUS","OK","73523","JACKSON","5804824781","Acute Care Hospitals","Government - Hospital District or Authority","Yes","370022","34.635095","-99.316999"
"370023","DUNCAN REGIONAL HOSPITAL INC","1407 WHISENANT DRIVE","","","DUNCAN","OK","73533","STEPHENS","5802525300","Acute Care Hospitals","Proprietary","No","370023","34.5199989","-97.9749978"
"370025","MUSKOGEE REGIONAL MEDICAL CENTER","300 ROCKEFELLER DRIVE","","","MUSKOGEE","OK","74401","MUSKOGEE","9186825501","Acute Care Hospitals","Government - Hospital District or Authority","Yes","370025","35.7535076","-95.4061271"
"370026","ST MARY'S REGIONAL MEDICAL CENTER","305 SOUTH 5TH STREET","","","ENID","OK","73701","GARFIELD","5802336100","Acute Care Hospitals","Proprietary","Yes","370026","36.393867","-97.87186"
"370028","INTEGRIS BAPTIST MEDICAL CENTER","3300 NORTHWEST EXPRESSWAY","","","OKLAHOMA CITY","OK","73112","OKLAHOMA","4059493011","Acute Care Hospitals","Voluntary non-profit - Private","Yes","370028","35.530869","-97.5767117"
"370029","INTEGRIS CLINTON REGIONAL HOSPITAL","100 NORTH 30TH STREET","","","CLINTON","OK","73601","CUSTER","5803232363","Acute Care Hospitals","Government - Local","Yes","370029","35.514514","-98.996485"
"370030","INTEGRIS BLACKWELL REGIONAL HOSPITAL","710 SOUTH 13TH STREET","","","BLACKWELL","OK","74631","KAY","5803632311","Acute Care Hospitals","Voluntary non-profit - Private","No","370030","36.798281","-97.299988"
"370032","DEACONESS HOSPITAL","5501 NORTH PORTLAND AVENUE","","","OKLAHOMA CITY","OK","73112","OKLAHOMA","4056046109","Acute Care Hospitals","Proprietary","No","370032","35.5268021","-97.5836689"
"370034","MCALESTER REGIONAL HEALTH CENTER","ONE CLARK BASS BOULEVARD","","","MCALESTER","OK","74501","PITTSBURG","9184261800","Acute Care Hospitals","Voluntary non-profit - Other","Yes","370034","34.9342697","-95.7507215"
"370036","HARMON MEMORIAL HOSPITAL","400 EAST CHESTNUT STREET","","","HOLLIS","OK","73550","HARMON","5806883363","Acute Care Hospitals","Voluntary non-profit - Other","No","370036","34.691495","-99.9148762"
"370037","ST ANTHONY HOSPITAL","1000 NORTH LEE AVENUE","","","OKLAHOMA CITY","OK","73101","OKLAHOMA","4052727000","Acute Care Hospitals","Voluntary non-profit - Church","Yes","370037","35.4780019","-97.523522"
"370039","CLAREMORE REGIONAL HOSPITAL","1202 N MUSKOGEE PLACE","","","CLAREMORE","OK","74017","ROGERS","9183426777","Acute Care Hospitals","Proprietary","Yes","370039","36.322643","-95.604625"
"370040","EASTERN OKLAHOMA MEDICAL CENTER","105 WALL STREET","","","POTEAU","OK","74953","LE FLORE","9186478161","Acute Care Hospitals","Voluntary non-profit - Other","Yes","370040","35.0445304","-94.6121388"
"370041","BRISTOW MEDICAL CENTER","700 W. 7TH","","","BRISTOW","OK","74010","CREEK","9183672215","Acute Care Hospitals","Proprietary","No","370041","35.8338057","-96.4010137"
"370047","MERCY MEMORIAL HEALTH CENTER","1011 FOURTEENTH AVENUE NORTHWEST ","","","ARDMORE","OK","73401","CARTER","4052235400","Acute Care Hospitals","Voluntary non-profit - Other","Yes","370047","34.189085","-97.141276"
"370048","MCCURTAIN MEMORIAL HOSPITAL","1301 LINCOLN ROAD","","","IDABEL","OK","74745","MCCURTAIN","5802867623","Acute Care Hospitals","Voluntary non-profit - Private","No","370048","33.8809132","-94.8127308"
"370049","STILLWATER MEDICAL CENTER","1323 WEST 6TH STREET","","","STILLWATER","OK","74076","PAYNE","4053721480","Acute Care Hospitals","Government - Hospital District or Authority","Yes","370049","36.11504","-97.074403"
"370051","MEMORIAL HOSPITAL & PHYSICIAN GROUP","319 EAST JOSEPHINE","","","FREDERICK","OK","73542","TILLMAN","5803357565","Acute Care Hospitals","Voluntary non-profit - Other","Yes","370051","34.4033028","-99.0144377"
"370054","GRADY MEMORIAL HOSPITAL","2220 IOWA STREET","","","CHICKASHA","OK","73018","GRADY","4052242300","Acute Care Hospitals","Voluntary non-profit - Other","No","370054","35.049241","-97.961299"
"370056","COMANCHE COUNTY MEMORIAL HOSPITAL","3401 WEST GORE BOULVARD","","","LAWTON","OK","73505","COMANCHE","5803558620","Acute Care Hospitals","Government - Hospital District or Authority","Yes","370056","34.6089474","-98.4367357"
"370057","OKMULGEE MEMORIAL HOSPITAL","1401 MORRIS DRIVE PO BOX 1038","","","OKMULGEE","OK","74447","OKMULGEE","9187564233","Acute Care Hospitals","Voluntary non-profit - Private","Yes","370057","35.6104069","-95.9532168"
"370065","CRAIG GENERAL HOSPITAL","735 NORTH FOREMAN","","","VINITA","OK","74301","CRAIG","9182567551","Acute Care Hospitals","Voluntary non-profit - Other","Yes","370065","36.6531624","-95.1557792"
"370072","LATIMER COUNTY GENERAL HOSPITAL","806 STATE HIGHWAY 2 NORTH","","","WILBURTON","OK","74578","LATIMER","9184652391","Acute Care Hospitals","Voluntary non-profit - Other","No","370072","34.9200344","-95.3202559"
"370078","OKLAHOMA STATE UNIVERSITY MEDICAL CENTER","744 WEST 9TH STREET","","","TULSA","OK","74127","OSAGE","9185872561","Acute Care Hospitals","Proprietary","Yes","370078","36.1469661","-96.0000439"
"370080","SHARE MEMORIAL HOSPITAL","800 SHARE DRIVE","","","ALVA","OK","73717","WOODS","5803272800","Acute Care Hospitals","Government - Local","Yes","370080","36.7871088","-98.6702103"
"370083","PUSHMATAHA CTY-TN OF ANTLERS HOSP AUTH","510 EAST MAIN STREET","","","ANTLERS","OK","74523","PUSHMATAHA","5802983341","Acute Care Hospitals","Government - Hospital District or Authority","Yes","370083","34.2317524","-95.6154565"
"370084","HASKELL COUNTY HEALTHCARE SYSTEM","401 NORTHWEST H STREET","","","STIGLER","OK","74462","HASKELL","9189674682","Acute Care Hospitals","Voluntary non-profit-Other","Yes","370084","35.2608071","-95.1282401"
"370089","TAHLEQUAH CITY HOSPITAL","1400 EAST DOWNING STREET","","","TAHLEQUAH","OK","74465","CHEROKEE","9184560641","Acute Care Hospitals","Voluntary non-profit - Other","Yes","370089","35.9153359","-94.9499611"
"370091","SAINT FRANCIS HOSPITAL INC","6161 SOUTH YALE","","","TULSA","OK","74136","TULSA","9184942200","Acute Care Hospitals","Voluntary non-profit - Other","Yes","370091","36.072803","-95.9194179"
"370093","O U MEDICAL CENTER","1200 EVERETT DRIVE","","","OKLAHOMA CITY","OK","73117","OKLAHOMA","4052715151","Acute Care Hospitals","Proprietary","Yes","370093","35.4813806","-97.4962537"
"370094","MIDWEST REGIONAL MEDICAL CENTER","2825 PARKLAWN DRIVE","","","MIDWEST CITY","OK","73110","OKLAHOMA","4056104411","Acute Care Hospitals","Proprietary","Yes","370094","35.467212","-97.393704"
"370097","SOUTHWESTERN MEDICAL CENTER","5602 SOUTHWEST LEE BOULEVARD","","","LAWTON","OK","73505","COMANCHE","5805314700","Acute Care Hospitals","Proprietary","Yes","370097","34.5943392","-98.4610453"
"370099","CUSHING REGIONAL HOSPITAL","1027 EAST CHERRY STREET","","","CUSHING","OK","74023","PAYNE","9182252915","Acute Care Hospitals","Proprietary","Yes","370099","35.97828","-96.757461"
"370100","CHOCTAW MEMORIAL HOSPITAL","1405 EAST KIRK ROAD","","","HUGO","OK","74743","CHOCTAW","5803179500","Acute Care Hospitals","Voluntary non-profit - Other","No","370100","34.0115933","-95.4921035"
"370103","SAYRE MEMORIAL HOSPITAL INC","911 HOSPITAL DRIVE","","","SAYRE","OK","73662","BECKHAM","5809285541","Acute Care Hospitals","Government - Hospital District or Authority","No","370103","35.3065222","-99.6329522"
"370106","INTEGRIS SOUTHWEST MEDICAL CENTER","4401 SOUTH WESTERN AVENUE","","","OKLAHOMA CITY","OK","73109","OKLAHOMA","4056367777","Acute Care Hospitals","Voluntary non-profit - Private","Yes","370106","35.4216849","-97.533061"
"370112","SEQUOYAH MEMORIAL HOSPITAL","213 EAST REDWOOD","","","SALLISAW","OK","74955","SEQUOYAH","9187741100","Acute Care Hospitals","Voluntary non-profit - Other","Yes","370112","35.4634641","-94.7888604"
"370113","INTEGRIS GROVE HOSPITAL","1001 EAST 18TH STREET","","","GROVE","OK","74344","DELAWARE","9187862243","Acute Care Hospitals","Voluntary non-profit - Other","Yes","370113","36.5788738","-94.7707153"
"370114","ST JOHN MEDICAL CENTER INC","1923 SOUTH UTICA AVENUE","","","TULSA","OK","74104","TULSA","9187442345","Acute Care Hospitals","Voluntary non-profit - Church","Yes","370114","36.134224","-95.9661519"
"37012F","MUSKOGEE VA MEDICAL CENTER","1011 HONOR HEIGHTS DRIVE","","","MUSKOGEE   ","OK","74401","MUSKOGEE","9185773000","ACUTE CARE - VETERANS ADMINISTRATION","Government Federal","NO","37012F","35.7634902","-95.4131562"
"370138","MEMORIAL HOSPITAL OF TEXAS COUNTY","520 MEDICAL DRIVE","","","GUYMON","OK","73942","TEXAS","5803386515","Acute Care Hospitals","Government - Local","Yes","370138","36.6907096","-101.4759864"
"370139","PERRY MEMORIAL HOSPITAL","501 FOURTEENTH STREET","","","PERRY","OK","73077","NOBLE","5803363541","Acute Care Hospitals","Government - Hospital District or Authority","Yes","370139","36.2891679","-97.29952"
"370148","EDMOND MEDICAL CENTER","ONE SOUTH BRYANT","","","EDMOND","OK","73034","OKLAHOMA","4053416100","Acute Care Hospitals","Proprietary","No","370148","35.653794","-97.461525"
"370149","UNITY HEALTH CENTER","1102 W MACARTHUR","","","SHAWNEE","OK","74804","POTTAWATOMIE","4052732270","Acute Care Hospitals","Voluntary non-profit - Other","Yes","370149","35.3617577","-96.9366779"
"37014F","OKLAHOMA CITY VA MEDICAL CENTER","921 NE 13TH STREET","","","OKLAHOMA CITY                 ","OK","73104","OKLAHOMA","4052700501","ACUTE CARE - VETERANS ADMINISTRATION","Government Federal","NO","37014F","35.483257","-97.495722"
"370153","ELKVIEW GENERAL HOSPITAL","429 WEST ELM STREET","","","HOBART","OK","73651","KIOWA","5807263324","Acute Care Hospitals","Government - Hospital District or Authority","Yes","370153","35.0368234","-99.0977122"
"370156","PAULS VALLEY GENERAL HOSPITAL","100 VALLEY DRIVE","","","PAULS VALLEY","OK","73075","GARVIN","4052385501","Acute Care Hospitals","Government - Hospital District or Authority","Yes","370156","34.7667821","-97.188387"
"370158","PURCELL MUNICIPAL HOSPITAL","1500 NORTH GREEN AVENUE","","","PURCELL","OK","73080","MCCLAIN","4055276524","Acute Care Hospitals","Government - Hospital District or Authority","Yes","370158","35.0287725","-97.3658028"
"370166","WAGONER COMMUNITY HOSPITAL","1200 WEST CHEROKEE STREET","","","WAGONER","OK","74467","WAGONER","9184855514","Acute Care Hospitals","Government - Hospital District or Authority","Yes","370166","35.9599924","-95.3930552"
"370169","EPIC MEDICAL CENTER","1 HOSPITAL DRIVE","","","EUFAULA","OK","74432","MCINTOSH","9186892535","Acute Care Hospitals","Government - Federal","Yes","370169","35.3109126","-95.5918609"
"370170","USPHS LAWTON INDIAN HOSPITAL","1515 LAWRIE TATUM ROAD","","","LAWTON","OK","73507","COMANCHE","5803545000","Acute Care Hospitals","Government - Federal","Yes","370170","34.6275531","-98.3856209"
"370171","W W HASTINGS INDIAN HOSPITAL","100 S BLISS AVENUE","","","TAHLEQUAH","OK","74464","CHEROKEE","9184583100","Acute Care Hospitals","Government - Federal","Yes","370171","35.9125252","-94.9492425"
"370172","CHOCTAW NATION HEALTHCARE","1 CHOCTAW WAY","","","TALIHINA","OK","74571","LATIMER","9185677000","Acute Care Hospitals","Government - Federal","Yes","370172","34.7514893","-95.0480162"
"370173","CLAREMORE INDIAN HOSPITAL","101 SOUTH MOORE AVE","","","CLAREMORE","OK","74017","ROGERS","9183418430","Acute Care Hospitals","Government - Federal","Yes","370173","36.316433","-95.629295"
"370178","MEMORIAL HOSPITAL OF STILWELL","1401 WEST LOCUST","","","STILWELL","OK","74960","ADAIR","9186963101","Acute Care Hospitals","Government - Federal","Yes","370178","35.8090716","-94.643007"
"370180","CHICKASAW NATION MEDICAL CENTER","1921 STONECIPHER BLVD","","","ADA","OK","74820","PONTOTOC","5804363980","Acute Care Hospitals","Government - Local","Yes","370180","34.7341661","-96.6512099"
"370183","HENRYETTA MEDICAL CENTER","DEWEY BARTLETT ST AND MAIN ST","","","HENRYETTA","OK","74437","OKMULGEE","9186524463","Acute Care Hospitals","Government - State","Yes","370183","35.4397964","-96.0168567"
"370190","SOUTHWESTERN REGIONAL MEDICAL CENTER","10109 EAST 79TH STREET SOUTH","","","TULSA","OK","74133","TULSA","9184965000","Acute Care Hospitals","Proprietary","No","370190","36.051037","-95.862497"
"370192","NORTHWEST SURGICAL HOSPITAL","9204 NORTH MAY AVENUE","","","OKLAHOMA CITY","OK","73120","OKLAHOMA","4048481918","Acute Care Hospitals","Proprietary","No","370192","35.564189","-97.5670623"
"370199","LAKESIDE WOMEN'S HOSPITAL","11200 NORTH PORTLAND AVENUE","","","OKLAHOMA CITY","OK","73120","OKLAHOMA","4059361500","Acute Care Hospitals","Proprietary","Yes","370199","35.583916","-97.5838349"
"370201","SURGICAL HOSPITAL OF OKLAHOMA","100 SOUTHEAST 59TH STREET","","","OKLAHOMA CITY","OK","73129","OKLAHOMA","4056349300","Acute Care Hospitals","Proprietary","Yes","370201","35.4061882","-97.510024"
"370202","SOUTHCREST HOSPITAL","8801 SOUTH 101ST EAST AVENUE","","","TULSA","OK","74133","TULSA","9182944000","Acute Care Hospitals","Proprietary","Yes","370202","36.0358997","-95.865106"
"370203","COMMUNITY HOSPITAL","3100 SOUTHWEST 89TH STREET","","","OKLAHOMA CITY","OK","73159","OKLAHOMA","4056028100","Acute Care Hospitals","Proprietary","Yes","370203","35.37613","-97.570535"
"370206","OKLAHOMA SPINE HOSPITAL","14101 PARKWAY COMMONS DRIVE","","","OKLAHOMA CITY","OK","73134","OKLAHOMA","4057492700","Acute Care Hospitals","Proprietary","Yes","370206","35.6140103","-97.5822405"
"370210","OKLAHOMA SURGICAL HOSPITAL LLC","2408 EAST 81ST STREET SUITE 300","","","TULSA","OK","74137","TULSA","9184775000","Acute Care Hospitals","Proprietary","Yes","370210","36.0438247","-95.9535599"
"370211","INTEGRIS CANADIAN VALLEY  HOSPITAL","1201 HEALTH CENTER PARKWAY","","","YUKON","OK","73099","CANADIAN","4057177999","Acute Care Hospitals","Voluntary non-profit - Other","Yes","370211","35.484988","-97.763602"
"370212","OKLAHOMA CENTER FOR ORTHOPAEDIC & MULTI-SP","330 SOUTHWEST 80TH STREET","","","OKLAHOMA CITY","OK","73139","CLEVELAND","4056026500","Acute Care Hospitals","Proprietary","No","370212","35.3861628","-97.52175"
"370214","LINDSAY MUNICIPAL HOSPITAL","HIGHWAY 19 WEST","","","LINDSAY","OK","73052","GARVIN","4057561404","Acute Care Hospitals","Government - Hospital District or Authority","Yes","370214","34.8370328","-97.615888"
"370215","OKLAHOMA HEART HOSPITAL","4050 WEST MEMORIAL ROAD","","","OKLAHOMA CITY","OK","73120","OKLAHOMA","4056083200","Acute Care Hospitals","Proprietary","Yes","370215","35.6090002","-97.594286"
"370216","TULSA SPINE & SPECIALTY HOSPITAL","6901 SOUTH OLYMPIA AVENUE","","","TULSA","OK","74132","TULSA","9183885701","Acute Care Hospitals","Voluntary non-profit - Private","Yes","370216","36.064061","-96.003535"
"370218","SAINT FRANCIS HOSPITAL SOUTH","10501 EAST 91ST STREET SOUTH","","","TULSA","OK","74133","TULSA","9183076000","Acute Care Hospitals","Proprietary","Yes","370218","36.0319109","-95.8587494"
"370220","ORTHOPEDIC HOSPITAL","1044 SOUTHWEST 44TH STREET SUITE 950","","","OKLAHOMA CITY","OK","73109","OKLAHOMA","4056313085","Acute Care Hospitals","Government - Federal","Yes","370220","35.4205639","-97.5341424"
"370222","MCBRIDE CLINIC ORTHOPEDIC HOSPITAL  L L C","9600 NORTH BROADWAY EXTENSION","","","OKLAHOMA CITY","OK","73114","OKLAHOMA","4054781717","Acute Care Hospitals","Proprietary","No","370222","35.568477","-97.511137"
"370225","SUMMIT MEDICAL CENTER","1800 SOUTH RENAISSANCE BOULEVARD","","","EDMOND","OK","73034","OKLAHOMA","4053592400","Acute Care Hospitals","Proprietary","No","370225","35.635877","-97.4993187"
"370227","ST JOHN OWASSO","12451 EAST 100TH STREET NORTH","","","OWASSO","OK","74055","TULSA","9182745000","Acute Care Hospitals","Voluntary non-profit - Private","Yes","370227","36.298863","-95.835129"
"370228","BAILEY MEDICAL CENTER L L C","10502 NORTH 110TH EAST AVENUE","","","OWASSO","OK","74055","TULSA","9183768000","Acute Care Hospitals","Government - Local","Yes","370228","36.3120919","-95.8506543"
"370229","INTEGRIS SEMINOLE MEDICAL CENTER","2401 WRANGLER BOULEVARD","","","SEMINOLE","OK","74868","SEMINOLE","4053034000","Acute Care Hospitals","Government - Federal","Yes","370229","35.24627","-96.69855"
"370232","MUSKOGEE COMMUNITY HOSPITAL","2900 NORTH MAIN STREET","","","MUSKOGEE","OK","74402","MUSKOGEE","9186877777","Acute Care Hospitals","Proprietary","Yes","370232","35.7819936","-95.3581845"
"370233","PINNACLE SPECIALTY HOSPITAL","2408 EAST 81ST STREET SUITE 600","","","TULSA","OK","74137","TULSA","9183922780","Acute Care Hospitals","Proprietary","Yes","370233","36.0438247","-95.9535599"
"370234","OKLAHOMA HEART HOSPITAL SOUTH","5200 EAST I-240 SERVICE ROAD","","","OKLAHOMA CITY","OK","73135","OKLAHOMA","4056286000","Acute Care Hospitals","Proprietary","Yes","370234","35.389759","-97.438475"
"371300","ATOKA MEMORIAL HOSPITAL","1200 WEST LIBERTY ROAD","","","ATOKA","OK","74525","ATOKA","5808893333","Critical Access Hospitals","Government - Hospital District or Authority","Yes","371300","34.393902","-96.1532739"
"371301","PRAGUE COMMUNITY HOSPITAL","1322 KLABSUBA AVENUE","","","PRAGUE","OK","74864","LINCOLN","4055674922","Critical Access Hospitals","Voluntary non-profit - Private","Yes","371301","35.4867368","-96.6850174"
"371302","WATONGA MUNICIPAL HOSPITAL","500 NORTH CLARENCE NASH BOULEVARD","","","WATONGA","OK","73772","BLAINE","5806237211","Critical Access Hospitals","Government - Hospital District or Authority","Yes","371302","35.8489184","-98.4192389"
"371304","JOHNSTON MEMORIAL HOSPITAL","1000 SOUTH BYRD","","","TISHOMINGO","OK","73460","JOHNSTON","5803712327","Critical Access Hospitals","Voluntary non-profit - Private","Yes","371304","34.2243037","-96.6752566"
"371306","MERCY HEALTH LOVE COUNTY","300 WANDA STREET","","","MARIETTA","OK","73448","LOVE","5802763347","Critical Access Hospitals","Proprietary","Yes","371306","33.941292","-97.130861"
"371307","CIMARRON MEMORIAL HOSPITAL","100 SOUTH ELLIS","","","BOISE CITY","OK","73933","CIMARRON","5805442501","Critical Access Hospitals","Government - Local","Yes","371307","36.7286868","-102.5180149"
"371309","PAWHUSKA HOSPITAL INC","1101 EAST 15TH STREET","","","PAWHUSKA","OK","74056","OSAGE","9182873232","Critical Access Hospitals","Proprietary","Yes","371309","36.6728299","-96.3254072"
"371310","HEALDTON MERCY HOSPITAL CORPORATION","918 SOUTHWEST 8TH STREET","","","HEALDTON","OK","73438","CARTER","5802290701","Critical Access Hospitals","Voluntary non-profit - Private","Yes","371310","34.2223779","-97.4921784"
"371311","JEFFERSON COUNTY HOSPITAL","INTERSECTION HYWS 81 & 70","","","WAURIKA","OK","73573","JEFFERSON","5802282244","Critical Access Hospitals","Government - Hospital District or Authority","Yes","371311","0","0"
"371312","ST JOHN SAPULPA","1004 EAST BRYAN","","","SAPULPA","OK","74066","CREEK","9182244280","Critical Access Hospitals","Voluntary non-profit - Private","Yes","371312","35.993108","-96.099965"
"371313","KINGFISHER REGIONAL HOSPITAL","500 SOUTH 9TH STREET","","","KINGFISHER","OK","73750","KINGFISHER","4053753141","Critical Access Hospitals","Proprietary","Yes","371313","35.8568357","-97.9365615"
"371314","PHYSICIANS' HOSPITAL IN ANADARKO","1002 EAST CENTRAL BOULEVARD","","","ANADARKO","OK","73005","CADDO","4052472551","Critical Access Hospitals","Government - Local","Yes","371314","0","0"
"371316","STROUD REGIONAL MEDICAL CENTER","2308 HIGHWAY 66 WEST","","","STROUD","OK","74079","LINCOLN","9189683571","Critical Access Hospitals","Government - Federal","Yes","371316","0","0"
"371317","LOGAN MEDICAL CENTER","200 SOUTH ACADEMY ROAD","","","GUTHRIE","OK","73044","LOGAN","4052826700","Critical Access Hospitals","Government - Hospital District or Authority","Yes","371317","35.8765465","-97.4604328"
"371318","FAIRFAX COMMUNITY HOSPITAL","40 HOSPITAL ROAD","","","FAIRFAX","OK","74637","OSAGE","9186423291","Critical Access Hospitals","Proprietary","Yes","371318","36.5631574","-96.7053075"
"371319","MARY HURLEY HOSPITAL","6 NORTH COVINGTON","","","COALGATE","OK","74538","COAL","5809272327","Critical Access Hospitals","Proprietary","Yes","371319","34.5387857","-96.2247017"
"371320","CLEVELAND AREA HOSPITAL","1401 WEST PAWNEE","","","CLEVELAND","OK","74020","PAWNEE","9183582501","Critical Access Hospitals","Government - Hospital District or Authority","Yes","371320","36.3099093","-96.4803407"
"371321","HOLDENVILLE GENERAL HOSPITAL","100 MCDOUGAL DRIVE","","","HOLDENVILLE","OK","74848","HUGHES","4053794200","Critical Access Hospitals","Government - Hospital District or Authority","Yes","371321","35.089002","-96.3797099"
"371322","BEAVER COUNTY MEMORIAL HOSPITAL","212 EAST 8TH STREET","","","BEAVER","OK","73932","BEAVER","5806254551","Critical Access Hospitals","Government - Hospital District or Authority","Yes","371322","36.8101949","-100.5145271"
"371323","WEATHERFORD REGIONAL HOSPITAL","3701 E MAIN","","","WEATHERFORD","OK","73096","CUSTER","5807725551","Critical Access Hospitals","Government - Hospital District or Authority","Yes","371323","35.5368752","-98.6764703"
"371324","HARPER COUNTY COMMUNITY HOSPITAL","1003 US HIGHWAY 64 NORTH","","","BUFFALO","OK","73834","HARPER","5807352555","Critical Access Hospitals","Voluntary non-profit - Other","Yes","371324","36.8420173","-99.6302927"
"371325","CORDELL MEMORIAL HOSPITAL","1220 NORTH GLENN ENGLISH STREET","","","CORDELL","OK","73632","WASHITA","5808323339","Critical Access Hospitals","Government - Hospital District or Authority","Yes","371325","35.3035579","-98.9875926"
"371326","INTEGRIS MARSHALL COUNTY MEDICAL CENTER","ONE HOSPITAL DRIVE","","","MADILL","OK","73446","MARSHALL","5807953384","Critical Access Hospitals","Government - Federal","Yes","371326","34.0809366","-96.77901"
"371327","OKEENE MUNICIPAL HOSPITAL","207 EAST F STREET","","","OKEENE","OK","73763","BLAINE","5808224417","Critical Access Hospitals","Government - Hospital District or Authority","Yes","371327","36.1170669","-98.315145"
"371328","ARBUCKLE MEMORIAL HOSPITAL","2011 WEST BROADWAY","","","SULPHUR","OK","73086","MURRAY","5806222161","Critical Access Hospitals","Voluntary non-profit - Other","Yes","371328","34.506292","-96.9934211"
"371329","FAIRVIEW REGIONAL MEDICAL CENTER","523 EAST STATE ROAD","","","FAIRVIEW","OK","73737","MAJOR","5802273721","Critical Access Hospitals","Government - Hospital District or Authority","Yes","371329","0","0"
"371330","QUARTZ MOUNTAIN MEDICAL CENTER","ONE WICKERSHAM DRIVE","","","MANGUM","OK","73554","GREER","5807823353","Critical Access Hospitals","Proprietary","Yes","371330","0","0"
"371331","DRUMRIGHT REGIONAL HOSPITAL","610 WEST BYPASS","","","DRUMRIGHT","OK","74030","CREEK","9183822300","Critical Access Hospitals","Proprietary","Yes","371331","35.991324","-96.613458"
"371332","SEILING COMMUNITY HOSPITAL","US HIGHWAY 60 NORTHEAST","","","SEILING","OK","73663","DEWEY","5809227361","Critical Access Hospitals","Government - Local","Yes","371332","36.6270597","-94.9994208"
"371333","CREEK NATION COMMUNITY HOSPITAL","309 NORTH 14TH","","","OKEMAH","OK","74859","OKFUSKEE","9186231424","Critical Access Hospitals","Voluntary non-profit - Other","Yes","371333","35.434725","-96.317409"
"371334","CARNEGIE TRI-COUNTY MUNICIPAL HOSPITAL","102 NORTH BROADWAY","","","CARNEGIE","OK","73015","CADDO","5806541050","Critical Access Hospitals","Proprietary","Yes","371334","35.1085479","-98.6048908"
"380001","MID-COLUMBIA MEDICAL CENTER","1700 E 19TH STREET","","","THE DALLES","OR","97058","WASCO","5412961111","Acute Care Hospitals","Voluntary non-profit - Other","No","380001","45.5878256","-121.1657486"
"380002","THREE RIVERS COMMUNITY HOSPITAL","500 SW RAMSEY AVENUE","","","GRANTS PASS","OR","97527","JOSEPHINE","5414727000","Acute Care Hospitals","Voluntary non-profit - Other","Yes","380002","42.421115","-123.343257"
"380004","PROVIDENCE ST VINCENT MEDICAL CENTER","9205 SW BARNES ROAD","","","PORTLAND","OR","97225","WASHINGTON","5032161234","Acute Care Hospitals","Voluntary non-profit - Other","Yes","380004","45.5089521","-122.7716667"
"380005","ASHLAND COMMUNITY HOSPITAL","280 MAPLE STREET","","","ASHLAND","OR","97520","JACKSON","5412014000","Acute Care Hospitals","Government - Local","Yes","380005","42.2064423","-122.7249499"
"380007","LEGACY EMANUEL MEDICAL CENTER","2801 N GANTENBEIN AVENUE","","","PORTLAND","OR","97227","MULTNOMAH","5034132200","Acute Care Hospitals","Voluntary non-profit - Private","Yes","380007","45.5428235","-122.6694497"
"380009","OHSU HOSPITAL AND CLINICS","3181 SW SAM JACKSON PARK ROAD","","","PORTLAND","OR","97223","WASHINGTON","5034944036","Acute Care Hospitals","Voluntary non-profit - Other","Yes","380009","45.499482","-122.688789"
"380014","GOOD SAMARITAN REGIONAL MEDICAL CENTER","3600 NW SAMARITAN DRIVE","","","CORVALLIS","OR","97330","BENTON","5417685111","Acute Care Hospitals","Voluntary non-profit - Private","Yes","380014","44.603219","-123.253124"
"380017","LEGACY GOOD SAMARITAN MEDICAL CENTER","1015 NW 22ND AVENUE","","","PORTLAND","OR","97210","MULTNOMAH","5034137682","Acute Care Hospitals","Voluntary non-profit - Church","Yes","380017","45.530211","-122.69761"
"380018","ROGUE VALLEY MEDICAL CENTER","2825 E BARNETT ROAD","","","MEDFORD","OR","97504","JACKSON","5417897000","Acute Care Hospitals","Voluntary non-profit - Private","Yes","380018","42.317686","-122.833328"
"380020","MCKENZIE-WILLAMETTE MEDICAL CENTER","1460 G STREET","","","SPRINGFIELD","OR","97477","LANE","5417264400","Acute Care Hospitals","Voluntary non-profit - Private","Yes","380020","44.053305","-123.003513"
"380021","TUALITY COMMUNITY HOSPITAL","335 SE 8TH AVENUE","","","HILLSBORO","OR","97123","WASHINGTON","5036811111","Acute Care Hospitals","Voluntary non-profit - Private","Yes","380021","45.5199332","-122.9775895"
"380022","SAMARITAN ALBANY GENERAL HOSPITAL","1046 6TH AVENUE SW","","","ALBANY","OR","97321","LINN","5418124000","Acute Care Hospitals","Voluntary non-profit - Church","Yes","380022","44.628091","-123.114653"
"380025","LEGACY MOUNT HOOD MEDICAL CENTER","24800 SE STARK STREET","","","GRESHAM","OR","97030","MULTNOMAH","5036741122","Acute Care Hospitals","Voluntary non-profit - Private","Yes","380025","45.517162","-122.407497"
"380027","MERCY MEDICAL CENTER","2700 STEWART PARKWAY","","","ROSEBURG","OR","97471","DOUGLAS","5416773362","Acute Care Hospitals","Government - Hospital District or Authority","Yes","380027","43.241537","-123.366226"
"380029","SILVERTON HOSPITAL NETWORK","342 FAIRVIEW STREET","","","SILVERTON","OR","97381","MARION","5038731500","Acute Care Hospitals","Voluntary non-profit - Private","Yes","380029","45.004321","-122.789976"
"380033","SACRED HEART MEDICAL CENTER - UNIVERSITY DISTRICT","770 EAST 11TH AVENUE","","","EUGENE","OR","97401","LANE","5416867274","Acute Care Hospitals","Voluntary non-profit - Church","Yes","380033","44.047408","-123.080854"
"380037","PROVIDENCE NEWBERG MEDICAL CENTER","1001 PROVIDENCE DRIVE","","","NEWBERG","OR","97132","YAMHILL","5035371555","Acute Care Hospitals","Voluntary non-profit - Church","Yes","380037","45.31017","-122.934374"
"380038","PROVIDENCE WILLAMETTE FALLS MEDICAL CENTER","1500 DIVISION STREET","","","OREGON CITY","OR","97045","CLACKAMAS","5036576915","Acute Care Hospitals","Voluntary non-profit - Private","Yes","380038","45.35635","-122.58647"
"38003F","PORTLAND VA MEDICAL CENTER","3710 SW US VETERANS HOSPITAL","","","PORTLAND   ","OR","97239","MULTNOMAH","5032208262","ACUTE CARE - VETERANS ADMINISTRATION","Government Federal","NO","38003F","45.494163","-122.682973"
"380040","ST CHARLES MEDICAL CENTER - REDMOND","1253 N CANAL BLVD","","","REDMOND","OR","97756","DESCHUTES","5415488131","Acute Care Hospitals","Voluntary non-profit - Private","Yes","380040","44.289667","-121.169436"
"380047","ST CHARLES MEDICAL CENTER - BEND","2500 NE NEFF ROAD","","","BEND","OR","97701","DESCHUTES","5413824321","Acute Care Hospitals","Voluntary non-profit - Private","Yes","380047","44.066343","-121.265674"
"38004F","VA ROSEBURG HEALTHCARE SYSTEM","913 NW GARDEN VALLEY BLVD.","","","ROSEBURG   ","OR","97470","","5414401000","ACUTE CARE - VETERANS ADMINISTRATION","Government Federal","NO","38004F","43.2268756","-123.3445582"
"380050","SKY LAKES MEDICAL CENTER","2865 DAGGETT STREET","","","KLAMATH FALLS","OR","97601","KLAMATH","5412746150","Acute Care Hospitals","Voluntary non-profit - Private","Yes","380050","42.252963","-121.785115"
"380051","SALEM HOSPITAL","890 OAK STREET","","","SALEM","OR","97301","MARION","5035612278","Acute Care Hospitals","Voluntary non-profit - Other","Yes","380051","44.932674","-123.034183"
"380052","ST ALPHONSUS MEDICAL CENTER - ONTARIO INC","351 SW 9TH STREET","","","ONTARIO","OR","97914","MALHEUR","5418817000","Acute Care Hospitals","Voluntary non-profit - Private","Yes","380052","44.025326","-116.977126"
"380056","SANTIAM MEMORIAL HOSPITAL","1401 N 10TH AVENUE","","","STAYTON","OR","97383","MARION","5037692175","Acute Care Hospitals","Voluntary non-profit - Private","Yes","380056","44.804934","-122.785047"
"380060","ADVENTIST MEDICAL CENTER","10123 SE MARKET STREET","","","PORTLAND","OR","97216","MULTNOMAH","5032572500","Acute Care Hospitals","Voluntary non-profit - Church","Yes","380060","45.512196","-122.559378"
"380061","PROVIDENCE PORTLAND MEDICAL CENTER","4805 NE GLISAN STREET","","","PORTLAND","OR","97213","MULTNOMAH","5032151111","Acute Care Hospitals","Voluntary non-profit - Church","Yes","380061","45.526532","-122.614665"
"380071","WILLAMETTE VALLEY MEDICAL CENTER","2700 SE STRATUS AVE.","","","MCMINNVILLE","OR","97128","YAMHILL","5034726131","Acute Care Hospitals","Voluntary non-profit - Private","Yes","380071","45.200748","-123.163788"
"380075","PROVIDENCE MEDFORD MEDICAL CENTER","1111 CRATER LAKE AVENUE","","","MEDFORD","OR","97504","JACKSON","5417325196","Acute Care Hospitals","Voluntary non-profit - Church","Yes","380075","42.339581","-122.862634"
"380082","PROVIDENCE MILWAUKIE HOSPITAL","10150 SE 32ND AVENUE","","","MILWAUKIE","OR","97222","CLACKAMAS","5035138336","Acute Care Hospitals","Voluntary non-profit - Church","Yes","380082","45.449519","-122.627461"
"380089","LEGACY MERIDIAN PARK MEDICAL CENTER","19300 SW 65TH AVENUE","","","TUALATIN","OR","97062","WASHINGTON","5036921212","Acute Care Hospitals","Voluntary non-profit - Private","Yes","380089","45.379081","-122.740828"
"380090","BAY AREA HOSPITAL","1775 THOMPSON ROAD","","","COOS BAY","OR","97420","COOS","5412698111","Acute Care Hospitals","Government - Hospital District or Authority","Yes","380090","43.3858299","-124.2332975"
"380091","KAISER SUNNYSIDE MEDICAL CENTER","10180 SE SUNNYSIDE ROAD","","","CLACKAMAS","OR","97015","CLACKAMAS","5038132000","Acute Care Hospitals","Voluntary non-profit - Other","Yes","380091","45.430609","-122.562017"
"380102","SACRED HEART MEDICAL CENTER - RIVERBEND","3333 RIVERBEND DRIVE","","","SPRINGFIELD","OR","97477","LANE","5412222000","Acute Care Hospitals","Voluntary non-profit - Private","Yes","380102","44.080908","-123.0264752"
"381301","COTTAGE GROVE COMMUNITY HOSPITAL","1515  VILLAGE DRIVE","","","COTTAGE GROVE","OR","97424","LANE","5419420511","Critical Access Hospitals","Voluntary non-profit - Church","Yes","381301","43.803709","-123.03966"
"381302","SAMARITAN NORTH LINCOLN HOSPITAL","3043 NE 28TH STREET","","","LINCOLN CITY","OR","97367","LINCOLN","5419943661","Critical Access Hospitals","Voluntary non-profit - Private","Yes","381302","44.9851969","-123.995002"
"381303","PROVIDENCE SEASIDE HOSPITAL","725 S WAHANNA ROAD","","","SEASIDE","OR","97138","CLATSOP","5037177000","Critical Access Hospitals","Voluntary non-profit - Church","Yes","381303","45.988904","-123.9118364"
"381304","SOUTHERN COOS HOSPITAL & HEALTH CENTER","900 11TH STREET SE","","","BANDON","OR","97411","COOS","5413472426","Critical Access Hospitals","Voluntary non-profit - Other","Yes","381304","43.1132155","-124.4023805"
"381305","BLUE MOUNTAIN HOSPITAL","170 FORD ROAD","","","JOHN DAY","OR","97845","GRANT","5415751311","Critical Access Hospitals","Government - Hospital District or Authority","Yes","381305","44.4174979","-118.9583139"
"381306","WALLOWA MEMORIAL HOSPITAL","601 MEDICAL PARKWAY","","","ENTERPRISE","OR","97828","WALLOWA","5414263111","Critical Access Hospitals","Government - Hospital District or Authority","Yes","381306","45.4323362","-117.2842241"
"381307","HARNEY DISTRICT HOSPITAL","557 W WASHINGTON STREET","","","BURNS","OR","97720","HARNEY","5415737281","Critical Access Hospitals","Government - Hospital District or Authority","Yes","381307","43.5887109","-119.0601405"
"381308","WEST VALLEY HOSPITAL","525 SE WASHINGTON STREET","","","DALLAS","OR","97338","POLK","5036238301","Critical Access Hospitals","Government - Hospital District or Authority","Yes","381308","44.9193838","-123.3110929"
"381309","LAKE DISTRICT HOSPITAL","700 SOUTH J STREET","","","LAKEVIEW","OR","97630","LAKE","5419472114","Critical Access Hospitals","Government - Hospital District or Authority","Yes","381309","42.1813261","-120.3516823"
"381310","PIONEER MEMORIAL HOSPITAL","564 E PIONEER DRIVE","","","HEPPNER","OR","97836","MORROW","5416769133","Critical Access Hospitals","Government - Hospital District or Authority","Yes","381310","45.3563838","-119.5489735"
"381311","LOWER UMPQUA HOSPITAL DISTRICT","0600 RANCH ROAD","","","REEDSPORT","OR","97467","DOUGLAS","5412712171","Critical Access Hospitals","Government - Hospital District or Authority","Yes","381311","43.6952999","-124.1356287"
"381312","COQUILLE VALLEY HOSPITAL DISTRICT","940 EAST 5TH STREET","","","COQUILLE","OR","97423","COOS","5413963101","Critical Access Hospitals","Voluntary non-profit - Private","Yes","381312","43.1789959","-124.1792222"
"381313","PIONEER MEMORIAL HOSPITAL","1201 NE ELM STREET","","","PRINEVILLE","OR","97754","CROOK","5414476254","Critical Access Hospitals","Voluntary non-profit - Private","Yes","381313","44.310315","-120.843354"
"381314","SAMARITAN PACIFIC COMMUNITIES HOSPITAL","930 SW ABBEY STREET","","","NEWPORT","OR","97365","LINCOLN","5412652244","Critical Access Hospitals","Voluntary non-profit - Private","Yes","381314","44.6301671","-124.0601074"
"381315","ST ALPHONSUS MEDICAL CENTER - BAKER CITY INC","3325 POCAHONTAS ROAD","","","BAKER CITY","OR","97814","BAKER","5415236461","Critical Access Hospitals","Voluntary non-profit - Church","Yes","381315","44.794932","-117.846737"
"381316","PEACE HARBOR HOSPITAL","400 9TH STREET","","","FLORENCE","OR","97439","LANE","5419978412","Critical Access Hospitals","Voluntary non-profit - Church","Yes","381316","43.9746019","-124.1179512"
"381317","TILLAMOOK COUNTY GENERAL HOSPITAL","1000 THIRD STREET","","","TILLAMOOK","OR","97141","TILLAMOOK","5038424444","Critical Access Hospitals","Voluntary non-profit - Church","Yes","381317","45.4565145","-123.8547261"
"381318","PROVIDENCE HOOD RIVER MEMORIAL HOSPITAL","810 12TH STREET","","","HOOD RIVER","OR","97031","HOOD RIVER","5413863911","Critical Access Hospitals","Voluntary non-profit - Private","Yes","381318","45.7041607","-121.5231606"
"381319","ST ANTHONY HOSPITAL","1601 SE COURT AVENUE","","","PENDLETON","OR","97801","UMATILLA","5412765121","Critical Access Hospitals","Voluntary non-profit - Church","Yes","381319","45.6731986","-118.7688136"
"381320","COLUMBIA MEMORIAL HOSPITAL","2111 EXCHANGE STREET","","","ASTORIA","OR","97103","CLATSOP","5033254321","Critical Access Hospitals","Proprietary","Yes","381320","46.1885122","-123.8187589"
"381321","GRANDE RONDE HOSPITAL","900 SUNSET DRIVE","","","LA GRANDE","OR","97850","UNION","5419638421","Critical Access Hospitals","Voluntary non-profit - Private","Yes","381321","45.3187045","-118.1046382"
"381322","CURRY GENERAL HOSPITAL","94220 FOURTH STREET","","","GOLD BEACH","OR","97444","CURRY","5412473000","Critical Access Hospitals","Government - Hospital District or Authority","Yes","381322","42.4116478","-124.4183378"
"381323","SAMARITAN LEBANON COMMUNITY HOSPITAL","525 N SANTIAM HIGHWAY","","","LEBANON","OR","97355","LINN","5412582101","Critical Access Hospitals","Voluntary non-profit - Church","Yes","381323","44.5510499","-122.905393"
"381324","MOUNTAIN VIEW HOSPITAL DISTRICT","470 NE A STREET","","","MADRAS","OR","97741","JEFFERSON","5414604200","Critical Access Hospitals","Voluntary non-profit - Other","Yes","381324","44.6374085","-121.1203443"
"381325","GOOD SHEPHERD MEDICAL CENTER","610 NW 11TH STREET","","","HERMISTON","OR","97838","UMATILLA","5416673400","Critical Access Hospitals","Government - Hospital District or Authority","Yes","381325","45.8461257","-119.3109157"
"390001","COMMUNITY MEDICAL CENTER","1822 MULBERRY STREET","","","SCRANTON","PA","18510","LACKAWANNA","5709698240","Acute Care Hospitals","Voluntary non-profit - Private","Yes","390001","41.4005646","-75.6460706"
"390002","UPMC MCKEESPORT","1500 FIFTH AVENUE","","","MC KEESPORT","PA","15132","ALLEGHENY","4126642000","Acute Care Hospitals","Voluntary non-profit - Private","Yes","390002","40.3521988","-79.8499078"
"390003","BLOOMSBURG HOSPITAL","549 EAST FAIR STREET","","","BLOOMSBURG","PA","17815","COLUMBIA","5703872100","Acute Care Hospitals","Voluntary non-profit - Private","Yes","390003","41.009638","-76.452663"
"390004","HOLY SPIRIT HOSPITAL","503 NORTH 21ST STREET","","","CAMP HILL","PA","17011","CUMBERLAND","7177632100","Acute Care Hospitals","Voluntary non-profit - Private","Yes","390004","40.2543475","-76.924969"
"390006","GEISINGER MEDICAL CENTER","100 NORTH ACADEMY AVENUE","","","DANVILLE","PA","17822","MONTOUR","5702716211","Acute Care Hospitals","Voluntary non-profit - Other","Yes","390006","40.9678905","-76.6050616"
"390008","ELLWOOD CITY HOSPITAL","724 PERSHING STREET","","","ELLWOOD CITY","PA","16117","LAWRENCE","7247520081","Acute Care Hospitals","Voluntary non-profit - Other","Yes","390008","40.869874","-80.275586"
"390009","SAINT VINCENT HEALTH CENTER","232 WEST 25TH STREET","","","ERIE","PA","16544","ERIE","8144525000","Acute Care Hospitals","Voluntary non-profit - Church","Yes","390009","42.1110053","-80.0791059"
"390012","LANSDALE HOSPITAL","100 MEDICAL CAMPUS DRIVE","","","LANSDALE","PA","19446","MONTGOMERY","2153682100","Acute Care Hospitals","Voluntary non-profit - Other","Yes","390012","40.25115","-75.271454"
"390013","EVANGELICAL COMMUNITY HOSPITAL","ONE HOSPITAL DRIVE","","","LEWISBURG","PA","17837","UNION","5705222200","Acute Care Hospitals","Voluntary non-profit - Other","No","390013","40.978667","-76.885972"
"390016","JAMESON MEMORIAL HOSPITAL","1211 WILMINGTON AVENUE","","","NEW CASTLE","PA","16105","LAWRENCE","7246589001","Acute Care Hospitals","Voluntary non-profit - Other","Yes","390016","41.0130639","-80.3509186"
"390019","PALMERTON HOSPITAL","135 LAFAYETTE AVENUE","","","PALMERTON","PA","18071","CARBON","6108263141","Acute Care Hospitals","Voluntary non-profit - Other","Yes","390019","40.8022461","-75.6151006"
"39001F","JAMES E. VAN ZANDT VA MEDICAL CENTER (ALTOONA)","2907 PLEASANT VALLEY BOULEVAR","","","ALTOONA    ","PA","16602","BLAIR","8149438164","ACUTE CARE - VETERANS ADMINISTRATION","Government Federal","NO","39001F","40.4885531","-78.3986196"
"390025","KENSINGTON HOSPITAL","136 W DIAMOND STREET","","","PHILADELPHIA","PA","19122","PHILADELPHIA","2154268100","Acute Care Hospitals","Voluntary non-profit - Other","No","390025","39.981628","-75.134628"
"390026","CHESTNUT HILL HOSPITAL","8835 GERMANTOWN AVE","","","PHILADELPHIA","PA","19118","PHILADELPHIA","2152488200","Acute Care Hospitals","Proprietary","Yes","390026","40.0788","-75.211073"
"390027","TEMPLE UNIVERSITY HOSPITAL","3401 NORTH BROAD STREET","","","PHILADELPHIA","PA","19140","PHILADELPHIA","2157072000","Acute Care Hospitals","Voluntary non-profit - Private","Yes","390027","40.005006","-75.151704"
"390028","UPMC MERCY","1400 LOCUST STREET","","","PITTSBURGH","PA","15219","ALLEGHENY","4122328111","Acute Care Hospitals","Voluntary non-profit - Other","Yes","390028","40.436299","-79.985447"
"390030","SCHUYLKILL MEDICAL CENTER - SOUTH JACKSON STREET","420 SOUTH JACKSON STREET","","","POTTSVILLE","PA","17901","SCHUYLKILL","5706215000","Acute Care Hospitals","Voluntary non-profit - Private","Yes","390030","40.6837046","-76.1887979"
"390031","SCHUYLKILL MEDICAL CENTER - EAST NORWEGIAN STREET","700 EAST NORWEGIAN STREET","","","POTTSVILLE","PA","17901","SCHUYLKILL","5706214000","Acute Care Hospitals","Voluntary non-profit - Church","Yes","390031","40.691009","-76.186822"
"390032","ALLE KISKI MEDICAL CENTER","1301 CARLISLE ST","","","NATRONA","PA","15065","ALLEGHENY","4122245100","Acute Care Hospitals","Voluntary non-profit - Other","Yes","390032","40.618767","-79.736921"
"390035","ST LUKE'S QUAKERTOWN HOSPITAL","1021 PARK AVENUE","","","QUAKERTOWN","PA","18951","BUCKS","2155384500","Acute Care Hospitals","Voluntary non-profit - Private","Yes","390035","40.4384996","-75.3489542"
"390036","HERITAGE VALLEY BEAVER","1000 DUTCH RIDGE ROAD","","","BEAVER","PA","15009","BEAVER","4127287000","Acute Care Hospitals","Voluntary non-profit - Private","Yes","390036","40.7126384","-80.3200793"
"390037","HERITAGE VALLEY SEWICKLEY","720 BLACKBURN ROAD","","","SEWICKLEY","PA","15143","ALLEGHENY","4127416600","Acute Care Hospitals","Voluntary non-profit - Private","Yes","390037","40.5434539","-80.177601"
"390039","SOMERSET HOSPITAL","225 SOUTH CENTER AVENUE","","","SOMERSET","PA","15501","SOMERSET","8144435000","Acute Care Hospitals","Voluntary non-profit - Other","Yes","390039","40.0072938","-79.0785413"
"390041","UNIONTOWN HOSPITAL","500 WEST BERKELEY STREET","","","UNIONTOWN","PA","15401","FAYETTE","7244305000","Acute Care Hospitals","Voluntary non-profit - Other","Yes","390041","39.901797","-79.738542"
"390042","WASHINGTON HOSPITAL THE","155 WILSON AVENUE","","","WASHINGTON","PA","15301","WASHINGTON","7242257000","Acute Care Hospitals","Government - Local","Yes","390042","40.183024","-80.2476664"
"390043","SOLDIERS AND SAILORS MEMORIAL HOSPITAL","32-36 CENTRAL AVENUE","","","WELLSBORO","PA","16901","TIOGA","5707241631","Acute Care Hospitals","Voluntary non-profit - Other","Yes","390043","41.745076","-77.300431"
"390044","READING HOSPITAL MEDICAL CENTER","SIXTH AVENUE AND SPRUCE ST","","","READING","PA","19603","BERKS","6109888000","Acute Care Hospitals","Voluntary non-profit - Other","Yes","390044","40.3306596","-75.926048"
"390045","WILLIAMSPORT HOSPITAL & MEDICAL CENTER","777 RURAL AVE","","","WILLIAMSPORT","PA","17701","LYCOMING","5703211000","Acute Care Hospitals","Voluntary non-profit - Other","Yes","390045","41.246789","-77.01534"
"390046","YORK HOSPITAL","1001 SOUTH GEORGE STREET","","","YORK","PA","17403","YORK","7178512345","Acute Care Hospitals","Voluntary non-profit - Private","Yes","390046","39.946036","-76.718838"
"390048","LEWISTOWN HOSPITAL","400 HIGHLAND AVENUE","","","LEWISTOWN","PA","17044","MIFFLIN","7172485411","Acute Care Hospitals","Voluntary non-profit - Other","Yes","390048","40.6179552","-77.5673415"
"390049","ST LUKE'S HOSPITAL BETHLEHEM","801 OSTRUM STREET","","","BETHLEHEM","PA","18015","NORTHAMPTON","6109544000","Acute Care Hospitals","Voluntary non-profit - Other","Yes","390049","40.608805","-75.393333"
"39004F","COATESVILLE VA MEDICAL CENTER","1400 BLACK HORSE HILL ROAD","","","COATESVILLE","PA","19320","CHESTER","6103847711","ACUTE CARE - VETERANS ADMINISTRATION","Government Federal","NO","39004F","39.998086","-75.796313"
"390050","ALLEGHENY GENERAL HOSPITAL","320 EAST NORTH AVENUE","","","PITTSBURGH","PA","15212","ALLEGHENY","4123593131","Acute Care Hospitals","Voluntary non-profit - Other","Yes","390050","40.456532","-80.002592"
"390052","CLEARFIELD HOSPITAL","809 TURNPIKE AVE","","","CLEARFIELD","PA","16830","CLEARFIELD","8147655341","Acute Care Hospitals","Voluntary non-profit - Other","Yes","390052","41.033007","-78.449147"
"390056","J C BLAIR MEMORIAL HOSPITAL","1225 WARM SPRINGS AVE","","","HUNTINGDON","PA","16652","HUNTINGDON","8146432290","Acute Care Hospitals","Voluntary non-profit - Other","Yes","390056","40.4930696","-78.0143174"
"390057","GRAND VIEW HOSPITAL","700 LAWN AVENUE","","","SELLERSVILLE","PA","18960","BUCKS","2154534615","Acute Care Hospitals","Voluntary non-profit - Other","Yes","390057","40.363583","-75.326214"
"390058","CARLISLE REGIONAL MEDICAL CENTER","361 ALEXANDER SPRING ROAD","","","CARLISLE","PA","17015","CUMBERLAND","7172491212","Acute Care Hospitals","Proprietary","Yes","390058","40.1835927","-77.2245954"
"39005F","ERIE VA MEDICAL CENTER","135 EAST 38TH STREET","","","ERIE       ","PA","16504","ERIE","8148602576","ACUTE CARE - VETERANS ADMINISTRATION","Government Federal","NO","39005F","0","0"
"390061","LANCASTER REGIONAL MEDICAL CENTER","250 COLLEGE AVENUE","","","LANCASTER","PA","17604","LANCASTER","7172918123","Acute Care Hospitals","Proprietary","Yes","390061","0","0"
"390062","NASON HOSPITAL","105 NASON DRIVE","","","ROARING SPRING","PA","16673","BLAIR","8142242141","Acute Care Hospitals","Voluntary non-profit - Private","Yes","390062","0","0"
"390063","HAMOT MEDICAL CENTER","201 STATE STREET","","","ERIE","PA","16550","ERIE","8148776000","Acute Care Hospitals","Voluntary non-profit - Private","Yes","390063","0","0"
"390065","GETTYSBURG HOSPITAL","147 GETTYS STREET","","","GETTYSBURG","PA","17325","ADAMS","7173342121","Acute Care Hospitals","Voluntary non-profit - Private","Yes","390065","0","0"
"390066","GOOD SAMARITAN HOSPITAL","FOURTH AND WALNUT STREETS","","","LEBANON","PA","17042","LEBANON","7172707500","Acute Care Hospitals","Voluntary non-profit - Other","Yes","390066","40.3383811","-76.4052286"
"390067","PINNACLE HEALTH HOSPITALS","409 SOUTH SECOND STREET","","","HARRISBURG","PA","17105","DAUPHIN","7177825181","Acute Care Hospitals","Voluntary non-profit - Other","Yes","390067","40.256459","-76.875038"
"390068","HEART OF LANCASTER REGIONAL MEDICAL CENTER","1500 HIGHLANDS DRIVE","","","LITITZ","PA","17543","LANCASTER","7176255000","Acute Care Hospitals","Proprietary","Yes","390068","40.1331326","-76.3095665"
"39006F","LEBANON VA MEDICAL CENTER","1700 SOUTH LINCOLN AVENUE","","","LEBANON    ","PA","17042","LEBANON","7172285901","ACUTE CARE - VETERANS ADMINISTRATION","Government Federal","NO","39006F","40.3115385","-76.4065603"
"390070","LOWER BUCKS HOSPITAL","501 BATH ROAD","","","BRISTOL","PA","19007","BUCKS","2157859200","Acute Care Hospitals","Voluntary non-profit - Private","No","390070","40.1022831","-74.8633929"
"390071","LOCK HAVEN HOSPITAL","24 CREE DRIVE","","","LOCK HAVEN","PA","17745","CLINTON","5708935000","Acute Care Hospitals","Proprietary","Yes","390071","41.1332859","-77.4671443"
"390072","BERWICK HOSPITAL CENTER","701 EAST 16TH STREET","","","BERWICK","PA","18603","COLUMBIA","5707595000","Acute Care Hospitals","Proprietary","Yes","390072","41.071132","-76.231772"
"390073","ALTOONA REGIONAL HEALTH SYSTEM","620 HOWARD AVENUE","","","ALTOONA","PA","16601","BLAIR","8148892011","Acute Care Hospitals","Voluntary non-profit - Other","Yes","390073","40.5220368","-78.3982444"
"390076","BRANDYWINE HOSPITAL","201 REESEVILLE ROAD","","","COATESVILLE","PA","19320","CHESTER","6103838000","Acute Care Hospitals","Proprietary","Yes","390076","40.009555","-75.786223"
"390079","ROBERT PACKER HOSPITAL","ONE GUTHRIE SQUARE","","","SAYRE","PA","18840","BRADFORD","5708886666","Acute Care Hospitals","Voluntary non-profit - Other","Yes","390079","41.9789631","-76.515499"
"390080","JEANES HOSPITAL","7600 CENTRAL AVE","","","PHILADELPHIA","PA","19111","PHILADELPHIA","2157282000","Acute Care Hospitals","Voluntary non-profit - Private","Yes","390080","40.068592","-75.087076"
"390081","DELAWARE COUNTY MEMORIAL HOSPITAL","501 NORTH LANSDOWNE AVE","","","DREXEL HILL","PA","19026","DELAWARE","2152848100","Acute Care Hospitals","Voluntary non-profit - Private","Yes","390081","39.9539187","-75.2839708"
"390084","SUNBURY COMMUNITY HOSPITAL","350 NORTH 11TH STREET","","","SUNBURY","PA","17801","NORTHUMBERLAND","5702863333","Acute Care Hospitals","Proprietary","Yes","390084","40.8621006","-76.7784964"
"390086","DUBOIS REGIONAL MEDICAL CENTER","100 HOSPITAL AVENUE","","","DUBOIS","PA","15801","CLEARFIELD","8143712200","Acute Care Hospitals","Voluntary non-profit - Other","Yes","390086","41.11492","-78.7751509"
"390090","WESTERN PENNSYLVANIA HOSPITAL","4800 FRIENDSHIP AVENUE","","","PITTSBURGH","PA","15224","ALLEGHENY","4125785000","Acute Care Hospitals","Voluntary non-profit - Private","Yes","390090","40.461397","-79.946369"
"390091","UPMC NORTHWEST","100 FAIRFIELD DRIVE","","","SENECA","PA","16346","VENANGO","8146767600","Acute Care Hospitals","Voluntary non-profit - Other","Yes","390091","41.361158","-79.7006508"
"390093","CLARION HOSPITAL","ONE HOSPITAL DRIVE","","","CLARION","PA","16214","CLARION","8142269500","Acute Care Hospitals","Voluntary non-profit - Other","Yes","390093","41.1918681","-79.3968531"
"390095","MARIAN COMMUNITY HOSPITAL","100 LINCOLN AVENUE","","","CARBONDALE","PA","18407","LACKAWANNA","5702822100","Acute Care Hospitals","Voluntary non-profit - Church","Yes","390095","41.5718639","-75.4957543"
"390096","ST JOSEPH MEDICAL CENTER","2500 BERNVILLE ROAD","","","READING","PA","19605","BERKS","6103782300","Acute Care Hospitals","Voluntary non-profit - Church","Yes","390096","40.3767167","-75.9777049"
"390097","HOLY REDEEMER HOSPITAL AND MEDICAL CENTER","1648 HUNTINGDON PIKE","","","MEADOWBROOK","PA","19046","MONTGOMERY","2159473000","Acute Care Hospitals","Voluntary non-profit - Church","Yes","390097","40.1089763","-75.0811246"
"39009F","PHILADELPHIA VA MEDICAL CENTER","UNIVERSITY AND WOODLAND AVENU","","","PHILADELPHIA                  ","PA","19104","PHILADELPHIA","2158235857","ACUTE CARE - VETERANS ADMINISTRATION","Government Federal","NO","39009F","39.9503298","-75.1994067"
"390100","LANCASTER GENERAL HOSPITAL","555 NORTH DUKE STREET","","","LANCASTER","PA","17604","LANCASTER","7172995511","Acute Care Hospitals","Voluntary non-profit - Other","Yes","390100","40.0474039","-76.305398"
"390101","MEMORIAL HOSPITAL YORK","325 SOUTH BELMONT STREET","","","YORK","PA","17403","YORK","7178438623","Acute Care Hospitals","Voluntary non-profit - Private","Yes","390101","39.967478","-76.691926"
"390102","UPMC ST MARGARET","815 FREEPORT ROAD","","","PITTSBURGH","PA","15215","ALLEGHENY","4127844000","Acute Care Hospitals","Voluntary non-profit - Private","Yes","390102","40.489279","-79.895965"
"390104","KANE COMMUNITY HOSPITAL","4372 ROUTE 6","","","KANE","PA","16735","MCKEAN","8148378585","Acute Care Hospitals","Voluntary non-profit - Other","Yes","390104","41.671959","-78.8170675"
"390107","UPMC PASSAVANT","9100 BABCOCK BOULEVARD","","","PITTSBURGH","PA","15237","ALLEGHENY","4123676700","Acute Care Hospitals","Voluntary non-profit - Private","Yes","390107","40.5767535","-80.0130622"
"390108","MONTGOMERY HOSPITAL","POWELL & FORNANCE STREETS","","","NORRISTOWN","PA","19401","MONTGOMERY","6102702000","Acute Care Hospitals","Voluntary non-profit - Private","Yes","390108","40.1578402","-83.0751869"
"390110","CONEMAUGH VALLEY MEMORIAL HOSPITAL","1086 FRANKLIN STREET","","","JOHNSTOWN","PA","15905","CAMBRIA","8145349000","Acute Care Hospitals","Voluntary non-profit - Other","Yes","390110","40.305214","-78.91826"
"390111","HOSPITAL OF UNIV OF PENNSYLVANIA","34TH & SPRUCE STS","","","PHILADELPHIA","PA","19104","PHILADELPHIA","2156623227","Acute Care Hospitals","Voluntary non-profit - Private","Yes","390111","32.31691","-81.119796"
"390112","WINDBER HOSPITAL","600 SOMERSET AVENUE","","","WINDBER","PA","15963","SOMERSET","8144673000","Acute Care Hospitals","Voluntary non-profit - Private","Yes","390112","40.241978","-78.838278"
"390113","MEADVILLE MEDICAL CENTER","751 LIBERTY STREET","","","MEADVILLE","PA","16335","CRAWFORD","8143335000","Acute Care Hospitals","Voluntary non-profit - Other","Yes","390113","41.6420478","-80.1457865"
"390114","MAGEE WOMENS HOSPITAL OF UPMC HEALTH SYSTEM","300 HALKET STREET","","","PITTSBURGH","PA","15213","ALLEGHENY","4126414010","Acute Care Hospitals","Voluntary non-profit - Other","Yes","390114","40.437083","-79.961949"
"390115","ARIA HEALTH","10800 KNIGHTS ROAD","","","PHILADELPHIA","PA","19114","PHILADELPHIA","2156124129","Acute Care Hospitals","Voluntary non-profit - Private","Yes","390115","40.071597","-74.983411"
"390116","MERCY SUBURBAN HOSPITAL","2701 DEKALB PIKE","","","NORRISTOWN","PA","19401","MONTGOMERY","2152782000","Acute Care Hospitals","Voluntary non-profit - Church","Yes","390116","40.140626","-75.31571"
"390117","UPMC BEDFORD","10455 LINCOLN HIGHWAY","","","EVERETT","PA","15537","BEDFORD","8146236161","Acute Care Hospitals","Voluntary non-profit - Other","Yes","390117","40.0242923","-78.4335472"
"390118","BRADFORD REGIONAL MEDICAL CENTER","116 INTERSTATE PARKWAY","","","BRADFORD","PA","16701","MCKEAN","8143684143","Acute Care Hospitals","Voluntary non-profit - Private","Yes","390118","41.9612198","-78.659452"
"390119","MOSES TAYLOR HOSPITAL","700 QUINCY AVENUE","","","SCRANTON","PA","18510","LACKAWANNA","5703402100","Acute Care Hospitals","Voluntary non-profit - Private","Yes","390119","41.411074","-75.650908"
"390122","TITUSVILLE HOSPITAL","406 WEST OAK STREET","","","TITUSVILLE","PA","16354","CRAWFORD","8148271851","Acute Care Hospitals","Voluntary non-profit - Private","Yes","390122","41.6331704","-79.6792415"
"390123","POTTSTOWN MEMORIAL MEDICAL CENTER","1600 EAST HIGH STREET AND ARMAND HAMMER BLVD","","","POTTSTOWN","PA","19464","MONTGOMERY","6103277000","Acute Care Hospitals","Proprietary","No","390123","40.2439663","-75.6136358"
"390125","WAYNE MEMORIAL HOSPITAL","601 PARK STREET","","","HONESDALE","PA","18431","WAYNE","5702538100","Acute Care Hospitals","Voluntary non-profit - Private","Yes","390125","41.576467","-75.260486"
"390127","PHOENIXVILLE HOSPITAL","140 NUTT ROAD","","","PHOENIXVILLE","PA","19460","CHESTER","6109831000","Acute Care Hospitals","Proprietary","Yes","390127","40.123546","-75.51501"
"39012F","VA PITTSBURGH HEALTHCARE SYSTEM - UNIV DR","UNIVERSITY DRIVE C","","","PITTSBURGH ","PA","15240","","4126886100","ACUTE CARE - VETERANS ADMINISTRATION","Government Federal","NO","39012F","40.4460484","-79.9612433"
"390130","MINERS MEDICAL CENTER","290 HAIDA AVENUE","","","HASTINGS","PA","16646","CAMBRIA","8142473100","Acute Care Hospitals","Voluntary non-profit - Private","Yes","390130","40.6594147","-78.7094515"
"390132","ST JOSEPH'S HOSPITAL","1600 WEST GIRARD AVENUE","","","PHILADELPHIA","PA","19130","PHILADELPHIA","2157872000","Acute Care Hospitals","Voluntary non-profit - Private","Yes","390132","39.9719923","-75.1636526"
"390133","LEHIGH VALLEY HOSPITAL","PO BOX 689","","","ALLENTOWN","PA","18105","LEHIGH","6104022273","Acute Care Hospitals","Voluntary non-profit - Other","Yes","390133","40.6","-75.47"
"390137","WILKES-BARRE GENERAL HOSPITAL","575 NORTH RIVER STREET","","","WILKES-BARRE","PA","18764","LUZERNE","5708298111","Acute Care Hospitals","Voluntary non-profit - Private","Yes","390137","41.2586036","-75.8672935"
"390138","WAYNESBORO HOSPITAL","501 EAST MAIN ST","","","WAYNESBORO","PA","17268","FRANKLIN","7177654000","Acute Care Hospitals","Voluntary non-profit - Other","Yes","390138","39.7536838","-77.5741516"
"390139","MAIN LINE HOSPITAL BRYN MAWR CAMPUS","130 SOUTH BRYN MAWR AVE","","","BRYN MAWR","PA","19010","DELAWARE","6105263000","Acute Care Hospitals","Voluntary non-profit - Private","Yes","390139","40.018826","-75.321154"
"39013F","WILKES BARRE VA MEDICAL CENTER","1111 EAST END BOULEVARD","","","WILKES-BARRE                  ","PA","18711","LUZERNE","5708243521","ACUTE CARE - VETERANS ADMINISTRATION","Government Federal","NO","39013F","41.2484554","-75.8369125"
"390142","ALBERT EINSTEIN MEDICAL CENTER","5501 OLD YORK ROAD","","","PHILADELPHIA","PA","19141","PHILADELPHIA","2154566090","Acute Care Hospitals","Voluntary non-profit - Other","Yes","390142","40.0368315","-75.1444505"
"390145","EXCELA HEALTH WESTMORELAND REGIONAL HOSPITAL","532 WEST PITTSBURGH STREET","","","GREENSBURG","PA","15601","WESTMORELAND","4128325050","Acute Care Hospitals","Voluntary non-profit - Other","Yes","390145","40.3009816","-79.5549595"
"390146","WARREN GENERAL HOSPITAL","TWO CRESCENT PARK WEST","","","WARREN","PA","16365","WARREN","8147233300","Acute Care Hospitals","Voluntary non-profit - Private","Yes","390146","41.843272","-79.154769"
"390147","MONONGAHELA VALLEY HOSPITAL","1163 COUNTRY CLUB ROAD","","","MONONGAHELA","PA","15063","WASHINGTON","7242581000","Acute Care Hospitals","Voluntary non-profit - Other","Yes","390147","40.1844396","-79.9161378"
"390150","SOUTHWEST REGIONAL MEDICAL CENTER","350 BONAR AVENUE","","","WAYNESBURG","PA","15370","GREENE","7246272602","Acute Care Hospitals","Proprietary","Yes","390150","39.9005845","-80.1739106"
"390151","CHAMBERSBURG HOSPITAL","112 NORTH SEVENTH STREET","","","CHAMBERSBURG","PA","17201","FRANKLIN","7172673000","Acute Care Hospitals","Voluntary non-profit - Other","Yes","390151","39.9349307","-77.6474315"
"390153","MAIN LINE HOSPITAL PAOLI","255 WEST LANCASTER AVENUE","","","PAOLI","PA","19301","CHESTER","6106481000","Acute Care Hospitals","Voluntary non-profit - Private","Yes","390153","40.0440589","-75.5014583"
"390154","ELK REGIONAL HEALTH CENTER","763 JOHNSONBURG ROAD","","","SAINT MARYS","PA","15857","ELK","8147888000","Acute Care Hospitals","Voluntary non-profit - Other","Yes","390154","41.4255844","-78.5760559"
"390156","MERCY FITZGERALD HOSPITAL","LANSDOWNE & BAILY RDS","","","DARBY","PA","19023","DELAWARE","2152374000","Acute Care Hospitals","Voluntary non-profit - Other","Yes","390156","39.9381682","-75.2718507"
"390157","OHIO VALLEY GENERAL HOSPITAL","25 HECKEL ROAD","","","MCKEES ROCKS","PA","15136","ALLEGHENY","4127776161","Acute Care Hospitals","Voluntary non-profit - Private","Yes","390157","40.4716","-80.091555"
"390160","CANONSBURG GENERAL HOSPITAL","100 MEDICAL BOULEVARD","","","CANONSBURG","PA","15317","WASHINGTON","7248735892","Acute Care Hospitals","Voluntary non-profit - Other","Yes","390160","40.247007","-80.191183"
"390162","EASTON HOSPITAL","250 SOUTH 21ST STREET","","","EASTON","PA","18042","NORTHAMPTON","6102504076","Acute Care Hospitals","Proprietary","Yes","390162","40.6870828","-75.2427202"
"390163","ACMH HOSPITAL","ONE NOLTE DRIVE","","","KITTANNING","PA","16201","ARMSTRONG","7245438404","Acute Care Hospitals","Voluntary non-profit - Private","Yes","390163","40.808716","-79.5604253"
"390164","UPMC PRESBYTERIAN SHADYSIDE","200 LOTHROP STREET","","","PITTSBURGH","PA","15213","ALLEGHENY","4126478788","Acute Care Hospitals","Voluntary non-profit - Private","Yes","390164","40.441939","-79.9605179"
"390168","BUTLER MEMORIAL HOSPITAL","ONE HOSPITAL WAY","","","BUTLER","PA","16001","BUTLER","7242836666","Acute Care Hospitals","Voluntary non-profit - Other","Yes","390168","40.867222","-79.8790064"
"390173","INDIANA REGIONAL MEDICAL CENTER","835 HOSPITAL ROAD","","","INDIANA","PA","15701","INDIANA","7243577000","Acute Care Hospitals","Voluntary non-profit - Private","Yes","390173","40.6075465","-79.1565718"
"390174","THOMAS JEFFERSON UNIVERSITY HOSPITAL","111 SOUTH 11TH STREET","","","PHILADELPHIA","PA","19107","PHILADELPHIA","2159556000","Acute Care Hospitals","Voluntary non-profit - Private","Yes","390174","39.9496753","-75.158725"
"390178","UPMC HORIZON","110 NORTH MAIN STREET","","","GREENVILLE","PA","16125","MERCER","7245882100","Acute Care Hospitals","Voluntary non-profit - Private","Yes","390178","41.4113265","-80.3716875"
"390179","CHESTER COUNTY HOSPITAL","701 EAST MARSHALL ST","","","WEST CHESTER","PA","19380","CHESTER","6104315000","Acute Care Hospitals","Voluntary non-profit - Private","Yes","390179","39.970243","-75.602588"
"390180","CROZER CHESTER MEDICAL CENTER","ONE MEDICAL CENTER BOULEVARD","","","UPLAND","PA","19013","DELAWARE","6104472000","Acute Care Hospitals","Voluntary non-profit - Other","Yes","390180","39.8572098","-75.3666109"
"390183","ST LUKE'S MINERS MEMORIAL HOSPITAL","360 W RUDDLE STREET","","","COALDALE","PA","18218","SCHUYLKILL","5706452131","Acute Care Hospitals","Voluntary non-profit - Private","Yes","390183","40.8213398","-75.9139185"
"390184","HIGHLANDS HOSPITAL","401 EAST MURPHY AVENUE","","","CONNELLSVILLE","PA","15425","FAYETTE","7246281500","Acute Care Hospitals","Voluntary non-profit - Private","Yes","390184","40.022968","-79.586136"
"390185","HAZLETON GENERAL HOSPITAL","700 EAST BROAD STREET","","","HAZLETON","PA","18201","LUZERNE","5705014000","Acute Care Hospitals","Voluntary non-profit - Other","Yes","390185","40.948745","-75.96386"
"390189","SHAMOKIN AREA COMMUNITY HOSPITAL","4200 HOSPITAL ROAD","","","COAL TOWNSHIP","PA","17866","NORTHUMBERLAND","5706444200","Acute Care Hospitals","Voluntary non-profit - Private","Yes","390189","40.8051487","-76.5699371"
"390192","MERCY TYLER HOSPITAL","880 STATE ROUTE 6 WEST","","","TUNKHANNOCK","PA","18657","WYOMING","5708362161","Acute Care Hospitals","Voluntary non-profit - Other","Yes","390192","41.5474657","-75.9182028"
"390194","GNADEN HUETTEN MEMORIAL HOSPITAL","211 NORTH 12TH STREET","","","LEHIGHTON","PA","18235","CARBON","6073771300","Acute Care Hospitals","Voluntary non-profit - Private","Yes","390194","40.832553","-75.7267736"
"390195","MAIN LINE HOSPITAL LANKENAU","100 LANCASTER AVE","","","WYNNEWOOD","PA","19096","MONTGOMERY","6106452000","Acute Care Hospitals","Voluntary non-profit - Private","Yes","390195","39.988136","-75.2618837"
"390197","SACRED HEART HOSPITAL","421 CHEW STREET","","","ALLENTOWN","PA","18102","LEHIGH","6107764900","Acute Care Hospitals","Voluntary non-profit - Private","Yes","390197","40.6079758","-75.4681743"
"390198","MILLCREEK COMMUNITY HOSPITAL","5515 PEACH STREET","","","ERIE","PA","16509","ERIE","8148644031","Acute Care Hospitals","Voluntary non-profit - Other","Yes","390198","42.0739414","-80.0936747"
"390199","PUNXSUTAWNEY AREA HOSPITAL","81 HILLCREST DRIVE","","","PUNXSUTAWNEY","PA","15767","JEFFERSON","8149381800","Acute Care Hospitals","Voluntary non-profit - Private","Yes","390199","40.961282","-78.999735"
"390201","POCONO MEDICAL CENTER","206 EAST BROWN STREET","","","EAST STROUDSBURG","PA","18301","MONROE","5704763348","Acute Care Hospitals","Voluntary non-profit - Other","Yes","390201","40.9922509","-75.1746555"
"390203","DOYLESTOWN HOSPITAL","595 WEST STATE ST","","","DOYLESTOWN","PA","18901","BUCKS","2153452200","Acute Care Hospitals","Voluntary non-profit - Private","Yes","390203","40.305107","-75.145669"
"390204","NAZARETH HOSPITAL","2601 HOLME AVE","","","PHILADELPHIA","PA","19152","PHILADELPHIA","2153356000","Acute Care Hospitals","Voluntary non-profit - Church","Yes","390204","40.0583758","-75.043557"
"390211","SHARON REGIONAL HEALTH SYSTEM","740 EAST STATE STREET","","","SHARON","PA","16146","MERCER","7249833912","Acute Care Hospitals","Voluntary non-profit - Other","Yes","390211","41.2329831","-80.4956422"
"390217","EXCELA HEALTH FRICK HOSPITAL","508 SOUTH CHURCH STREET","","","MOUNT PLEASANT","PA","15666","WESTMORELAND","7245471500","Acute Care Hospitals","Voluntary non-profit - Other","Yes","390217","40.145263","-79.549922"
"390219","EXCELA HEALTH LATROBE HOSPITAL","ONE MELLON WAY","","","LATROBE","PA","15650","WESTMORELAND","7245371000","Acute Care Hospitals","Voluntary non-profit - Private","Yes","390219","40.320998","-79.394584"
"390220","JENNERSVILLE REGIONAL HOSPITAL","1015 WEST BALTIMORE PIKE","","","WEST GROVE","PA","19390","CHESTER","6108691000","Acute Care Hospitals","Proprietary","Yes","390220","39.821909","-75.8868339"
"390222","RIDDLE MEMORIAL HOSPITAL","1068 WEST BALTIMORE PIKE","","","MEDIA","PA","19063","DELAWARE","6105669400","Acute Care Hospitals","Voluntary non-profit - Private","Yes","390222","39.914394","-75.430112"
"390223","PENN PRESBYTERIAN MEDICAL CENTER","51 NORTH 39TH STREET","","","PHILADELPHIA","PA","19104","PHILADELPHIA","2156628000","Acute Care Hospitals","Voluntary non-profit - Other","Yes","390223","39.9572391","-75.1995344"
"390225","EPHRATA COMMUNITY HOSPITAL","169 MARTIN AVENUE","","","EPHRATA","PA","17522","LANCASTER","7177330311","Acute Care Hospitals","Voluntary non-profit - Other","Yes","390225","40.1873897","-76.1822355"
"390226","PENNSYLVANIA HOSP OF THE UNIV OF PA HEALTH SYS","800 SPRUCE STREET","","","PHILADELPHIA","PA","19107","PHILADELPHIA","2158293000","Acute Care Hospitals","Voluntary non-profit - Private","Yes","390226","39.9457874","-75.1558798"
"390228","ST CLAIR MEMORIAL HOSPITAL","1000 BOWER HILL ROAD","","","PITTSBURGH","PA","15243","ALLEGHENY","4125614900","Acute Care Hospitals","Voluntary non-profit - Other","Yes","390228","40.377822","-80.065892"
"390231","ABINGTON MEMORIAL HOSPITAL","1200 OLD YORK ROAD","","","ABINGTON","PA","19001","MONTGOMERY","2154812000","Acute Care Hospitals","Voluntary non-profit - Private","Yes","390231","40.12073","-75.118203"
"390233","HANOVER HOSPITAL","300 HIGHLAND AVE","","","HANOVER","PA","17331","YORK","7176373711","Acute Care Hospitals","Voluntary non-profit - Private","Yes","390233","39.80858","-76.983061"
"390236","MEMORIAL HOSPITAL INC  TOWANDA","91 HOSPITAL DRIVE","","","TOWANDA","PA","18848","BRADFORD","5702682270","Acute Care Hospitals","Voluntary non-profit - Other","Yes","390236","41.7836979","-76.4487718"
"390237","MERCY HOSPITAL SCRANTON","746 JEFFERSON AVENUE","","","SCRANTON","PA","18501","LACKAWANNA","5703487100","Acute Care Hospitals","Voluntary non-profit - Church","Yes","390237","41.4127392","-75.6540129"
"390256","MILTON S HERSHEY MEDICAL CENTER","500 UNIVERSITY DRIVE","","","HERSHEY","PA","17033","DAUPHIN","7175318521","Acute Care Hospitals","Voluntary non-profit - Other","Yes","390256","40.26466","-76.675773"
"390258","ST MARY MEDICAL CENTER","LANGHORNE-NEWTOWN RD","","","LANGHORNE","PA","19047","BUCKS","2157502003","Acute Care Hospitals","Voluntary non-profit - Church","Yes","390258","40.201068","-74.927487"
"390263","LEHIGH VALLEY HOSPITAL - MUHLENBERG","2545 SCHOENERSVILLE ROAD","","","BETHLEHEM","PA","18017","LEHIGH","6104022273","Acute Care Hospitals","Voluntary non-profit - Other","Yes","390263","40.644389","-75.408955"
"390265","JEFFERSON REGIONAL MEDICAL CENTER","565 COAL VALLEY RD","","","PITTSBURGH","PA","15236","ALLEGHENY","4124695000","Acute Care Hospitals","Voluntary non-profit - Other","Yes","390265","40.322558","-79.932856"
"390266","GROVE CITY MEDICAL CENTER","631 NORTH BROAD STREET EXT.","","","GROVE CITY","PA","16127","MERCER","7244507000","Acute Care Hospitals","Voluntary non-profit - Other","Yes","390266","41.1578377","-80.0886703"
"390267","WESTERN PENNSYLVANIA HOSP FORBES REGIONAL CAMPUS","2570 HAYMAKER RD","","","MONROEVILLE","PA","15146","ALLEGHENY","4128582000","Acute Care Hospitals","Voluntary non-profit - Other","Yes","390267","40.428971","-79.748075"
"390268","MOUNT NITTANY MEDICAL CENTER","1800 EAST PARK AVE","","","STATE COLLEGE","PA","16803","CENTRE","8142317000","Acute Care Hospitals","Voluntary non-profit - Other","Yes","390268","40.8057328","-77.8646964"
"390270","GEISINGER WYOMING VALLEY MEDICAL CENTER","100O EAST MOUNTAIN BOULEVARD","","","WILKES BARRE","PA","18711","LUZERNE","5708267300","Acute Care Hospitals","Voluntary non-profit - Private","No","390270","41.258546","-75.8104069"
"390272","VALLEY FORGE MEDICAL CENTER AND HOSPITAL","1033 W GERMANTOWN PIKE","","","NORRISTOWN","PA","19401","MONTGOMERY","2155398500","Acute Care Hospitals","Proprietary","No","390272","40.158226","-75.368069"
"390278","EAGLEVILLE HOSPITAL","100 EAGLEVILLE RD","","","EAGLEVILLE","PA","19408","MONTGOMERY","2155396000","Acute Care Hospitals","Voluntary non-profit - Other","Yes","390278","40.1558603","-75.4118737"
"390290","HAHNEMANN UNIVERSITY HOSPITAL","230 NORTH BROAD STREET","","","PHILADELPHIA","PA","19102","PHILADELPHIA","2157627000","Acute Care Hospitals","Proprietary","Yes","390290","39.9571075","-75.162671"
"390304","ROXBOROUGH MEMORIAL HOSPITAL","5800 RIDGE AVE","","","PHILA","PA","19128","PHILADELPHIA","2154839900","Acute Care Hospitals","Proprietary","No","390304","40.029145","-75.212027"
"390307","EDGEWOOD SURGICAL HOSPITAL","239 EDGEWOOD DRIVE EXTENSION","","","TRANSFER","PA","16154","MERCER","7246460400","Acute Care Hospitals","Proprietary","Yes","390307","41.3304357","-80.417679"
"390312","CANCER TREATMENT CENTERS OF AMERICA","1331 EAST WYOMING AVENUE","","","PHILADELPHIA","PA","19124","PHILADELPHIA","2157446728","Acute Care Hospitals","Voluntary non-profit - Private","No","390312","40.018902","-75.098324"
"390313","SAINT CATHERINE MEDICAL CENTER FOUNTAIN SPRINGS","101 BROAD STREET","","","ASHLAND","PA","17921","SCHUYLKILL","5708752000","Acute Care Hospitals","Voluntary non-profit - Private","Yes","390313","40.769989","-76.3296979"
"390314","COORDINATED HEALTH ORTHOPEDIC HOSPITAL","2310 HIGHLAND AVENUE","","","BETHLEHEM","PA","18017","LEHIGH","6106914300","Acute Care Hospitals","Proprietary","No","390314","40.672689","-75.365789"
"390316","SURGICAL INSTITUTE OF READING","2752 CENTURY BOULEVARD","","","WYOMISSING","PA","19610","BERKS","7179999999","Acute Care Hospitals","Proprietary","No","390316","40.358538","-75.988051"
"390318","WESTFIELD HOSPITAL","4815 TILGHMAN STREET","","","ALLENTOWN","PA","18105","LEHIGH","6109738400","Acute Care Hospitals","Proprietary","Yes","390318","40.591473","-75.562737"
"390321","SURGICAL SPECIALTY CENTER AT COORDINATED HEALTH","1503 CEDAR CREST BOULEVARD","","","ALLENTOWN","PA","18104","LEHIGH","6108719110","Acute Care Hospitals","Proprietary","No","390321","40.6112706","-75.5323557"
"390322","BUCKS COUNTY SPECIALTY HOSPITAL","3300 TILLMAN DRIVE","","","BENSALEM","PA","19020","BUCKS","2156397513","Acute Care Hospitals","Proprietary","No","390322","40.1168336","-74.9613417"
"390323","ADVANCED SURGICAL HOSPITAL","100 TRICH DRIVE","","","WASHINGTON","PA","15301","WASHINGTON","7248840710","Acute Care Hospitals","Proprietary","No","390323","40.1554231","-80.2783071"
"391300","JERSEY SHORE HOSPITAL","THOMPSON STREET","","","JERSEY SHORE","PA","17740","LYCOMING","5703980100","Critical Access Hospitals","Voluntary non-profit - Other","Yes","391300","41.2008625","-77.2612355"
"391301","MUNCY VALLEY HOSPITAL","215 EAST WATER STREET","","","MUNCY","PA","17756","LYCOMING","5705468282","Critical Access Hospitals","Voluntary non-profit - Church","Yes","391301","41.2095983","-76.7746426"
"391303","FULTON COUNTY MEDICAL CENTER","214 PEACH ORCHARD ROAD","","","MCCONNELLSBURG","PA","17233","FULTON","7174853155","Critical Access Hospitals","Voluntary non-profit - Private","Yes","391303","39.937337","-78.006815"
"391305","TROY COMMUNITY HOSPITAL","101 ELMIRA STREET","","","TROY","PA","16947","BRADFORD","5702972121","Critical Access Hospitals","Voluntary non-profit - Private","Yes","391305","41.7861507","-76.7866479"
"391306","MONTROSE GENERAL HOSPITAL","25 GROW AVENUE","","","MONTROSE","PA","18801","SUSQUEHANNA","5702783801","Critical Access Hospitals","Voluntary non-profit - Private","Yes","391306","41.833863","-75.870584"
"391308","CORRY MEMORIAL HOSPITAL","612 WEST SMITH STREET","","","CORRY","PA","16407","ERIE","8146644641","Critical Access Hospitals","Voluntary non-profit - Private","Yes","391308","41.9253709","-79.6537713"
"391311","MID-VALLEY HOSPITAL","1400 SOUTH MAIN STREET","","","PECKVILLE","PA","18452","LACKAWANNA","5703835500","Critical Access Hospitals","Voluntary non-profit - Other","Yes","391311","41.4764866","-75.6028919"
"391312","BROOKVILLE HOSPITAL","100 HOSPITAL ROAD","","","BROOKVILLE","PA","15825","JEFFERSON","8148492312","Critical Access Hospitals","Voluntary non-profit - Private","Yes","391312","41.1572336","-79.0914511"
"391313","CHARLES COLE MEMORIAL HOSPITAL","1001 EAST SECOND STREET","","","COUDERSPORT","PA","16915","POTTER","8142749301","Critical Access Hospitals","Voluntary non-profit - Other","Yes","391313","41.771809","-77.9803788"
"393302","CHILDREN'S HOSPITAL OF PITTSBURGH OF UPMC","4401 PENN AVENUE","","","PITTSBURGH","PA","15224","ALLEGHENY","4126925325","Childrens","Voluntary non-profit - Other","Yes","393302","40.4658072","-79.9537345"
"393303","CHILDREN'S HOSPITAL OF PHILADELPHIA","34TH ST & CIVIC CENTER BLVD","","","PHILADELPHIA","PA","19104","PHILADELPHIA","2155903745","Childrens","Voluntary non-profit - Private","Yes","393303","33.5632992","-101.931092"
"400001","ASHFORD PRESBYTERIAN COMMUNITY HOSP","1451 ASHFORD AVENUE","","","SAN JUAN","PR","907","SAN JUAN","7877212160","Acute Care Hospitals","Voluntary non-profit - Other","Yes","400001","18.4548482","-66.0658561"
"400003","HOSPITAL DR PILA","LAS AMERICAS AVE","","","PONCE","PR","733","PONCE","7878485600","Acute Care Hospitals","Voluntary non-profit - Private","Yes","400003","18.0046968","-66.6021584"
"400004","ASOCIACION HOSPITAL DEL MAESTRO INC","SERGIO CUEVAS BUSTAMANTE STREET 550","","","SAN JUAN","PR","936","SAN JUAN","7877586420","Acute Care Hospitals","Voluntary non-profit - Other","Yes","400004","0","0"
"400005","HIMA SAN PABLO HUMACAO","CALLE FONT MARTELO #3","","","HUMACAO","PR","791","HUMACAO","7878522424","Acute Care Hospitals","Proprietary","Yes","400005","0","0"
"400006","DOCTORS' CENTER HOSPITAL SAN JUAN","PDA. 20 C/ SAN RAFAEL # 1395","","","FERNANDEZ JUNCOS","PR","909","SAN JUAN","7877232950","Acute Care Hospitals","Proprietary","Yes","400006","0","0"
"400007","RYDER MEMORIAL HOSPITAL INC","355 AVE FONT MARTELO","","","HUMACAO","PR","791","HUMACAO","7878520768","Acute Care Hospitals","Voluntary non-profit - Private","Yes","400007","0","0"
"400009","SANTA ROSA CLINIC","AVE. LOS VETERANOS #3","","","GUAYAMA","PR","785","GUAYANILLA","7878640101","Acute Care Hospitals","Voluntary non-profit - Private","No","400009","0","0"
"400010","CASTANER GENERAL HOSPITAL","ST 135 KM 64 2","","","CASTANER","PR","631","LARES","7878295010","Acute Care Hospitals","Government - Local","Yes","400010","0","0"
"400011","HOSPITAL ORIENTE","300 FONT MARTELLO STREET","","","HUMACAO","PR","792","HUMACAO","7878520505","Acute Care Hospitals","Proprietary","Yes","400011","0","0"
"400012","DR I GONZALEZ MARTINEZ ONCOLOGY HOSP","BO. MONACILLOS CENTRO MEDICO","","","SAN JUAN","PR","919","SAN JUAN","7877634149","Acute Care Hospitals","Voluntary non-profit - Private","No","400012","0","0"
"400013","HOSPITAL MENONITA DE CAYEY","BO. RINCON SECTOR LAS LOMAS  KM.3.1 CARR 14","","","CAYEY","PR","737","CAYEY","7875351001","Acute Care Hospitals","Voluntary non-profit - Private","Yes","400013","0","0"
"400014","BELLA VISTA HOSPITAL","CARR 349 KM 2 7 CERRO LAS MESAS","","","MAYAGUEZ","PR","681","MAYAGUEZ","7876526045","Acute Care Hospitals","Voluntary non-profit - Church","No","400014","0","0"
"400015","SAN JUAN MUNICIPAL HOSPITAL","BARRIO MONACILLOS","","","RIO PIEDRAS","PR","936","SAN JUAN","7877568535","Acute Care Hospitals","Voluntary non-profit - Other","No","400015","0","0"
"400016","AUXILIO MUTUO HOSPITAL","PONCE DE LEON AVENUE STOP 36 1/2 #735","","","HATO REY","PR","918","SAN JUAN","7877582000","Acute Care Hospitals","Voluntary non-profit - Private","Yes","400016","0","0"
"400018","MENNONITE GENERAL HOSPITAL INC","CALLE JOSE C VASQUEZ BO. CAONILLAS","","","AIBONITO","PR","705","AIBONITO","7875351001","Acute Care Hospitals","Voluntary non-profit - Other","Yes","400018","0","0"
"400019","HOSPITAL PAVIA SANTURCE","CALLE PROFESOR AUGUSTO RODRIGUEZ #1462","","","FERNANDEZ JUNCOS","PR","910","SAN JUAN","7877276060","Acute Care Hospitals","Voluntary non-profit - Private","Yes","400019","0","0"
"400021","HOSPITAL DE LA CONCEPCION","ROAD NUMBER 2 KM 173.4","","","SAN GERMAN","PR","683","SAN GERMAN","7878921860","Acute Care Hospitals","Proprietary","Yes","400021","18.0717026","-67.0554153"
"400022","HOSPITAL DAMAS INC","PONCE BY PASS #2213","","","PONCE","PR","717","PONCE","7878408460","Acute Care Hospitals","Voluntary non-profit - Private","Yes","400022","0","0"
"400024","CLINICA ESPANOLA INC","SECTOR LA QUINTA BO BALBOA","","","MAYAGUEZ","PR","680","MAYAGUEZ","7878320404","Acute Care Hospitals","Voluntary non-profit - Private","Yes","400024","0","0"
"400026","LAFAYETTE HOSPITAL","CARR.753 KM.0.1-SECTOR CUATRO CALLES","","","ARROYO","PR","714","ARROYO","7878393232","Acute Care Hospitals","Voluntary non-profit - Private","Yes","400026","0","0"
"400028","HOSPITAL ONCOLOGICO ANDRES GRILLASCA","AVE TITO CASTRO CARR 14 ANTIGUO CENTRO MEDICO","","","PONCE","PR","733","PONCE","7878480800","Acute Care Hospitals","Voluntary non-profit - Private","Yes","400028","0","0"
"400032","HOSPITAL HERMANOS MELENDEZ INC","CARRETERA #2 KM 11 7","","","BAYAMON","PR","960","BAYAMON","7876208181","Acute Care Hospitals","Proprietary","Yes","400032","0","0"
"40003F","SAN JUAN VA MEDICAL CENTER","10 CALLE CASIA","","","SAN JUAN   ","PR","921","SAN JUAN","8004498729","ACUTE CARE - VETERANS ADMINISTRATION","Government Federal","NO","40003F","0","0"
"400044","SAN LUKE'S MEMORIAL HOSPITAL INC","TITO CASTRO AVE #917","","","PONCE","PR","733","PONCE","7878442080","Acute Care Hospitals","Voluntary non-profit - Church","Yes","400044","0","0"
"400048","HOSPITAL EPISCOPAL SAN LUCAS GUAYAMA INC","AVE. PEDRO ALBIZU CAMPOS URB. LA HACIENDA","","","GUAYAMA","PR","785","GUAYANILLA","7878644300","Acute Care Hospitals","Proprietary","Yes","400048","0","0"
"400061","UNIVERSITY DISTRICT HOSPITAL","BARRIO MONACILLOS CENTROMEDICO","","","RIO PIEDRAS","PR","927","SAN JUAN","7877540101","Acute Care Hospitals","Government - State","Yes","400061","0","0"
"400079","HOSP COMUNITARIO BUEN SAMARITANO","CARR.2 KM.1.4 AVE. SEVERIANO CUEVAS #18","","","AGUADILLA","PR","603","AGUADILLA","7876580000","Acute Care Hospitals","Voluntary non-profit - Other","Yes","400079","0","0"
"400087","HOSPITAL DR CAYETANO COLL Y TOSTE","CARRETERA 129 KM.1 AVENIDA SAN LUIS","","","ARECIBO","PR","613","ARECIBO","7876507272","Acute Care Hospitals","Proprietary","Yes","400087","0","0"
"400098","HOSPITAL SAN FRANCISCO","371 DE DIEGO AVE","","","SAN JUAN","PR","923","SAN JUAN","7877675100","Acute Care Hospitals","Proprietary","Yes","400098","18.4461477","-66.0682657"
"400102","DOCTORS CENTER HOSPITAL BAYAMON","9 J STREET EXT HERMANAS DAVILA","","","BAYAMON","PR","959","BAYAMON","7876225420","Acute Care Hospitals","Proprietary","Yes","400102","0","0"
"400103","CENTRO MEDICO DE MAYAG DR  RAMON EMETERIO BETANCES","AVE HOSTOS 410","","","MAYAGUEZ","PR","681","MAYAGUEZ","7876529200","Acute Care Hospitals","Proprietary","Yes","400103","18.202606","-67.1473327"
"400104","HOSPITAL SAN JUAN BAUTISTA MEDICAL CENTER","CARR 172 URB TURABO GARDENS","","","CAGUAS","PR","725","CAGUAS","7877443141","Acute Care Hospitals","Government - Hospital District or Authority","Yes","400104","0","0"
"400105","HOSPITAL UNIVERSITARIO DR RUIZ ARNAU","LAUREL AVE SANTA JUANITA #100","","","BAYAMON","PR","956","BAYAMON","7877875151","Acute Care Hospitals","Government - State","No","400105","0","0"
"400106","METROPOLITAN HOSPITAL","CARRETERA #1785 URB LAS LOMAS","","","SAN JUAN","PR","922","SAN JUAN","7877935013","Acute Care Hospitals","Proprietary","Yes","400106","0","0"
"400109","HOSPITAL HIMA-SAN PABLO BAYAMON","CALLE SANTA CRUZ NUMERO 70  URB SANTA CRUZ","","","BAYAMON","PR","960","BAYAMON","7876204747","Acute Care Hospitals","Proprietary","Yes","400109","0","0"
"400110","HOSPITAL METROPOLITANO DR TITO MATTEI","ROAD 128 KM 1.0","","","YAUCO","PR","698","YAUCO","7878561000","Acute Care Hospitals","Proprietary","Yes","400110","0","0"
"400111","HOSPITAL SAN CARLOS BORROMEO"," CALLE CONCEPCION VERA AYALA #550 S","","","MOCA","PR","676","MOCA","7878778000","Acute Care Hospitals","Voluntary non-profit - Private","Yes","400111","0","0"
"400112","HOSPITAL UPR DR  FEDERICO TRILLA","CARR 3 KM 8  3 AVE 65TH INFANTERIA       BOX 6021","","","CAROLINA","PR","984","CAROLINA","7877571800","Acute Care Hospitals","Proprietary","No","400112","0","0"
"400113","HOSPITAL SAN CRISTOBAL","CARR 506 KM 1 0","","","COTO LAUREL","PR","780","PONCE","7878482100","Acute Care Hospitals","Voluntary non-profit - Private","Yes","400113","0","0"
"400114","MANATI MEDICAL CENTER DR OTERO LOPEZ","CALLE HERNANDEZ CARRION URB ATENAS","","","MANATI","PR","674","MANATI","7876213700","Acute Care Hospitals","Proprietary","Yes","400114","0","0"
"400115","CENTRO MEDICO WILMA N VAZQUEZ","CARR. 2 KM 39.5    ROAD NUMBER 2 BO ALGARROBO","","","VEGA BAJA","PR","693","VEGA BAJA","7878581580","Acute Care Hospitals","Proprietary","Yes","400115","0","0"
"400117","HOSPITAL DR SUSONI INC","55 PALM ST","","","ARECIBO","PR","614","ARECIBO","7876501031","Acute Care Hospitals","Voluntary non-profit - Private","Yes","400117","0","0"
"400118","DOCTORS' CENTER HOSPITAL INC","MARGINAL CARRETERA NO 2","","","MANATI","PR","674","MANATI","7878543322","Acute Care Hospitals","Proprietary","Yes","400118","0","0"
"400120","HIMA SAN PABLO-CAGUAS","AVE LUIS MUNOZ MARIN","","","CAGUAS","PR","725","CAGUAS","7876533434","Acute Care Hospitals","Proprietary","Yes","400120","18.2270107","-66.027318"
"400121","HOSPITAL SAN GERARDO","ROAD NO 844 KM 0 5 PO CUPEY BAJO","","","RIO PIEDRAS","PR","928","SAN JUAN","7877618383","Acute Care Hospitals","Voluntary non-profit - Private","Yes","400121","0","0"
"400123","HOSPITAL PEREA","15 DR BASORA STREET","","","MAYAGUEZ","PR","681","MAYAGUEZ","7878340101","Acute Care Hospitals","Voluntary non-profit - Private","Yes","400123","0","0"
"400124","CENTRO CARDIOVASCULAR","AVENIDA AMERICO MIRANDA","","","RIO PIEDRAS","PR","936","SAN JUAN","7877548500","Acute Care Hospitals","Government - State","Yes","400124","0","0"
"400125","HIMA-SAN PABLO FAJARDO","GENERAL VALERO AVE#404","","","FAJARDO","PR","738","FAJARDO","7876550505","Acute Care Hospitals","Proprietary","Yes","400125","0"
"400126","HOSPITAL METROPOLITANO SAN GERMAN","CALLE JAVILLA  #8 AL COSTADO PARQUE DE BOMBAS","","","SAN GERMAN","PR","683","SAN GERMAN","7878925300","Acute Care Hospitals","Voluntary non-profit - Private","Yes","400126","0","0"
"400127","ADMIN DE SERVICIOS MEDICOS  PUERTO RIC","BO MONACILLO CARR NUM 22","","","SAN JUAN","PR","935","SAN JUAN","7877773535","Acute Care Hospitals","Government - Local","Yes","400127","0","0"
"400128","HOSPITAL PAVIA HATO REY INC","AVE PONCE DE LEON 435","","","HATO REY","PR","919","SAN JUAN","7877540909","Acute Care Hospitals","Voluntary non-profit - Private","Yes","400128","18.4188312","-66.0560768"
"400130","HOSPITAL METROPOLITANO DE LA MONTANA","CALLE ISAAC GONZALEZ ESQUINA LEDESMA","","","BDA NUEVA","PR","641","UTUADO","7879331100","Acute Care Hospitals","Proprietary","Yes","400130","0","0"
"410001","MEMORIAL HOSPITAL OF RHODE ISLAND","111 BREWSTER STREET","","","PAWTUCKET","RI","2860","PROVIDENCE","4017292000","Acute Care Hospitals","Voluntary non-profit - Other","Yes","410001","41.869427","-71.375612"
"410004","ROGER WILLIAMS MEDICAL CENTER","825 CHALKSTONE AVENUE","","","PROVIDENCE","RI","2908","PROVIDENCE","4014562000","Acute Care Hospitals","Voluntary non-profit - Private","Yes","410004","41.833774","-71.4353187"
"410005","ST JOSEPH HEALTH SERVICES OF RI","200 HIGH SERVICE AVENUE","","","NORTH PROVIDENCE","RI","2904","PROVIDENCE","4014563000","Acute Care Hospitals","Voluntary non-profit - Private","Yes","410005","41.855742","-71.45945"
"410006","NEWPORT HOSPITAL","FRIENDSHIP STREET","","","NEWPORT","RI","2840","NEWPORT","4018466400","Acute Care Hospitals","Voluntary non-profit - Private","Yes","410006","41.4967904","-71.3045447"
"410007","RHODE ISLAND HOSPITAL","593 EDDY STREET","","","PROVIDENCE","RI","2902","PROVIDENCE","4014444000","Acute Care Hospitals","Voluntary non-profit - Private","Yes","410007","41.8119019","-71.4089546"
"410008","SOUTH COUNTY HOSPITAL INC","100 KENYON AVE","","","WAKEFIELD","RI","2879","WASHINGTON","4017828000","Acute Care Hospitals","Voluntary non-profit - Private","Yes","410008","41.431476","-71.496478"
"410009","KENT COUNTY MEMORIAL HOSPITAL","455 TOLL GATE RD","","","WARWICK","RI","2886","KENT","4017377000","Acute Care Hospitals","Voluntary non-profit - Other","Yes","410009","41.705411","-71.477898"
"410010","WOMEN AND INFANTS HOSPITAL OF RHODE ISLAND","101 DUDLEY STREET","","","PROVIDENCE","RI","2905","PROVIDENCE","4012741100","Acute Care Hospitals","Voluntary non-profit - Other","No","410010","41.810963","-71.412083"
"410011","LANDMARK MEDICAL CENTER  INC","115 CASS AVE","","","WOONSOCKET","RI","2895","PROVIDENCE","4017694100","Acute Care Hospitals","Voluntary non-profit - Private","Yes","410011","42.004971","-71.495606"
"410012","MIRIAM HOSPITAL","164 SUMMIT AVENUE","","","PROVIDENCE","RI","2906","PROVIDENCE","4017932500","Acute Care Hospitals","Voluntary non-profit - Private","Yes","410012","41.851722","-71.398257"
"410013","WESTERLY HOSPITAL","25 WELLS STREET","","","WESTERLY","RI","2891","WASHINGTON","4015966000","Acute Care Hospitals","Voluntary non-profit - Private","Yes","410013","41.361981","-71.824449"
"41005F","PROVIDENCE VA MEDICAL CENTER","830 CHALKSTONE AVENUE","","","PROVIDENCE ","RI","2908","COLUMBIA","4014573042","ACUTE CARE - VETERANS ADMINISTRATION","Government Federal","NO","41005F","41.831443","-71.431438"
"420002","PIEDMONT MEDICAL CENTER","222 S HERLONG AVE","","","ROCK HILL","SC","29730","YORK","8033291234","Acute Care Hospitals","Proprietary","Yes","420002","34.955333","-81.0513754"
"420004","MUSC MEDICAL CENTER","169 ASHLEY AVE","","","CHARLESTON","SC","29425","CHARLESTON","8437922300","Acute Care Hospitals","Government - State","Yes","420004","32.784352","-79.946823"
"420005","MCLEOD MEDICAL CENTER - DILLON","301 E JACKSON ST","","","DILLON","SC","29536","DILLON","8437744111","Acute Care Hospitals","Voluntary non-profit - Private","Yes","420005","34.4212705","-79.3661048"
"420007","SPARTANBURG REGIONAL MEDICAL CENTER","101 E WOOD ST","","","SPARTANBURG","SC","29303","SPARTANBURG","8645606000","Acute Care Hospitals","Government - Hospital District or Authority","Yes","420007","34.9678594","-81.9399118"
"420009","OCONEE MEDICAL CENTER","298 MEMORIAL DRIVE","","","SENECA","SC","29672","OCONEE","8648823351","Acute Care Hospitals","Voluntary non-profit - Private","Yes","420009","34.6940268","-82.9888436"
"420010","CAROLINA PINES REGIONAL MEDICAL CENTER","1304 W BOBO NEWSOM HWY","","","HARTSVILLE","SC","29550","DARLINGTON","8643392100","Acute Care Hospitals","Proprietary","Yes","420010","34.3482943","-80.1049454"
"420011","CANNON MEMORIAL HOSPITAL","123 MEDICAL PARK DRIVE PO BOX 188","","","PICKENS","SC","29671","PICKENS","8648784791","Acute Care Hospitals","Voluntary non-profit - Private","Yes","420011","34.8834489","-82.7073573"
"420015","BAPTIST EASLEY HOSPITAL","200 FLEETWOOD DRIVE","","","EASLEY","SC","29640","PICKENS","8644427200","Acute Care Hospitals","Voluntary non-profit - Private","Yes","420015","34.841085","-82.606829"
"420016","BARNWELL COUNTY HOSPITAL","PO BOX 588  811  REYNOLDS ROAD","","","BARNWELL","SC","29812","BARNWELL","8035414161","Acute Care Hospitals","Voluntary non-profit - Other","Yes","420016","33.256438","-81.362602"
"420018","PALMETTO HEALTH RICHLAND","5 RICHLAND MEDICAL PARK","","","COLUMBIA","SC","29203","RICHLAND","8032965678","Acute Care Hospitals","Voluntary non-profit - Private","Yes","420018","34.0295001","-81.0345579"
"420019","CHESTER REGIONAL MEDICAL CENTER","1 MEDICAL PARK DRIVE","","","CHESTER","SC","29706","CHESTER","8035813151","Acute Care Hospitals","Proprietary","No","420019","34.685021","-81.1835227"
"420020","GEORGETOWN MEMORIAL HOSPITAL","606 BLACK RIVER RD DRAWER 1718","","","GEORGETOWN","SC","29440","GEORGETOWN","8435277000","Acute Care Hospitals","Voluntary non-profit - Private","Yes","420020","33.376834","-79.2944964"
"420023","ST FRANCIS-DOWNTOWN","ONE ST FRANCIS DR","","","GREENVILLE","SC","29601","GREENVILLE","8642551000","Acute Care Hospitals","Voluntary non-profit - Church","Yes","420023","34.839652","-82.421472"
"420026","SISTERS OF CHARITY PROVIDENCE HOSPITALS","2435 FOREST DR","","","COLUMBIA","SC","29204","RICHLAND","8032565300","Acute Care Hospitals","Voluntary non-profit - Private","Yes","420026","34.01443","-81.013112"
"420027","ANMED HEALTH","800 N FANT ST","","","ANDERSON","SC","29621","ANDERSON","8642611109","Acute Care Hospitals","Voluntary non-profit - Private","Yes","420027","34.511633","-82.646483"
"420030","COLLETON MEDICAL CENTER","501 ROBERTSON BOULEVARD","","","WALTERBORO","SC","29488","COLLETON","8437822000","Acute Care Hospitals","Proprietary","Yes","420030","32.923153","-80.6698399"
"420033","GREER MEMORIAL HOSPITAL","830 SOUTH BUNCOMBE ROAD","","","GREER","SC","29650","GREENVILLE","8648488200","Acute Care Hospitals","Government - Local","Yes","420033","34.9203964","-82.2438776"
"420036","SPRINGS MEMORIAL HOSPITAL","800 W MEETING ST","","","LANCASTER","SC","29720","LANCASTER","8032861481","Acute Care Hospitals","Proprietary","Yes","420036","34.717873","-80.788438"
"420037","HILLCREST MEMORIAL HOSPITAL","729 SOUTH EAST MAIN STREET","","","SIMPSONVILLE","SC","29681","GREENVILLE","8644546151","Acute Care Hospitals","Government - Hospital District or Authority","Yes","420037","34.7189265","-82.2493961"
"420038","LAURENS COUNTY HEALTHCARE SYSTEM","US HWY 76 PO DRAWER 976","","","CLINTON","SC","29325","LAURENS","8648339100","Acute Care Hospitals","Government - Hospital District or Authority","Yes","420038","34.4726276","-81.8806562"
"420039","WALLACE THOMSON HOSPITAL","322 W SOUTH ST PO BOX 789","","","UNION","SC","29379","UNION","8644270351","Acute Care Hospitals","Government - Hospital District or Authority","No","420039","34.7116269","-81.626744"
"420043","UPSTATE CAROLINA MEDICAL CENTER","1530 N LIMESTONE ST","","","GAFFNEY","SC","29340","CHEROKEE","8644874271","Acute Care Hospitals","Proprietary","Yes","420043","35.089005","-81.633347"
"420048","KERSHAW HEALTH","HAILE AND ROBERTS STREETS","","","CAMDEN","SC","29020","KERSHAW","8034324311","Acute Care Hospitals","Voluntary non-profit - Other","No","420048","34.2465393","-80.6070237"
"420049","CONWAY MEDICAL CENTER","300 SINGLETON RIDGE ROAD","","","CONWAY","SC","29526","HORRY","8433478037","Acute Care Hospitals","Voluntary non-profit - Private","Yes","420049","33.78445","-79.000381"
"420051","MCLEOD REGIONAL MEDICAL CENTER-PEE DEE","555 E CHEVES ST BOX 8700","","","FLORENCE","SC","29506","FLORENCE","8437772900","Acute Care Hospitals","Voluntary non-profit - Private","Yes","420051","34.1954331","-79.7625625"
"420053","NEWBERRY COUNTY MEMORIAL HOSPITAL","2669 KINARD ST PO BOX 497","","","NEWBERRY","SC","29108","NEWBERRY","8032767570","Acute Care Hospitals","Government - Local","Yes","420053","34.2882933","-81.6056764"
"420054","MARLBORO PARK HOSPITAL","1138 CHERAW HIGHWAY","","","BENNETTSVILLE","SC","29512","MARLBORO","8434792881","Acute Care Hospitals","Proprietary","Yes","420054","34.6355286","-79.6989385"
"420055","MARION REGIONAL HOSPITAL","2829 E HWY 76","","","MULLINS","SC","29574","MARION","8434312000","Acute Care Hospitals","Voluntary non-profit - Private","Yes","420055","34.2015747","-79.2449732"
"420056","BAMBERG COUNTY MEMORIAL HOSPITAL","509 NORTH STREET","","","BAMBERG","SC","29003","BAMBERG","8032454321","Acute Care Hospitals","Government - Local","Yes","420056","33.3072957","-81.0292897"
"420057","MCLEOD MEDICAL CENTER - DARLINGTON","701 CASHUA FERRY ROAD","","","DARLINGTON","SC","29540","DARLINGTON","8433951100","Acute Care Hospitals","Voluntary non-profit - Private","No","420057","34.312612","-79.8395357"
"420062","CHESTERFIELD GENERAL HOSPITAL","711 CHESTERFIELD HIGHWAY","","","CHERAW","SC","29520","CHESTERFIELD","8435377881","Acute Care Hospitals","Voluntary non-profit - Private","Yes","420062","34.695385","-79.919357"
"420064","LORIS COMMUNITY HOSPITAL","3655 MITCHELL ST","","","LORIS","SC","29569","HORRY","8437167000","Acute Care Hospitals","Government - Hospital District or Authority","Yes","420064","34.0567149","-78.899035"
"420065","BON SECOURS-ST FRANCIS XAVIER HOSPITAL","2095 HENRY TECKLENBURG DRIVE","","","CHARLESTON","SC","29414","CHARLESTON","8434021000","Acute Care Hospitals","Voluntary non-profit - Private","Yes","420065","32.808777","-80.042165"
"420066","LAKE CITY COMMUNITY HOSPITAL","258 N RON MCNAIR BLVD","","","LAKE CITY","SC","29560","FLORENCE","8433742036","Acute Care Hospitals","Government - Hospital District or Authority","Yes","420066","33.8793208","-79.7593798"
"420067","BEAUFORT COUNTY MEMORIAL HOSPITAL","955 RIBAUT RD","","","BEAUFORT","SC","29902","BEAUFORT","8435225200","Acute Care Hospitals","Government - Local","No","420067","32.416658","-80.687257"
"420068","TRMC OF ORANGEBURG & CALHOUN","3000 ST MATTHEWS RD BOX 1806","","","ORANGEBURG","SC","29115","ORANGEBURG","8035332460","Acute Care Hospitals","Government - Local","Yes","420068","33.6218541","-80.74922"
"420069","CLARENDON MEMORIAL HOSPITAL","10 HOSPITAL ST BOX 550","","","MANNING","SC","29102","CLARENDON","8034358463","Acute Care Hospitals","Government - Hospital District or Authority","Yes","420069","33.6951627","-80.2109134"
"420070","TUOMEY HEALTHCARE SYSTEM","129 N WASHINGTON ST","","","SUMTER","SC","29150","SUMTER","8037748900","Acute Care Hospitals","Voluntary non-profit - Private","Yes","420070","33.923197","-80.343078"
"420071","SELF REGIONAL HEALTHCARE","1325 SPRING STREET","","","GREENWOOD","SC","29646","GREENWOOD","8642274111","Acute Care Hospitals","Voluntary non-profit - Private","Yes","420071","34.177879","-82.156509"
"420072","HAMPTON REGIONAL MEDICAL CENTER","595 WEST CAROLINA AVENUE","","","VARNVILLE","SC","29944","HAMPTON","8039432771","Acute Care Hospitals","Voluntary non-profit - Private","Yes","420072","32.854769","-81.0870298"
"420073","LEXINGTON MEDICAL CENTER","2720 SUNSET BLVD","","","WEST COLUMBIA","SC","29169","LEXINGTON","8037912000","Acute Care Hospitals","Government - Hospital District or Authority","Yes","420073","34.006091","-81.114497"
"420078","GREENVILLE MEMORIAL HOSPITAL","701 GROVE RD","","","GREENVILLE","SC","29605","GREENVILLE","8644557000","Acute Care Hospitals","Voluntary non-profit - Other","Yes","420078","34.8213078","-82.4132323"
"420079","TRIDENT MEDICAL CENTER","9330 MEDICAL PLAZA DR","","","CHARLESTON","SC","29406","CHARLESTON","8437978800","Acute Care Hospitals","Proprietary","Yes","420079","32.976051","-80.073023"
"420080","HILTON HEAD REGIONAL MEDICAL CENTER","25 HOSPITAL CENTER BLVD","","","HILTON HEAD ISLAND","SC","29925","BEAUFORT","8436816122","Acute Care Hospitals","Voluntary non-profit - Private","Yes","420080","32.223249","-80.714439"
"420082","AIKEN REGIONAL MEDICAL CENTER","302 UNIVERSITY PARKWAY","","","AIKEN","SC","29801","AIKEN","8036415900","Acute Care Hospitals","Proprietary","Yes","420082","33.572206","-81.762177"
"420083","MARY BLACK MEMORIAL HOSPITAL","1700 SKYLYN DR BOX 3217","","","SPARTANBURG","SC","29307","SPARTANBURG","8645733000","Acute Care Hospitals","Proprietary","Yes","420083","34.9495672","-81.9320482"
"420085","GRAND STRAND REG MED CENTER","809 82ND PARKWAY BOX 7500","","","MYRTLE BEACH","SC","29577","HORRY","8436921100","Acute Care Hospitals","Proprietary","Yes","420085","33.7070405","-78.8948741"
"420086","PALMETTO HEALTH BAPTIST","TAYLOR AT MARION","","","COLUMBIA","SC","29220","RICHLAND","8032965678","Acute Care Hospitals","Voluntary non-profit - Private","Yes","420086","34.0075975","-81.0327225"
"420087","ROPER HOSPITAL","316 CALHOUN ST","","","CHARLESTON","SC","29401","CHARLESTON","8437242800","Acute Care Hospitals","Voluntary non-profit - Private","Yes","420087","32.782027","-79.9500801"
"420089","EAST COOPER MEDICAL CENTER","2000 HOSPITAL DR","","","MOUNT PLEASANT","SC","29464","CHARLESTON","8438810100","Acute Care Hospitals","Proprietary","Yes","420089","32.8211859","-79.8505211"
"420091","CAROLINAS HOSPITAL SYSTEM","805 PAMPLICO HWY BOX 100550","","","FLORENCE","SC","29505","FLORENCE","8436742500","Acute Care Hospitals","Proprietary","Yes","420091","34.1954331","-79.7625625"
"420098","WACCAMAW COMMUNITY HOSPITAL","4070 HIGHWAY 17 BY-PASS","","","MURRELLS INLET","SC","29576","GEORGETOWN","8436521000","Acute Care Hospitals","Voluntary non-profit - Private","Yes","420098","33.5510021","-79.0414261"
"420101","COASTAL CAROLINA HOSPITAL","1000 MEDICAL CENTER DRIVE","","","HARDEEVILLE","SC","29927","JASPER","8437848000","Acute Care Hospitals","Proprietary","Yes","420101","32.3202815","-81.0572305"
"420102","PATEWOOD MEMORIAL HOSPITAL","175 PATEWOOD DRIVE","","","GREENVILLE","SC","29615","GREENVILLE","8644540888","Acute Care Hospitals","Government - Hospital District or Authority","Yes","420102","34.8524246","-82.325929"
"420103","VILLAGE HOSPITAL","250 WESTMORELAND ROAD","","","GREER","SC","29651","GREENVILLE","8645306000","Acute Care Hospitals","Government - Hospital District or Authority","Yes","420103","34.8633696","-82.2174849"
"42011F","COLUMBIA SC VA MEDICAL CENTER","6439 GARNERS FERRY ROAD","","","COLUMBIA   ","SC","29209","RICHLAND","8036957980","ACUTE CARE - VETERANS ADMINISTRATION","Government Federal","NO","42011F","33.976972","-80.961777"
"42029F","CHARLESTON VA MEDICAL CENTER","109 BEE STREET","","","CHARLESTON ","SC","29401","HOT SPRING","8435775011","ACUTE CARE - VETERANS ADMINISTRATION","Government Federal","NO","42029F","32.784051","-79.95404"
"421301","ABBEVILLE AREA MEDICAL CENTER","420 THOMSON CIRCLE","","","ABBEVILLE","SC","29620","ABBEVILLE","8643665011","Critical Access Hospitals","Voluntary non-profit - Private","Yes","421301","34.159422","-82.3814281"
"421302","FAIRFIELD MEMORIAL HOSPITAL","321 BYPASS PO BOX 620","","","WINNSBORO","SC","29180","FAIRFIELD","8036350233","Critical Access Hospitals","Government - Local","Yes","421302","34.401979","-81.103234"
"421303","WILLIAMSBURG REGIONAL HOSPITAL","500 NELSON BOULEVARD PO BOX 568","","","KINGSTREE","SC","29556","WILLIAMSBURG","8433550167","Critical Access Hospitals","Voluntary non-profit - Private","Yes","421303","33.6606209","-79.8203881"
"421304","EDGEFIELD COUNTY HOSPITAL","300 RIDGE MEDICAL PLAZA PO BOX 590","","","EDGEFIELD","SC","29824","EDGEFIELD","8036373174","Critical Access Hospitals","Government - Local","Yes","421304","33.7782529","-81.9294029"
"430005","PRAIRIE LAKES HOSPITAL","401 9TH AVENUE NW  PO BOX 1210","","","WATERTOWN","SD","57201","CODINGTON","6058827000","Acute Care Hospitals","Voluntary non-profit - Private","Yes","430005","44.9108548","-97.1203531"
"430008","BROOKINGS HOSPITAL","300 22ND AVE","","","BROOKINGS","SD","57006","BROOKINGS","6056967701","Acute Care Hospitals","Government - Local","No","430008","44.3036143","-96.7682333"
"430012","AVERA SACRED HEART HOSPITAL","501 SUMMIT","","","YANKTON","SD","57078","YANKTON","6056688000","Acute Care Hospitals","Voluntary non-profit - Church","Yes","430012","42.8724751","-97.4068788"
"430013","AVERA QUEEN OF PEACE","525 N FOSTER","","","MITCHELL","SD","57301","DAVISON","6059952000","Acute Care Hospitals","Voluntary non-profit - Church","Yes","430013","43.713996","-98.0073656"
"430014","AVERA ST LUKES","305 S STATE ST","","","ABERDEEN","SD","57401","BROWN","6056225000","Acute Care Hospitals","Voluntary non-profit - Other","No","430014","45.4621048","-98.4792828"
"430015","ST MARYS HOSPITAL","801 E SIOUX","","","PIERRE","SD","57501","HUGHES","6052243100","Acute Care Hospitals","Voluntary non-profit - Church","Yes","430015","44.3591625","-100.3315388"
"430016","AVERA MCKENNAN HOSPITAL & UNIVERSITY HEALTH CENTER","800 E 21ST ST","","","SIOUX FALLS","SD","57117","MINNEHAHA","6053228000","Acute Care Hospitals","Voluntary non-profit - Private","Yes","430016","43.5337489","-96.71628"
"430027","SANFORD USD MEDICAL CENTER","1305 W 18TH ST  PO BOX 5039","","","SIOUX FALLS","SD","57117","MINNEHAHA","6053331000","Acute Care Hospitals","Voluntary non-profit - Other","Yes","430027","43.536662","-96.7437862"
"43002F","VA BLACK HILLS HEALTHCARE SYSTEM - FORT MEADE","113 COMANCHE ROAD","","","FORT MEADE ","SD","57741","MEADE","6053472511","ACUTE CARE - VETERANS ADMINISTRATION","Government Federal","NO","43002F","44.412101","-103.4691087"
"430048","SPEARFISH REGIONAL HOSPITAL","1440 N MAIN ST","","","SPEARFISH","SD","57783","LAWRENCE","6056444000","Acute Care Hospitals","Voluntary non-profit - Private","No","430048","44.498011","-103.8611412"
"43005F","SIOUX FALLS VA MEDICAL CENTER","2501 WEST 22ND STREET","","","SIOUX FALLS","SD","57117","MINNEHAHA","6053363230","ACUTE CARE - VETERANS ADMINISTRATION","Government Federal","NO","43005F","43.5330424","-96.7565381"
"430060","HOLY INFANT HOSPITAL","512 MAIN STREET","","","HOVEN","SD","57450","POTTER","6059482262","Acute Care Hospitals","Voluntary non-profit - Other","No","430060","45.2435941","-99.7770613"
"430077","RAPID CITY REGIONAL HOSPITAL","353 FAIRMONT BLVD  PO BOX 6000","","","RAPID CITY","SD","57701","PENNINGTON","6057191000","Acute Care Hospitals","Voluntary non-profit - Private","Yes","430077","44.058375","-103.223575"
"430081","PHS INDIAN HOSPITAL AT PINE RIDGE","EAST HIGHWAY 18","","","PINE RIDGE","SD","57770","SHANNON","6058675131","Acute Care Hospitals","Government - Federal","No","430081","43.2001114","-96.430684"
"430082","PHS INDIAN HOSPITAL AT RAPID CITY - SIOUX SAN","3200 CANYON LAKE DR","","","RAPID CITY","SD","57702","PENNINGTON","6053552500","Acute Care Hospitals","Government - Federal","Yes","430082","44.073168","-103.280225"
"430083","PHS INDIAN HOSPITAL AT EAGLE BUTTE","317 MAIN STREET","","","EAGLE BUTTE","SD","57625","DEWEY","6059643005","Acute Care Hospitals","Government - Federal","No","430083","44.9998352","-101.2347423"
"430084","PHS INDIAN HOSPITAL AT ROSEBUD","400 SOLDIER CREEK ROAD","","","ROSEBUD","SD","57570","TODD","6057472231","Acute Care Hospitals","Government - Federal","No","430084","43.2794808","-100.867519"
"430089","SIOUXLAND SURGERY CENTER LP","600 SIOUX POINT ROAD","","","DAKOTA DUNES","SD","57049","UNION","6052323332","Acute Care Hospitals","Proprietary","No","430089","42.5055175","-96.4962584"
"430090","SIOUX FALLS SURGICAL HOSPITAL LLP","910 EAST 20TH STREET","","","SIOUX FALLS","SD","57105","MINNEHAHA","6053346730","Acute Care Hospitals","Proprietary","Yes","430090","43.5348537","-96.714902"
"430091","BLACK HILLS SURGICAL HOSPITAL LLP","1868 LOMBARDY DR","","","RAPID CITY","SD","57703","PENNINGTON","6057214900","Acute Care Hospitals","Proprietary","Yes","430091","44.0645","-103.18294"
"430092","DAKOTA PLAINS SURGICAL CENTER LLP","701 8TH AVENUE NW SUITE C","","","ABERDEEN","SD","57401","BROWN","6052253300","Acute Care Hospitals","Proprietary","No","430092","45.4738971","-98.4977834"
"430093","SAME DAY SURGERY CENTER LLC","651 CATHEDRAL DRIVE","","","RAPID CITY","SD","57701","PENNINGTON","6057195000","Acute Care Hospitals","Voluntary non-profit - Other","Yes","430093","44.0592099","-103.228586"
"430094","SPEARFISH REGIONAL SURGERY CENTER","1316 10TH ST","","","SPEARFISH","SD","57783","LAWRENCE","6056423113","Acute Care Hospitals","Voluntary non-profit - Other","Yes","430094","44.4975401","-103.8547314"
"430095","AVERA HEART HOSPITAL OF SOUTH DAKOTA LLC","4500 W 69TH ST","","","SIOUX FALLS","SD","57108","MINNEHAHA","6059777000","Acute Care Hospitals","Proprietary","No","430095","43.4909355","-96.7810891"
"430096","LEWIS AND CLARK SPECIALTY HOSPITAL","2601 FOX RUN PARKWAY","","","YANKTON","SD","57078","YANKTON","6056655100","Acute Care Hospitals","Proprietary","No","430096","42.9004935","-97.3998589"
"431300","MADISON COMMUNITY HOSPITAL - CRITICAL ACCESS HOSP","917 N WASHINGTON AVE","","","MADISON","SD","57042","LAKE","6052566551","Critical Access Hospitals","Voluntary non-profit - Private","Yes","431300","44.0136664","-97.1097886"
"431306","PLATTE HEALTH CENTER - CRITICAL ACCESS HOSPITAL","601 E 7TH ST  PO BOX 200","","","PLATTE","SD","57369","CHARLES MIX","6053373364","Critical Access Hospitals","Voluntary non-profit - Private","Yes","431306","43.3841988","-98.8363512"
"431310","AVERA FLANDREAU MEDICAL CENTER HOSPITAL - CAH","214 NORTH PRAIRIE AVENUE","","","FLANDREAU","SD","57028","MOODY","6059972433","Critical Access Hospitals","Government - Local","Yes","431310","44.0496084","-96.5914685"
"431315","WAGNER COMMUNITY MEM HOSP - CRITICAL ACCESS HOSP","513 3RD ST SW PO BOX 280","","","WAGNER","SD","57380","CHARLES MIX","6053843611","Critical Access Hospitals","Government - Local","Yes","431315","43.0788361","-98.2869679"
"431316","COMMUNITY MEMORIAL HOSPITAL - CRITICAL ACCESS HOSP","111 W 10TH AVE  PO BOX 420","","","REDFIELD","SD","57469","SPINK","6054721110","Critical Access Hospitals","Government - Local","Yes","431316","44.8719236","-98.5210279"
"431317","LANDMANN-JUNGMAN MEMORIAL HOSPITAL - CAH","600 BILLARS ST","","","SCOTLAND","SD","57059","BON HOMME","6055832226","Critical Access Hospitals","Government - Local","Yes","431317","43.1497151","-97.7175669"
"431318","BOWDLE HOSPITAL - CRITICAL ACCESS HOSPITAL","8001 W 5TH  PO BOX 556","","","BOWDLE     ","SD","57428","EDMUNDS","6052856146","Critical Access Hospitals","Government - Local","Yes","431318","45.4485423","-99.6618565"
"431320","LEAD - DEADWOOD REGIONAL HOSPITAL - CAH","61 CHARLES STREET","","","DEADWOOD","SD","57732","LAWRENCE","6057226101","Critical Access Hospitals","Voluntary non-profit - Private","Yes","431320","44.3704535","-103.7278145"
"431321","STURGIS REGIONAL HOSPITAL","949 HARMON STREET","","","STURGIS","SD","57785","MEADE","6057202400","Critical Access Hospitals","Voluntary non-profit - Private","Yes","431321","44.401993","-103.5077129"
"431322","FALL RIVER HOSPITAL - CRITICAL ACCESS HOSPITAL","1201 HIGHWAY 71 SOUTH","","","HOT SPRINGS","SD","57747","FALL RIVER","6057458910","Critical Access Hospitals","Government - Local","Yes","431322","43.3331175","-103.5485173"
"431323","CUSTER REGIONAL HOSPITAL - CRITICAL ACCESS HOSP","1039 MONTGOMERY STREET","","","CUSTER","SD","57730","CUSTER","6056732229","Critical Access Hospitals","Voluntary non-profit - Private","Yes","431323","43.7719115","-103.5941375"
"431324","AVERA WESKOTA MEMORIAL MEDICAL CENTER - CAH","604 1ST ST NE","","","WESSINGTON SPRINGS","SD","57382","JERAULD","6055391201","Critical Access Hospitals","Voluntary non-profit - Church","Yes","431324","44.0803979","-98.5622782"
"431325","MOBRIDGE REGIONAL HOSPITAL - CRITICAL ACCESS HOSP","1401 10TH AVE WEST","","","MOBRIDGE","SD","57601","WALWORTH","6058453692","Critical Access Hospitals","Government - Local","Yes","431325","45.5468528","-100.4482939"
"431326","MILBANK AREA HOSPITAL/AVERA HEALTH - CAH","901 E VIRGIL AVE","","","MILBANK","SD","57252","GRANT","6054324538","Critical Access Hospitals","Voluntary non-profit - Private","Yes","431326","45.2218526","-96.6263305"
"431329","SANFORD MID-DAKOTA HOSPITAL - CAH","300 S BYRON","","","CHAMBERLAIN","SD","57325","BRULE","6057345511","Critical Access Hospitals","Voluntary non-profit - Private","Yes","431329","43.7884759","-99.3268217"
"431330","AVERA ST BENEDICT HEALTH CENTER - CAH","401 WEST GLYNN DRIVE","","","PARKSTON","SD","57366","HUTCHINSON","6059283311","Critical Access Hospitals","Voluntary non-profit - Private","Yes","431330","43.398951","-97.9901131"
"431331","AVERA DELLS AREA HEALTH CENTER - CAH","909 N IOWA AVE","","","DELL RAPIDS","SD","57022","MINNEHAHA","6054285431","Critical Access Hospitals","Voluntary non-profit - Church","Yes","431331","43.8282827","-96.7153585"
"431332","AVERA DESMET MEMORIAL HOSPITAL - CAH","306 PRAIRIE AVENUE SW PO BOX 160","","","DE SMET","SD","57231","KINGSBURY","6058543329","Critical Access Hospitals","Voluntary non-profit - Other","Yes","431332","44.3831707","-97.5616971"
"431334","WINNER REGIONAL HEALTHCARE CENTER - CAH","745 EAST 8TH STREET","","","WINNER","SD","57580","TRIPP","6058427100","Critical Access Hospitals","Voluntary non-profit - Private","Yes","431334","43.3708748","-99.8480286"
"431335","HURON REGIONAL MEDICAL CENTER","172 FOURTH STREET SE","","","HURON","SD","57350","BEADLE","6053536200","Critical Access Hospitals","Voluntary non-profit - Private","Yes","431335","44.3620283","-98.2112274"
"431336","SANFORD VERMILLION HOSPITAL","20 SOUTH PLUM STREET","","","VERMILLION","SD","57069","CLAY","6056242611","Critical Access Hospitals","Voluntary non-profit - Private","Yes","431336","42.7791353","-96.9199143"
"431337","AVERA HAND COUNTY MEMORIAL HOSPITAL AND CLINIC","300 W 5TH ST","","","MILLER","SD","57362","HAND","6058532421","Critical Access Hospitals","Government - Local","Yes","431337","44.5206023","-98.9920369"
"431338","AVERA GREGORY HEALTHCARE CENTER","400 PARK STREET  PO BOX 408","","","GREGORY","SD","57533","GREGORY","6058358394","Critical Access Hospitals","Voluntary non-profit - Church","Yes","431338","43.2305111","-99.4354093"
"440001","UNICOI COUNTY MEMORIAL HOSPITAL","GREENWAY CIRCLE","","","ERWIN","TN","37650","UNICOI","4237433141","Acute Care Hospitals","Voluntary non-profit - Other","Yes","440001","36.1342947","-82.4126352"
"440002","JACKSON-MADISON COUNTY GENERAL HOSPITAL","620 SKYLINE DRIVE","","","JACKSON","TN","38301","MADISON","7315415000","Acute Care Hospitals","Voluntary non-profit - Other","Yes","440002","35.639061","-88.832071"
"440003","SUMNER REGIONAL MEDICAL CENTER","555 HARTSVILLE PIKE","","","GALLATIN","TN","37066","SUMNER","6154524210","Acute Care Hospitals","Proprietary","Yes","440003","36.389814","-86.433895"
"440006","SKYLINE MEDICAL CENTER","3441 DICKERSON PIKE","","","NASHVILLE","TN","37207","DAVIDSON","6157692000","Acute Care Hospitals","Voluntary non-profit - Private","Yes","440006","36.2408321","-86.7572173"
"440007","UNITED REGIONAL MEDICAL CENTER","1001 MCARTHUR ST","","","MANCHESTER","TN","37355","COFFEE","9317283586","Acute Care Hospitals","Proprietary","Yes","440007","35.468716","-86.084001"
"440008","HENDERSON COUNTY COMMUNITY HOSPITAL","200 W CHURCH ST","","","LEXINGTON","TN","38351","HENDERSON","7319681801","Acute Care Hospitals","Proprietary","Yes","440008","35.6541513","-88.3986272"
"440009","CUMBERLAND MEDICAL CENTER","421 S MAIN ST","","","CROSSVILLE","TN","38555","CUMBERLAND","9314849511","Acute Care Hospitals","Voluntary non-profit - Private","Yes","440009","35.9391697","-85.018647"
"440010","WAYNE MEDICAL CENTER","103 J V MANGUBAT DR","","","WAYNESBORO","TN","38485","WAYNE","9317225411","Acute Care Hospitals","Voluntary non-profit - Other","Yes","440010","35.325195","-87.756396"
"440011","BLOUNT MEMORIAL HOSPITAL","907 E LAMAR ALEXANDER PARKWAY","","","MARYVILLE","TN","37804","BLOUNT","8659837211","Acute Care Hospitals","Government - Local","Yes","440011","35.7558816","-83.9580765"
"440012","WELLMONT BRISTOL REGIONAL MEDICAL CENTER","ONE MEDICAL PARK BLVD","","","BRISTOL","TN","37620","SULLIVAN","4238441121","Acute Care Hospitals","Government - Hospital District or Authority","No","440012","36.5893354","-82.2537759"
"440015","UNIVERSITY OF TN MEMORIAL HOSPITAL","1924 ALCOA HIGHWAY","","","KNOXVILLE","TN","37920","KNOX","8655449000","Acute Care Hospitals","Voluntary non-profit - Private","Yes","440015","35.9398588","-83.9430702"
"440016","BAPTIST MEMORIAL HOSPITAL HUNTINGDON","631 RB WILSON DR","","","HUNTINGDON","TN","38344","CARROLL","7319864461","Acute Care Hospitals","Voluntary non-profit - Church","Yes","440016","36.022853","-88.412037"
"440017","WELLMONT HOLSTON VALLEY MEDICAL CENTER","130 WEST RAVINE ROAD","","","KINGSPORT","TN","37662","SULLIVAN","4232244000","Acute Care Hospitals","Voluntary non-profit - Private","Yes","440017","36.5540128","-82.5548303"
"440018","SYCAMORE SHOALS HOSPITAL","1501 WEST ELK AVENUE","","","ELIZABETHTON","TN","37643","CARTER","4235421300","Acute Care Hospitals","Voluntary non-profit - Private","Yes","440018","36.3513416","-82.2332703"
"440020","HILLSIDE HOSPITAL","1265 E COLLEGE ST","","","PULASKI","TN","38478","GILES","9313637531","Acute Care Hospitals","Proprietary","Yes","440020","35.192024","-87.0060809"
"440025","LAUGHLIN MEMORIAL HOSPITAL INC","1420 TUSCULUM BLVD","","","GREENEVILLE","TN","37745","GREENE","4237875000","Acute Care Hospitals","Voluntary non-profit - Private","Yes","440025","36.176122","-82.789655"
"440029","WILLIAMSON MEDICAL CENTER","4321 CAROTHERS PARKWAY","","","FRANKLIN","TN","37067","WILLIAMSON","6154355000","Acute Care Hospitals","Government - Hospital District or Authority","Yes","440029","35.9159522","-86.8179916"
"440030","MORRISTOWN HAMBLEN HOSPITAL ASSOCIATION","908 W 4TH NORTH ST","","","MORRISTOWN","TN","37814","HAMBLEN","4235864231","Acute Care Hospitals","Government - Local","No","440030","36.2121213","-83.3040676"
"440031","ROANE MEDICAL CENTER","412 DEVONIA ST","","","HARRIMAN","TN","37748","ROANE","8658821323","Acute Care Hospitals","Government - Hospital District or Authority","Yes","440031","35.9356923","-84.55186"
"440032","WELLMONT HAWKINS COUNTY MEMORIAL HOSPITAL","851 LOCUST STREET","","","ROGERSVILLE","TN","37857","HAWKINS","4239217000","Acute Care Hospitals","Voluntary non-profit - Private","Yes","440032","36.3995416","-83.0134702"
"440033","ST MARY'S MEDICAL CENTER OF CAMPBELL COUNTY","923 EAST CENTRAL AVENUE","","","LA FOLLETTE","TN","37766","CAMPBELL","4239071200","Acute Care Hospitals","Voluntary non-profit - Church","Yes","440033","36.388947","-84.111835"
"440034","METHODIST MEDICAL CENTER OF OAK RIDGE","990 OAK RIDGE TURNPIKE BOX 529","","","OAK RIDGE","TN","37830","ANDERSON","8658351000","Acute Care Hospitals","Voluntary non-profit - Private","Yes","440034","35.9755409","-84.2910759"
"440035","GATEWAY MEDICAL CENTER","651 DUNLOP LANE","","","CLARKSVILLE","TN","37040","MONTGOMERY","9315021000","Acute Care Hospitals","Government - Hospital District or Authority","Yes","440035","36.5820186","-87.2706294"
"440039","VANDERBILT UNIVERSITY HOSPITAL","1161 21ST AVENUE SOUTH","","","NASHVILLE","TN","37232","DAVIDSON","6153223454","Acute Care Hospitals","Voluntary non-profit - Private","Yes","440039","36.142969","-86.800715"
"440040","PERRY COMMUNITY HOSPITAL","2718 SQUIRREL HOLLOW DRIVE","","","LINDEN","TN","37096","PERRY","9315892121","Acute Care Hospitals","Proprietary","Yes","440040","35.5928953","-87.8657543"
"440046","HORIZON MEDICAL CENTER","111 HIGHWAY 70 EAST","","","DICKSON","TN","37055","DICKSON","6154460446","Acute Care Hospitals","Proprietary","Yes","440046","36.085262","-87.338734"
"440047","GIBSON GENERAL HOSPITAL","200 HOSPITAL DR","","","TRENTON","TN","38382","GIBSON","7318557900","Acute Care Hospitals","Voluntary non-profit - Other","Yes","440047","35.9628877","-88.9398211"
"440048","BAPTIST MEMORIAL HOSPITAL","6019 WALNUT GROVE ROAD","","","MEMPHIS","TN","38120","SHELBY","9012265000","Acute Care Hospitals","Voluntary non-profit - Private","Yes","440048","35.128368","-89.862027"
"440049","METHODIST HEALTHCARE MEMPHIS HOSPITALS","1265 UNION AVE SUITE 700","","","MEMPHIS","TN","38104","SHELBY","9015168274","Acute Care Hospitals","Voluntary non-profit - Church","Yes","440049","35.136384","-90.019274"
"440050","TAKOMA REGIONAL HOSPITAL","401 TAKOMA AVE","","","GREENEVILLE","TN","37743","GREENE","4236393151","Acute Care Hospitals","Voluntary non-profit - Church","Yes","440050","36.1523878","-82.8450612"
"440051","MCNAIRY REGIONAL HOSPITAL","705 E POPLAR AVE","","","SELMER","TN","38375","MCNAIRY","7316453221","Acute Care Hospitals","Proprietary","Yes","440051","35.161391","-88.575877"
"440053","MIDDLE TENNESSEE MEDICAL CENTER INC","1700 MEDICAL CENTER PARKWAY","","","MURFREESBORO","TN","37129","RUTHERFORD","6153964100","Acute Care Hospitals","Voluntary non-profit - Church","Yes","440053","35.8581377","-86.4247002"
"440054","WOODS MEMORIAL HOSPITAL","886 HIGHWAY 411 NORTH","","","ETOWAH","TN","37331","MCMINN","4232633600","Acute Care Hospitals","Government - Hospital District or Authority","No","440054","35.312483","-84.530447"
"440056","ST MARY'S JEFFERSON MEMORIAL HOSPITAL","110 HOSPITAL DRIVE","","","JEFFERSON CITY","TN","37760","JEFFERSON","8654712500","Acute Care Hospitals","Voluntary non-profit - Private","Yes","440056","36.106414","-83.519239"
"440057","CLAIBORNE COUNTY HOSPITAL","1850 OLD KNOXVILLE HIGHWAY","","","TAZEWELL","TN","37879","CLAIBORNE","4236264211","Acute Care Hospitals","Government - Local","Yes","440057","36.4406158","-83.5948761"
"440058","SOUTHERN TENNESSEE MEDICAL CENTER","185 HOSPITAL ROAD","","","WINCHESTER","TN","37398","FRANKLIN","9319678295","Acute Care Hospitals","Proprietary","Yes","440058","35.177333","-86.090814"
"440059","COOKEVILLE REGIONAL MEDICAL CENTER","1 MEDICAL CENTER BOULEVARD","","","COOKEVILLE","TN","38501","PUTNAM","9316462000","Acute Care Hospitals","Government - Local","Yes","440059","36.1712056","-85.5093828"
"440060","MILAN GENERAL HOSPITAL","4039 HIGHLAND ST","","","MILAN","TN","38358","GIBSON","7316861591","Acute Care Hospitals","Government - Local","Yes","440060","35.9129245","-88.7532867"
"440061","VOLUNTEER COMMUNITY HOSPITAL","161 MOUNT PELIA RD","","","MARTIN","TN","38237","WEAKLEY","7315874261","Acute Care Hospitals","Proprietary","Yes","440061","36.334651","-88.868584"
"440063","JOHNSON CITY MEDICAL CENTER","400 N STATE OF FRANKLIN RD","","","JOHNSON CITY","TN","37604","WASHINGTON","4234316111","Acute Care Hospitals","Voluntary non-profit - Private","Yes","440063","36.307673","-82.384973"
"440064","GRANDVIEW MEDICAL CENTER","1000 HIGHWAY 28","","","JASPER","TN","37347","MARION","4238379500","Acute Care Hospitals","Voluntary non-profit - Private","Yes","440064","35.045808","-85.629768"
"440065","NORTHCREST MEDICAL CENTER","100 NORTHCREST DRIVE","","","SPRINGFIELD","TN","37172","ROBERTSON","6153842411","Acute Care Hospitals","Voluntary non-profit - Other","Yes","440065","36.479272","-86.886317"
"440067","LAKEWAY REGIONAL HOSPITAL","726 MCFARLAND ST","","","MORRISTOWN","TN","37814","HAMBLEN","4235226000","Acute Care Hospitals","Proprietary","Yes","440067","36.2148437","-83.3043135"
"440068","ATHENS REGIONAL MEDICAL CENTER","1114 W MADISON AVE","","","ATHENS","TN","37371","MCMINN","4237451411","Acute Care Hospitals","Proprietary","Yes","440068","35.4404129","-84.6077331"
"440070","DECATUR COUNTY GENERAL HOSPITAL","969 TENNESSEE AVE S","","","PARSONS","TN","38363","DECATUR","7318473031","Acute Care Hospitals","Government - Local","Yes","440070","35.635898","-88.122244"
"440072","DYERSBURG REGIONAL MEDICAL CENTER","400 TICKLE ST","","","DYERSBURG","TN","38024","DYER","7312852410","Acute Care Hospitals","Proprietary","Yes","440072","36.048535","-89.380182"
"440073","MAURY REGIONAL HOSPITAL","1224 TROTWOOD AVE","","","COLUMBIA","TN","38401","MAURY","9313811111","Acute Care Hospitals","Government - Local","Yes","440073","35.60606","-87.0656805"
"440081","LECONTE MEDICAL CENTER","742 MIDDLECREEK ROAD","","","SEVIERVILLE","TN","37862","CUMBERLAND","8654296618","Acute Care Hospitals","Voluntary non-profit - Other","Yes","440081","35.8543259","-83.5374227"
"440082","ST THOMAS HOSPITAL","4220 HARDING RD PO BOX 380","","","NASHVILLE","TN","37205","DAVIDSON","6152222111","Acute Care Hospitals","Voluntary non-profit - Church","Yes","440082","36.1288002","-86.8437626"
"440083","JAMESTOWN REGIONAL MEDICAL CENTER","436 CENTRAL AVENUE WEST","","","JAMESTOWN","TN","38556","FENTRESS","9318793352","Acute Care Hospitals","Proprietary","Yes","440083","36.43222","-84.942504"
"440084","SWEETWATER HOSPITAL ASSOCIATION","304 WRIGHT ST","","","SWEETWATER","TN","37874","MONROE","8652138200","Acute Care Hospitals","Voluntary non-profit - Other","Yes","440084","35.6002353","-84.4642435"
"440091","MEMORIAL HEALTHCARE SYSTEM INC","2525 DESALES AVE","","","CHATTANOOGA","TN","37404","HAMILTON","4234952525","Acute Care Hospitals","Voluntary non-profit - Church","Yes","440091","35.041567","-85.260373"
"440102","LINCOLN MEDICAL CENTER","106 MEDICAL CENTER BLVD","","","FAYETTEVILLE","TN","37334","LINCOLN","9314381100","Acute Care Hospitals","Government - Local","Yes","440102","35.1520266","-86.5705508"
"440104","ERLANGER MEDICAL CENTER","975 E 3RD ST","","","CHATTANOOGA","TN","37403","HAMILTON","4237787000","Acute Care Hospitals","Government - Hospital District or Authority","Yes","440104","35.050682","-85.288233"
"440105","JOHNSON CITY SPECIALTY HOSPITAL","203 E WATAUGA AVE","","","JOHNSON CITY","TN","37601","WASHINGTON","4234341400","Acute Care Hospitals","Voluntary non-profit - Private","No","440105","36.3231798","-82.3545454"
"440109","HARDIN MEDICAL CENTER","935 WAYNE ROAD","","","SAVANNAH","TN","38372","HARDIN","7319268121","Acute Care Hospitals","Government - Local","Yes","440109","35.228479","-88.230313"
"440110","FORT LOUDOUN MEDICAL CENTER","550 FORT LOUDOUN MEDICAL CENTER DR","","","LENOIR CITY","TN","37772","LOUDON","8652716000","Acute Care Hospitals","Voluntary non-profit - Other","Yes","440110","35.825393","-84.2711798"
"440111","METRO NASHVILLE GENERAL HOSPITAL","1818 ALBION STREET","","","NASHVILLE","TN","37208","DAVIDSON","6153414490","Acute Care Hospitals","Government - Hospital District or Authority","Yes","440111","36.16683","-86.807109"
"440115","HUMBOLDT GENERAL HOSPITAL INC","3525 CHERE CAROL RD","","","HUMBOLDT","TN","38343","GIBSON","7317842321","Acute Care Hospitals","Government - Hospital District or Authority","Yes","440115","35.815529","-88.895347"
"440120","MERCY MEDICAL CENTER","900 EAST OAK HILL AVENUE","","","KNOXVILLE","TN","37917","KNOX","8655458000","Acute Care Hospitals","Voluntary non-profit - Church","Yes","440120","35.992177","-83.925628"
"440125","FORT SANDERS REGIONAL MEDICAL CENTER","1901 W CLINCH AVE","","","KNOXVILLE","TN","37916","KNOX","8655411101","Acute Care Hospitals","Voluntary non-profit - Private","Yes","440125","35.957142","-83.937154"
"440130","BAPTIST MEMORIAL HOSPITAL UNION CITY","1201 BISHOP ST PO BOX 310","","","UNION CITY","TN","38261","OBION","7318852410","Acute Care Hospitals","Proprietary","Yes","440130","36.4148301","-89.0447798"
"440131","BAPTIST MEMORIAL HOSPITAL TIPTON","1995 HIGHWAY 51 S","","","COVINGTON","TN","38019","TIPTON","9014762621","Acute Care Hospitals","Voluntary non-profit - Church","Yes","440131","35.535701","-89.677681"
"440132","HENRY COUNTY MEDICAL CENTER","301 TYSON AV","","","PARIS","TN","38242","HENRY","7316421220","Acute Care Hospitals","Government - Hospital District or Authority","Yes","440132","36.2961083","-88.3117848"
"440133","BAPTIST HOSPITAL","2000 CHURCH ST","","","NASHVILLE","TN","37236","DAVIDSON","6152845555","Acute Care Hospitals","Voluntary non-profit - Private","Yes","440133","36.1532386","-86.8020632"
"440137","HERITAGE MEDICAL CENTER","2835 HWY 231 N","","","SHELBYVILLE","TN","37160","BEDFORD","9316855433","Acute Care Hospitals","Proprietary","Yes","440137","35.563335","-86.448735"
"44013F","MEMPHIS VA MEDICAL CENTER","1030 JEFFERSON AVENUE","","","MEMPHIS    ","TN","38104","SHELBY","9015777200","ACUTE CARE - VETERANS ADMINISTRATION","Government Federal","NO","44013F","35.1425856","-90.0264831"
"440141","CUMBERLAND RIVER HOSPITAL","100 OLD JEFFERSON ST","","","CELINA","TN","38551","CLAY","9312433581","Acute Care Hospitals","Proprietary","Yes","440141","36.545519","-85.505301"
"440144","HARTON REGIONAL MEDICAL CENTER","1801 N JACKSON ST BOX 460","","","TULLAHOMA","TN","37388","COFFEE","9313933000","Acute Care Hospitals","Voluntary non-profit - Other","Yes","440144","35.3620235","-86.2094342"
"440147","BAPTIST REHABILITATION GERMANTOWN","2100 EXETER ROAD","","","GERMANTOWN","TN","38138","SHELBY","9017571350","Acute Care Hospitals","Voluntary non-profit - Private","No","440147","35.092865","-89.801416"
"440148","STONES RIVER HOSPITAL AND DEKALB COMMUNITY HOSP","520 W MAIN ST","","","SMITHVILLE","TN","37166","DEKALB","6152155000","Acute Care Hospitals","Voluntary non-profit - Church","Yes","440148","35.961297","-85.829365"
"440150","SUMMIT MEDICAL CENTER","5655 FRIST BLVD","","","HERMITAGE","TN","37076","DAVIDSON","6153163000","Acute Care Hospitals","Proprietary","Yes","440150","36.176236","-86.608716"
"440151","RIVER PARK HOSPITAL","1559 SPARTA STREET","","","MC MINNVILLE","TN","37110","WARREN","9318154101","Acute Care Hospitals","Proprietary","Yes","440151","35.700143","-85.742779"
"440152","REGIONAL MEDICAL CENTER AT MEMPHIS","877 JEFFERSON AVENUE","","","MEMPHIS","TN","38103","SHELBY","9015457928","Acute Care Hospitals","Government - Hospital District or Authority","Yes","440152","35.1426188","-90.0316322"
"440153","BAPTIST HOSPITAL OF COCKE COUNTY","435 2ND ST","","","NEWPORT","TN","37821","COCKE","4236252200","Acute Care Hospitals","Voluntary non-profit - Church","Yes","440153","35.965138","-83.181696"
"440156","PARKRIDGE MEDICAL CENTER","2333 MCCALLIE AVE","","","CHATTANOOGA","TN","37404","HAMILTON","4238944220","Acute Care Hospitals","Proprietary","Yes","440156","35.034666","-85.267349"
"440159","DELTA MEDICAL CENTER","3000 GETWELL RD","","","MEMPHIS","TN","38118","SHELBY","9013698100","Acute Care Hospitals","Proprietary","Yes","440159","35.067139","-89.931382"
"440161","CENTENNIAL MEDICAL CENTER","2300 PATTERSON STREET","","","NASHVILLE","TN","37203","DAVIDSON","6153421000","Acute Care Hospitals","Proprietary","Yes","440161","36.153635","-86.810061"
"440162","HEALTHSOUTH CHATTANOOGA REHAB HOSPITAL","2412 MCCALLIE AVE","","","CHATTANOOGA","TN","37404","HAMILTON","4236980221","Acute Care Hospitals","Government - State","No","440162","35.032526","-85.26639"
"440168","METHODIST HEALTHCARE FAYETTE HOSPITAL","214 LAKEVIEW RD","","","SOMERVILLE","TN","38068","FAYETTE","9015164014","Acute Care Hospitals","Voluntary non-profit - Church","Yes","440168","35.24698","-89.363416"
"44016F","MOUNTAIN HOME VA MEDICAL CENTER","SIDNEY & LAMONT STREETS","","","MOUNTAIN HOME                 ","TN","37684","WASHINGTON","4239261171","ACUTE CARE - VETERANS ADMINISTRATION","Government Federal","NO","44016F","-33.8689009","151.2070914"
"440173","PARKWEST MEDICAL CENTER","9352 PARK WEST BLVD","","","KNOXVILLE","TN","37923","KNOX","8653731000","Acute Care Hospitals","Voluntary non-profit - Private","Yes","440173","35.916843","-84.103603"
"440174","HAYWOOD PARK COMMUNITY HOSPITAL","2545 N WASHINGTON AVE","","","BROWNSVILLE","TN","38012","HAYWOOD","7317724110","Acute Care Hospitals","Proprietary","Yes","440174","35.610418","-89.243231"
"440175","CROCKETT HOSPITAL","HWY 43 S BOX 847","","","LAWRENCEBURG","TN","38464","LAWRENCE","9317626571","Acute Care Hospitals","Proprietary","Yes","440175","35.2423023","-87.3347389"
"440176","INDIAN PATH MEDICAL CENTER","2000 BROOKSIDE DR","","","KINGSPORT","TN","37660","SULLIVAN","4234311941","Acute Care Hospitals","Voluntary non-profit - Private","Yes","440176","36.550567","-82.514645"
"440180","JELLICO COMMUNITY HOSPITAL","188 HOSPITAL LANE","","","JELLICO","TN","37762","CAMPBELL","4237847252","Acute Care Hospitals","Voluntary non-profit - Church","Yes","440180","36.572076","-84.131333"
"440181","BOLIVAR GENERAL HOSPITAL","650 NUCKOLLS ROAD","","","BOLIVAR","TN","38008","HARDEMAN","7316583100","Acute Care Hospitals","Government - Hospital District or Authority","No","440181","35.266753","-88.999684"
"440182","MCKENZIE REGIONAL HOSPITAL","161 HOSPITAL DRIVE","","","MC KENZIE","TN","38201","CARROLL","7313525344","Acute Care Hospitals","Proprietary","Yes","440182","36.138638","-88.491191"
"440183","ST FRANCIS HOSPITAL","5959 PARK AVE","","","MEMPHIS","TN","38119","SHELBY","9017651000","Acute Care Hospitals","Proprietary","No","440183","35.099248","-89.863014"
"440184","FRANKLIN WOODS COMMUNITY HOSPITAL","401 PRINCETON RD","","","JOHNSON CITY","TN","37601","WASHINGTON","4238545600","Acute Care Hospitals","Voluntary non-profit - Private","Yes","440184","36.351918","-82.372941"
"440185","SKYRIDGE MEDICAL CENTER","2305 CHAMBLISS AVE NW","","","CLEVELAND","TN","37311","BRADLEY","4233394132","Acute Care Hospitals","Proprietary","Yes","440185","35.177377","-84.869778"
"440186","RIVERVIEW REGIONAL MEDICAL CENTER NORTH","158 HOSPITAL DRIVE","","","CARTHAGE","TN","37030","SMITH","6157351560","Acute Care Hospitals","Government - Local","Yes","440186","36.26377","-85.948553"
"440187","LIVINGSTON REGIONAL HOSPITAL","315 OAK ST BOX 550","","","LIVINGSTON","TN","38570","OVERTON","9318235611","Acute Care Hospitals","Voluntary non-profit - Other","Yes","440187","36.3833961","-85.3230221"
"440189","REGIONAL HOSPITAL OF JACKSON","367 HOSPITAL BLVD","","","JACKSON","TN","38305","MADISON","7316612000","Acute Care Hospitals","Proprietary","Yes","440189","35.684413","-88.854054"
"44018F","VA MIDDLE TENNESSEE HEALTHCARE SYSTEM","1310 24TH AVENUE SOUTH","","","NASHVILLE  ","TN","37212","DAVIDSON","6153275332","ACUTE CARE - VETERANS ADMINISTRATION","Government Federal","NO","44018F","36.141567","-86.80386"
"440192","WHITE COUNTY COMMUNITY HOSPITAL","401 SEWELL DR","","","SPARTA","TN","38583","WHITE","9317389211","Acute Care Hospitals","Proprietary","Yes","440192","35.948927","-85.478253"
"440193","UNIVERSITY MEDICAL CENTER","1411 BADDOUR PARKWAY","","","LEBANON","TN","37087","WILSON","6154448262","Acute Care Hospitals","Voluntary non-profit - Private","Yes","440193","36.220691","-86.327312"
"440194","HENDERSONVILLE MEDICAL CENTER","355 NEW SHACKLE ISLAND RD","","","HENDERSONVILLE","TN","37075","SUMNER","6153381000","Acute Care Hospitals","Voluntary non-profit - Other","Yes","440194","36.3250026","-86.6216089"
"440197","SOUTHERN HILLS MEDICAL CTR","391 WALLACE RD","","","NASHVILLE","TN","37211","DAVIDSON","6157814000","Acute Care Hospitals","Proprietary","Yes","440197","36.076453","-86.722013"
"440200","STONES RIVER HOSPITAL & DEKALB COMMUNITY HOSPITAL","324 DOOLITTLE ROAD","","","WOODBURY","TN","37190","CANNON","6155634001","Acute Care Hospitals","Proprietary","Yes","440200","35.833371","-86.072207"
"440218","THE CENTER FOR SPINAL SURGERY","2011 MURPHY AVENUE","","","NASHVILLE","TN","37203","DAVIDSON","6155158200","Acute Care Hospitals","Proprietary","No","440218","36.15524","-86.8034969"
"440226","BAPTIST HOSPITAL WEST","10820 PARKSIDE DRIVE","","","KNOXVILLE","TN","37934","KNOX","8652187090","Acute Care Hospitals","Voluntary non-profit-Private","Yes","440226","35.898546","-84.144423"
"440227","STONECREST MEDICAL CENTER","200 STONECREST BOULEVARD","","","SMYRNA","TN","37167","RUTHERFORD","6157682000","Acute Care Hospitals","Proprietary","Yes","440227","35.976252","-86.561579"
"440228","SAINT FRANCIS BARTLETT MEDICAL CENTER","2986 KATE BOND RD","","","BARTLETT","TN","38133","SHELBY","9018207050","Acute Care Hospitals","Proprietary","Yes","440228","35.20704","-89.800494"
"441300","HICKMAN COMMUNITY HEALTH SERVICES","135 EAST SWAN STREET","","","CENTERVILLE","TN","37033","HICKMAN","9317294271","Critical Access Hospitals","Voluntary non-profit - Other","Yes","441300","35.780689","-87.460762"
"441301","TROUSDALE MEDICAL CENTER","500 CHURCH STREET","","","HARTSVILLE","TN","37074","TROUSDALE","6153742221","Critical Access Hospitals","Voluntary non-profit - Other","Yes","441301","36.387909","-86.168115"
"441304","JOHNSON COUNTY COMMUNITY HOSPITAL","1901 S SHADY ST","","","MOUNTAIN CITY                 ","TN","37683","JOHNSON","4237271110","Critical Access Hospitals","Voluntary non-profit - Other","Yes","441304","36.453064","-81.797063"
"441305","MACON COUNTY GENERAL HOSPITAL","204 MEDICAL DRIVE","","","LAFAYETTE  ","TN","37083","MACON","6156662147","Critical Access Hospitals","Voluntary non-profit - Private","Yes","441305","36.5192168","-86.0248427"
"441307","RIVERVIEW REGIONAL MEDICAL CENTER SOUTH","130 LEBANON HIGHWAY","","","CARTHAGE","TN","37030","SMITH","6157359815","Critical Access Hospitals","Proprietary","Yes","441307","36.258842","-85.971912"
"441308","MEDICAL CENTER OF MANCHESTER","481 INTERSTATE DRIVE","","","MANCHESTER","TN","37355","COFFEE","9317286354","Critical Access Hospitals","Proprietary","Yes","441308","35.496981","-86.078464"
"441309","MARSHALL MEDICAL CENTER","1080 NORTH ELLINGTON PARKWAY","","","LEWISBURG","TN","37091","MARSHALL","9313596276","Critical Access Hospitals","Government - Hospital District or Authority","Yes","441309","35.463389","-86.784605"
"441310","RHEA MEDICAL CENTER","9400 RHEA COUNTY HIGHWAY","","","DAYTON","TN","37321","RHEA","4237751121","Critical Access Hospitals","Proprietary","Yes","441310","35.5307177","-84.981918"
"441311","CENTENNIAL MEDICAL CENTER OF ASHLAND CITY","313 NORTH MAIN ST","","","ASHLAND CITY","TN","37015","CHEATHAM","6157923030","Critical Access Hospitals","Proprietary","Yes","441311","36.277225","-87.065431"
"441312","PATIENTS' CHOICE MEDICAL CENTER OF ERIN","302 EAST MAIN STREET","","","ERIN","TN","37061","HOUSTON","9312894211","Critical Access Hospitals","Proprietary","Yes","441312","36.3261612","-87.752502"
"441313","WELLMONT HANCOCK COUNTY HOSPITAL","1517 MAIN STREET HWY 33","","","SNEEDVILLE","TN","37869","HANCOCK","4237335001","Critical Access Hospitals","Voluntary non-profit - Private","Yes","441313","36.5298107","-83.2173971"
"441314","LAUDERDALE COMMUNITY HOSPITAL","326 ASBURY AVENUE","","","RIPLEY","TN","38063","LAUDERDALE","7312212200","Critical Access Hospitals","Proprietary","Yes","441314","35.7214428","-89.5660908"
"441315","COPPER BASIN MEDICAL CENTER","HIGHWAY 68","","","COPPERHILL","TN","37317","POLK","4234965511","Critical Access Hospitals","Voluntary non-profit - Other","Yes","441315","35.0194638","-84.3834351"
"441316","CAMDEN GENERAL HOSPITAL","175 HOSPITAL DRIVE","","","CAMDEN","TN","38320","BENTON","7315846135","Critical Access Hospitals","Government - Hospital District or Authority","Yes","441316","36.056198","-88.1081619"
"441317","SCOTT COUNTY HOSPITAL","18797 ALBERTA AVENUE","","","ONEIDA","TN","37841","SCOTT","4235698521","Critical Access Hospitals","Government - Local","Yes","441317","36.4839095","-84.5339918"
"450002","PROVIDENCE MEMORIAL HOSPITAL","2001 N OREGON ST","","","EL PASO","TX","79902","EL PASO","9155776011","Acute Care Hospitals","Proprietary","Yes","450002","31.770319","-106.500861"
"450005","MEMORIAL HERMANN BAPTIST ORANGE HOSPITAL","608 STRICKLAND DRIVE","","","ORANGE","TX","77630","ORANGE","4098839361","Acute Care Hospitals","Voluntary non-profit - Private","Yes","450005","30.100074","-93.766435"
"450007","PETERSON REGIONAL MEDICAL CENTER","551 HILL COUNTRY DRIVE","","","KERRVILLE","TX","78028","KERR","8308964200","Acute Care Hospitals","Voluntary non-profit - Other","Yes","450007","30.0439245","-99.1524297"
"450008","KINGS DAUGHTERS HOSPITAL-SCOTT & WHITE HEALTHCARE","1901 SW H K DODGEN LOOP","","","TEMPLE","TX","76502","BELL","2547718600","Acute Care Hospitals","Voluntary non-profit - Other","Yes","450008","31.072994","-97.373195"
"450010","UNITED REGIONAL HEALTH CARE SYSTEM","1600 11TH STREET","","","WICHITA FALLS","TX","76301","WICHITA","9407643055","Acute Care Hospitals","Voluntary non-profit - Private","Yes","450010","33.9029648","-98.5003528"
"450011","ST JOSEPH REGIONAL HEALTH CENTER","2801 FRANCISCAN DR","","","BRYAN","TX","77802","BRAZOS","9797763912","Acute Care Hospitals","Voluntary non-profit - Church","Yes","450011","30.6554044","-96.3460728"
"450015","PARKLAND HEALTH AND HOSPITAL SYSTEM","5201 HARRY HINES BLVD","","","DALLAS","TX","75235","DALLAS","2145908000","Acute Care Hospitals","Government - Hospital District or Authority","Yes","450015","32.8106802","-96.8346763"
"450018","UNIVERSITY OF TEXAS MEDICAL BRANCH GAL","301 UNIVERSITY BOULEVARD","","","GALVESTON","TX","77555","GALVESTON","4097721011","Acute Care Hospitals","Government - State","Yes","450018","29.311052","-94.778044"
"450021","BAYLOR UNIVERSITY MEDICAL CENTER","3500 GASTON AVE","","","DALLAS","TX","75246","DALLAS","2148200111","Acute Care Hospitals","Voluntary non-profit - Church","Yes","450021","32.7899443","-96.7804366"
"450023","CITIZENS MEDICAL CENTER","2701 HOSPITAL DRIVE","","","VICTORIA","TX","77901","VICTORIA","3615739181","Acute Care Hospitals","Government - Local","Yes","450023","28.812689","-96.977802"
"450024","UNIVERSITY MEDICAL CENTER OF EL PASO","4815 ALAMEDA AVE","","","EL PASO","TX","79905","EL PASO","9155217602","Acute Care Hospitals","Government - Hospital District or Authority","Yes","450024","31.771496","-106.435928"
"450028","VALLEY BAPTIST MEDICAL CENTER - BROWNSVILLE","1040 W JEFFERSON ST","","","BROWNSVILLE","TX","78520","CAMERON","9565441400","Acute Care Hospitals","Proprietary","Yes","450028","25.919335","-97.51054"
"450029","LAREDO MEDICAL CENTER","1700 EAST SAUNDERS","","","LAREDO","TX","78044","WEBB","9567965000","Acute Care Hospitals","Voluntary non-profit - Church","Yes","450029","27.532485","-99.478077"
"450032","GOOD SHEPHERD MEDICAL CENTER MARSHALL","811 S WASHINGTON","","","MARSHALL","TX","75670","HARRISON","9039276712","Acute Care Hospitals","Voluntary non-profit - Private","Yes","450032","32.5372091","-94.3679607"
"450033","VALLEY BAPTIST MEDICAL CENTER","2101 PEASE ST","","","HARLINGEN","TX","78550","CAMERON","9563891100","Acute Care Hospitals","Voluntary non-profit - Church","Yes","450033","26.1742375","-97.6711618"